"date_obs" "Local.Time" "Temperature" "Dewpoint" "Humidity" "Barometer" "Visibility" "Wind.Direction" "Wind.Speed" "Gust.Speed" "Precipitation" "Events" "Conditions"
"1" 2015-04-12 NA NA NA NA NA NA NA NA NA NA NA NA
"2" 2015-04-11 "12:00 AM" 11 5 67 1025.1 NA "ESE (120°)" 7.2 NA "" "" "Clear"
"3" 2015-04-11 "12:30 AM" 11 6 71 1025.1 NA "SE (140°)" 7.2 NA "" "" "Clear"
"4" 2015-04-11 "1:00 AM" 10 6 76 1024 NA "SE (140°)" 7.2 NA "" "" "Clear"
"5" 2015-04-11 "1:30 AM" 10 5 71 1024 NA "Variable" 3.5 NA "" "" "Clear"
"6" 2015-04-11 "2:00 AM" 9 5 76 1024 NA "North (10°)" 7.2 NA "" "" "Clear"
"7" 2015-04-11 "2:30 AM" 9 6 82 1024 NA "North (10°)" 7.2 NA "" "" "Clear"
"8" 2015-04-11 "3:00 AM" 8 6 87 1024 NA "North (360°)" 7.2 NA "" "" "Clear"
"9" 2015-04-11 "3:30 AM" 8 6 87 1024 NA "North (360°)" 7.2 NA "" "" "Clear"
"10" 2015-04-11 "4:00 AM" 8 6 87 1024 NA "North (350°)" 7.2 NA "" "" "Clear"
"11" 2015-04-11 "4:30 AM" 8 6 87 1024 NA "North (10°)" 3.5 NA "" "" "Clear"
"12" 2015-04-11 "5:00 AM" 8 6 87 1024 NA "Calm" NA NA "" "" "Clear"
"13" 2015-04-11 "5:30 AM" 8 6 87 1024 NA "North (350°)" 3.5 NA "" "" "Clear"
"14" 2015-04-11 "6:00 AM" 8 6 87 1025.1 NA "Calm" NA NA "" "" "Clear"
"15" 2015-04-11 "6:30 AM" 9 8 93 1025.1 NA "Calm" NA NA "" "" "Clear"
"16" 2015-04-11 "7:00 AM" 11 8 82 1025.1 NA "Variable" 3.5 NA "" "" "Clear"
"17" 2015-04-11 "7:30 AM" 12 7 72 1025.1 NA "ENE (60°)" 7.2 NA "" "" "Clear"
"18" 2015-04-11 "8:00 AM" 14 8 67 1025.1 NA "Variable" 3.5 NA "" "" "Clear"
"19" 2015-04-11 "8:30 AM" 14 2 44 1025.1 NA "East (100°)" 10.8 NA "" "" "Clear"
"20" 2015-04-11 "9:00 AM" 15 2 42 1025.1 NA "East (100°)" 10.8 NA "" "" "Clear"
"21" 2015-04-11 "9:30 AM" 16 2 39 1025.1 NA "ESE (120°)" 18 NA "" "" "Clear"
"22" 2015-04-11 "10:00 AM" 17 2 37 1026.1 NA "East (80°)" 18 NA "" "" "Clear"
"23" 2015-04-11 "10:30 AM" 18 2 34 1025.1 NA "ESE (110°)" 18 NA "" "" "Clear"
"24" 2015-04-11 "11:00 AM" 18 1 32 1025.1 NA "East (90°)" 18 NA "" "" "Clear"
"25" 2015-04-11 "11:30 AM" 19 2 32 1025.1 NA "East (100°)" 14.3 NA "" "" "Clear"
"26" 2015-04-11 "12:00 PM" 19 2 32 1024 NA "ESE (120°)" 14.3 NA "" "" "Clear"
"27" 2015-04-11 "12:30 PM" 19 3 35 1024 NA "Variable" 10.8 NA "" "" "Clear"
"28" 2015-04-11 "1:00 PM" 19 2 32 1024 NA "ESE (110°)" 18 NA "" "" "Clear"
"29" 2015-04-11 "1:30 PM" 19 4 37 1024 NA "ESE (120°)" 18 NA "" "" "Clear"
"30" 2015-04-11 "2:00 PM" 19 5 40 1023 NA "ESE (120°)" 14.3 NA "" "" "Clear"
"31" 2015-04-11 "2:30 PM" 19 4 37 1023 NA "ESE (120°)" 18 NA "" "" "Clear"
"32" 2015-04-11 "3:00 PM" 20 4 35 1022 NA "East (80°)" 14.3 NA "" "" "Clear"
"33" 2015-04-11 "3:30 PM" 20 4 35 1022 NA "East (90°)" 18 NA "" "" "Clear"
"34" 2015-04-11 "4:00 PM" 19 5 40 1022 NA "SE (130°)" 14.3 NA "" "" "Clear"
"35" 2015-04-11 "4:30 PM" 19 4 37 1023 NA "East (100°)" 14.3 NA "" "" "Clear"
"36" 2015-04-11 "5:00 PM" 18 4 40 1023 NA "East (100°)" 18 NA "" "" "Clear"
"37" 2015-04-11 "5:30 PM" 18 4 40 1023 NA "East (90°)" 18 NA "" "" "Clear"
"38" 2015-04-11 "6:00 PM" 17 4 42 1023 NA "East (100°)" 14.3 NA "" "" "Clear"
"39" 2015-04-11 "6:30 PM" 16 5 48 1023 NA "ESE (120°)" 18 NA "" "" "Clear"
"40" 2015-04-11 "7:00 PM" 16 4 45 1023 NA "ESE (120°)" 14.3 NA "" "" "Clear"
"41" 2015-04-11 "7:30 PM" 16 4 45 1023 NA "ESE (120°)" 14.3 NA "" "" "Clear"
"42" 2015-04-11 "8:00 PM" 15 4 48 1024 NA "East (100°)" 14.3 NA "" "" "Clear"
"43" 2015-04-11 "8:30 PM" 14 7 63 1024 NA "ESE (110°)" 14.3 NA "" "" "Clear"
"44" 2015-04-11 "9:00 PM" 14 8 67 1024 NA "ESE (120°)" 14.3 NA "" "" "Clear"
"45" 2015-04-11 "9:30 PM" 14 8 67 1024 NA "ESE (110°)" 18 NA "" "" "Clear"
"46" 2015-04-11 "10:00 PM" 13 8 72 1024 NA "ESE (110°)" 18 NA "" "" "Clear"
"47" 2015-04-11 "10:30 PM" 13 8 72 1024 NA "ESE (110°)" 14.3 NA "" "" "Clear"
"48" 2015-04-11 "11:00 PM" 13 8 72 1024 NA "ESE (110°)" 10.8 NA "" "" "Clear"
"49" 2015-04-11 "11:30 PM" 13 8 72 1024 NA "ESE (110°)" 14.3 NA "" "" "Clear"
"50" 2015-04-10 "12:00 AM" 12 7 72 1023 NA "SE (140°)" 7.2 NA "" "" "Clear"
"51" 2015-04-10 "12:30 AM" 11 7 76 1023 NA "SSE (160°)" 7.2 NA "" "" "Clear"
"52" 2015-04-10 "1:00 AM" 11 7 76 1023 NA "Calm" NA NA "" "" "Clear"
"53" 2015-04-10 "1:30 AM" 11 7 76 1022 NA "ENE (60°)" 7.2 NA "" "" "Clear"
"54" 2015-04-10 "2:00 AM" 11 7 76 1023 NA "Variable" 3.5 NA "" "" "Clear"
"55" 2015-04-10 "2:30 AM" 11 7 76 1022 NA "NNW (340°)" 3.5 NA "" "" "Clear"
"56" 2015-04-10 "3:00 AM" 10 6 76 1022 NA "NNW (330°)" 7.2 NA "" "" "Clear"
"57" 2015-04-10 "3:30 AM" 10 7 82 1022 NA "NNW (340°)" 7.2 NA "" "" "Clear"
"58" 2015-04-10 "4:00 AM" 10 6 76 1022 NA "NW (320°)" 7.2 NA "" "" "Clear"
"59" 2015-04-10 "4:30 AM" 10 7 82 1022 NA "NNW (330°)" 7.2 NA "" "" "Clear"
"60" 2015-04-10 "5:00 AM" 10 7 82 1022 NA "North (350°)" 7.2 NA "" "" "Clear"
"61" 2015-04-10 "5:30 AM" 10 7 82 1022 8 "NNW (340°)" 7.2 NA "" "" ""
"62" 2015-04-10 "6:00 AM" 10 7 82 1022 5 "NNW (330°)" 7.2 NA "" "" "Mist"
"63" 2015-04-10 "6:30 AM" 11 8 82 1023 4.5 "Calm" NA NA "" "" "Mist"
"64" 2015-04-10 "7:00 AM" 12 8 77 1023 4.5 "North (350°)" 7.2 NA "" "" "Mist"
"65" 2015-04-10 "7:30 AM" 12 9 82 1023 5 "NNW (330°)" 7.2 NA "" "" "Mist"
"66" 2015-04-10 "8:00 AM" 12 8 77 1024 6.9 "NNW (340°)" 7.2 NA "" "" "Scattered Clouds"
"67" 2015-04-10 "8:30 AM" 13 8 72 1024 8 "NNW (340°)" 7.2 NA "" "" "Mostly Cloudy"
"68" 2015-04-10 "9:00 AM" 15 7 59 1024 8 "North (360°)" 10.8 NA "" "" "Mostly Cloudy"
"69" 2015-04-10 "9:30 AM" 15 7 59 1024 8 "North (360°)" 10.8 NA "" "" "Mostly Cloudy"
"70" 2015-04-10 "10:00 AM" 15 6 55 1024 10 "North (360°)" 14.3 NA "" "" "Mostly Cloudy"
"71" 2015-04-10 "10:30 AM" 16 5 48 1024 10 "NNE (20°)" 14.3 NA "" "" "Partly Cloudy"
"72" 2015-04-10 "11:00 AM" 16 6 52 1023 NA "NNW (340°)" 14.3 NA "" "" "Clear"
"73" 2015-04-10 "11:30 AM" 17 4 42 1023 NA "NNE (20°)" 14.3 NA "" "" "Clear"
"74" 2015-04-10 "12:00 PM" 17 5 45 1023 NA "NE (50°)" 14.3 NA "" "" "Clear"
"75" 2015-04-10 "12:30 PM" 17 4 42 1023 NA "North (360°)" 14.3 NA "" "" "Clear"
"76" 2015-04-10 "1:00 PM" 17 6 48 1023 NA "Variable" 10.8 NA "" "" "Clear"
"77" 2015-04-10 "1:30 PM" 18 6 45 1022 NA "WNW (300°)" 10.8 NA "" "" "Clear"
"78" 2015-04-10 "2:00 PM" 17 4 42 1022 NA "North (10°)" 14.3 NA "" "" "Clear"
"79" 2015-04-10 "2:30 PM" 17 3 39 1022 NA "NNE (30°)" 14.3 NA "" "" "Clear"
"80" 2015-04-10 "3:00 PM" 18 5 42 1022 NA "Variable" 7.2 NA "" "" "Clear"
"81" 2015-04-10 "3:30 PM" 18 5 42 1022 NA "North (360°)" 14.3 NA "" "" "Clear"
"82" 2015-04-10 "4:00 PM" 17 2 37 1022 NA "North (10°)" 14.3 NA "" "" "Clear"
"83" 2015-04-10 "4:30 PM" 17 4 42 1022 NA "North (350°)" 14.3 NA "" "" "Clear"
"84" 2015-04-10 "5:00 PM" 16 3 42 1022 NA "North (360°)" 14.3 NA "" "" "Clear"
"85" 2015-04-10 "5:30 PM" 16 3 42 1022 NA "NE (40°)" 14.3 NA "" "" "Clear"
"86" 2015-04-10 "6:00 PM" 15 5 51 1023 NA "NE (50°)" 18 36 "" "" "Clear"
"87" 2015-04-10 "6:30 PM" 14 5 55 1023 NA "NNE (30°)" 18 NA "" "" "Clear"
"88" 2015-04-10 "7:00 PM" 13 6 63 1023 NA "NNE (30°)" 18 NA "" "" "Clear"
"89" 2015-04-10 "7:30 PM" 13 6 63 1024 NA "NE (40°)" 14.3 NA "" "" "Clear"
"90" 2015-04-10 "8:00 PM" 13 6 63 1024 NA "NE (40°)" 10.8 NA "" "" "Clear"
"91" 2015-04-10 "8:30 PM" 13 6 63 1024 NA "NE (50°)" 10.8 NA "" "" "Clear"
"92" 2015-04-10 "9:00 PM" 12 6 67 1024 NA "NE (50°)" 10.8 NA "" "" "Clear"
"93" 2015-04-10 "9:30 PM" 12 5 62 1024 NA "NNE (30°)" 10.8 NA "" "" "Clear"
"94" 2015-04-10 "10:00 PM" 12 3 54 1024 NA "NE (50°)" 10.8 NA "" "" "Clear"
"95" 2015-04-10 "10:30 PM" 12 4 58 1024 NA "ENE (60°)" 7.2 NA "" "" "Clear"
"96" 2015-04-10 "11:00 PM" 11 5 67 1025.1 NA "SSE (150°)" 7.2 NA "" "" "Clear"
"97" 2015-04-10 "11:30 PM" 11 5 67 1025.1 NA "SE (130°)" 7.2 NA "" "" "Clear"
"98" 2015-04-09 "12:00 AM" 8 1 62 1026.1 NA "East (100°)" 7.2 NA "" "" "Clear"
"99" 2015-04-09 "12:30 AM" 8 2 66 1026.1 NA "East (80°)" 7.2 NA "" "" "Clear"
"100" 2015-04-09 "1:00 AM" 8 2 66 1026.1 NA "East (80°)" 7.2 NA "" "" "Clear"
"101" 2015-04-09 "1:30 AM" 8 2 66 1025.1 NA "East (100°)" 7.2 NA "" "" "Clear"
"102" 2015-04-09 "2:00 AM" 8 2 66 1025.1 NA "ENE (70°)" 7.2 NA "" "" "Clear"
"103" 2015-04-09 "2:30 AM" 7 2 71 1025.1 NA "ENE (70°)" 7.2 NA "" "" "Clear"
"104" 2015-04-09 "3:00 AM" 7 3 76 1025.1 NA "ENE (60°)" 3.5 NA "" "" "Clear"
"105" 2015-04-09 "3:30 AM" 7 3 76 1025.1 NA "North (360°)" 3.5 NA "" "" "Clear"
"106" 2015-04-09 "4:00 AM" 6 3 81 1024 NA "North (10°)" 3.5 NA "" "" "Clear"
"107" 2015-04-09 "4:30 AM" 6 3 81 1024 NA "NNE (20°)" 3.5 NA "" "" "Clear"
"108" 2015-04-09 "5:00 AM" 6 3 81 1024 NA "NNE (30°)" 3.5 NA "" "" "Clear"
"109" 2015-04-09 "5:30 AM" 6 3 81 1024 NA "Calm" NA NA "" "" "Clear"
"110" 2015-04-09 "6:00 AM" 6 3 81 1024 NA "North (10°)" 3.5 NA "" "" "Clear"
"111" 2015-04-09 "6:30 AM" 7 5 87 1024 NA "NNE (20°)" 3.5 NA "" "" "Clear"
"112" 2015-04-09 "7:00 AM" 9 4 71 1024 NA "Variable" 3.5 NA "" "" "Clear"
"113" 2015-04-09 "7:30 AM" 9 3 66 1025.1 NA "NE (50°)" 7.2 NA "" "" "Clear"
"114" 2015-04-09 "8:00 AM" 10 3 62 1025.1 NA "SE (130°)" 7.2 NA "" "" "Clear"
"115" 2015-04-09 "8:30 AM" 11 1 50 1025.1 NA "ESE (120°)" 10.8 NA "" "" "Clear"
"116" 2015-04-09 "9:00 AM" 12 1 47 1024 NA "East (100°)" 10.8 NA "" "" "Clear"
"117" 2015-04-09 "9:30 AM" 12 0 44 1024 NA "East (100°)" 14.3 NA "" "" "Clear"
"118" 2015-04-09 "10:00 AM" 12 1 47 1025.1 NA "SE (140°)" 18 NA "" "" "Clear"
"119" 2015-04-09 "10:30 AM" 13 1 44 1024 NA "ESE (120°)" 18 NA "" "" "Clear"
"120" 2015-04-09 "11:00 AM" 14 0 38 1024 NA "Variable" 10.8 28.8 "" "" "Clear"
"121" 2015-04-09 "11:30 AM" 15 1 39 1024 NA "SE (130°)" 18 36 "" "" "Clear"
"122" 2015-04-09 "12:00 PM" 15 3 45 1024 NA "Variable" 10.8 NA "" "" "Clear"
"123" 2015-04-09 "12:30 PM" 15 2 42 1023 NA "Variable" 10.8 32.3 "" "" "Clear"
"124" 2015-04-09 "1:00 PM" 15 2 42 1022 NA "Variable" 7.2 NA "" "" "Clear"
"125" 2015-04-09 "1:30 PM" 16 3 42 1022 NA "Variable" 7.2 NA "" "" "Clear"
"126" 2015-04-09 "2:00 PM" 16 3 42 1022 NA "Variable" 10.8 NA "" "" "Clear"
"127" 2015-04-09 "2:30 PM" 15 2 42 1021 NA "East (90°)" 10.8 28.8 "" "" "Clear"
"128" 2015-04-09 "3:00 PM" 15 3 45 1021 NA "SE (140°)" 10.8 NA "" "" "Clear"
"129" 2015-04-09 "3:30 PM" 15 3 45 1021 NA "SE (140°)" 18 NA "" "" "Clear"
"130" 2015-04-09 "4:00 PM" 14 3 48 1022 NA "SE (130°)" 14.3 NA "" "" "Clear"
"131" 2015-04-09 "4:30 PM" 14 2 44 1022 NA "ESE (120°)" 14.3 NA "" "" "Clear"
"132" 2015-04-09 "5:00 PM" 14 2 44 1022 NA "ESE (110°)" 14.3 NA "" "" "Clear"
"133" 2015-04-09 "5:30 PM" 13 3 51 1022 NA "SE (130°)" 10.8 NA "" "" "Clear"
"134" 2015-04-09 "6:00 PM" 13 6 63 1022 NA "South (170°)" 14.3 NA "" "" "Clear"
"135" 2015-04-09 "6:30 PM" 12 6 67 1022 NA "SSE (150°)" 10.8 NA "" "" "Clear"
"136" 2015-04-09 "7:00 PM" 12 6 67 1022 NA "SSE (160°)" 10.8 NA "" "" "Clear"
"137" 2015-04-09 "7:30 PM" 12 6 67 1022 NA "ESE (120°)" 14.3 NA "" "" "Clear"
"138" 2015-04-09 "8:00 PM" 12 6 67 1023 NA "SE (130°)" 10.8 NA "" "" "Clear"
"139" 2015-04-09 "8:30 PM" 12 6 67 1023 NA "ESE (120°)" 10.8 NA "" "" "Clear"
"140" 2015-04-09 "9:00 PM" 12 5 62 1023 NA "ESE (120°)" 7.2 NA "" "" "Clear"
"141" 2015-04-09 "9:30 PM" 12 5 62 1023 NA "SE (140°)" 7.2 NA "" "" "Clear"
"142" 2015-04-09 "10:00 PM" 12 5 62 1023 NA "ESE (120°)" 7.2 NA "" "" "Clear"
"143" 2015-04-09 "10:30 PM" 12 6 67 1023 NA "SSE (150°)" 7.2 NA "" "" "Clear"
"144" 2015-04-09 "11:00 PM" 12 6 67 1023 NA "SE (130°)" 7.2 NA "" "" "Clear"
"145" 2015-04-09 "11:30 PM" 12 7 72 1023 NA "Variable" 3.5 NA "" "" "Clear"
"146" 2015-04-08 "12:00 AM" 5 3 87 1030.1 10 "NW (320°)" 18 NA "" "" "Mostly Cloudy"
"147" 2015-04-08 "12:30 AM" 5 3 87 1029.1 10 "NW (320°)" 14.3 NA "" "" "Mostly Cloudy"
"148" 2015-04-08 "1:00 AM" 5 3 87 1029.1 10 "NNW (330°)" 14.3 NA "" "" "Scattered Clouds"
"149" 2015-04-08 "1:30 AM" 5 3 87 1029.1 10 "NW (320°)" 14.3 NA "" "" "Mostly Cloudy"
"150" 2015-04-08 "2:00 AM" 5 3 87 1029.1 10 "NNW (330°)" 14.3 NA "" "" "Mostly Cloudy"
"151" 2015-04-08 "2:30 AM" 5 3 87 1028.1 10 "NNW (330°)" 14.3 NA "" "" "Partly Cloudy"
"152" 2015-04-08 "3:00 AM" 5 3 87 1029.1 NA "NNW (330°)" 10.8 NA "" "" "Clear"
"153" 2015-04-08 "3:30 AM" 5 3 87 1029.1 NA "NNW (330°)" 14.3 NA "" "" "Clear"
"154" 2015-04-08 "4:00 AM" 5 3 87 1029.1 NA "NNW (330°)" 14.3 NA "" "" "Clear"
"155" 2015-04-08 "4:30 AM" 6 3 81 1029.1 NA "NNW (330°)" 18 NA "" "" "Clear"
"156" 2015-04-08 "5:00 AM" 6 3 81 1028.1 NA "NNW (340°)" 14.3 NA "" "" "Clear"
"157" 2015-04-08 "5:30 AM" 6 3 81 1028.1 NA "NNW (340°)" 14.3 NA "" "" "Clear"
"158" 2015-04-08 "6:00 AM" 6 3 81 1028.1 NA "NNW (340°)" 14.3 NA "" "" "Clear"
"159" 2015-04-08 "6:30 AM" 6 3 81 1028.1 NA "NNW (330°)" 14.3 NA "" "" "Clear"
"160" 2015-04-08 "7:00 AM" 7 3 76 1029.1 NA "NNW (340°)" 14.3 NA "" "" "Clear"
"161" 2015-04-08 "7:30 AM" 7 4 81 1029.1 NA "NNW (330°)" 14.3 NA "" "" "Clear"
"162" 2015-04-08 "8:00 AM" 7 3 76 1029.1 10 "NNW (330°)" 18 NA "" "" "Scattered Clouds"
"163" 2015-04-08 "8:30 AM" 9 4 71 1029.1 10 "North (350°)" 18 NA "" "" "Mostly Cloudy"
"164" 2015-04-08 "9:00 AM" 10 4 66 1029.1 10 "North (350°)" 18 NA "" "" "Mostly Cloudy"
"165" 2015-04-08 "9:30 AM" 10 3 62 1029.1 10 "North (10°)" 21.6 NA "" "" "Mostly Cloudy"
"166" 2015-04-08 "10:00 AM" 10 3 62 1029.1 10 "North (350°)" 18 NA "" "" "Scattered Clouds"
"167" 2015-04-08 "10:30 AM" 11 3 58 1029.1 10 "North (360°)" 18 NA "" "" "Scattered Clouds"
"168" 2015-04-08 "11:00 AM" 11 2 54 1029.1 10 "North (10°)" 18 NA "" "" "Mostly Cloudy"
"169" 2015-04-08 "11:30 AM" 12 2 51 1028.1 10 "NNE (30°)" 14.3 NA "" "" "Mostly Cloudy"
"170" 2015-04-08 "12:00 PM" 11 1 50 1028.1 10 "NE (40°)" 14.3 NA "" "" "Mostly Cloudy"
"171" 2015-04-08 "12:30 PM" 11 2 54 1028.1 10 "North (350°)" 14.3 NA "" "" "Mostly Cloudy"
"172" 2015-04-08 "1:00 PM" 12 2 51 1027.1 10 "North (360°)" 14.3 NA "" "" "Mostly Cloudy"
"173" 2015-04-08 "1:30 PM" 12 1 47 1027.1 10 "North (360°)" 18 NA "" "" "Mostly Cloudy"
"174" 2015-04-08 "2:00 PM" 13 2 47 1026.1 10 "North (10°)" 18 NA "" "" "Mostly Cloudy"
"175" 2015-04-08 "2:30 PM" 13 2 47 1026.1 10 "North (350°)" 14.3 NA "" "" "Mostly Cloudy"
"176" 2015-04-08 "3:00 PM" 13 2 47 1026.1 10 "NNW (340°)" 10.8 NA "" "" "Mostly Cloudy"
"177" 2015-04-08 "3:30 PM" 12 1 47 1026.1 10 "North (360°)" 14.3 NA "" "" "Mostly Cloudy"
"178" 2015-04-08 "4:00 PM" 12 1 47 1025.1 10 "North (10°)" 10.8 NA "" "" "Partly Cloudy"
"179" 2015-04-08 "4:30 PM" 12 1 47 1025.1 NA "NNE (30°)" 14.3 NA "" "" "Clear"
"180" 2015-04-08 "5:00 PM" 11 2 54 1025.1 NA "North (10°)" 14.3 NA "" "" "Clear"
"181" 2015-04-08 "5:30 PM" 11 2 54 1025.1 NA "NNE (30°)" 10.8 NA "" "" "Clear"
"182" 2015-04-08 "6:00 PM" 11 1 50 1025.1 NA "NE (40°)" 14.3 NA "" "" "Clear"
"183" 2015-04-08 "6:30 PM" 11 1 50 1025.1 NA "NE (50°)" 10.8 NA "" "" "Clear"
"184" 2015-04-08 "7:00 PM" 10 1 54 1025.1 NA "NE (50°)" 14.3 NA "" "" "Clear"
"185" 2015-04-08 "7:30 PM" 10 2 58 1026.1 NA "NE (50°)" 14.3 NA "" "" "Clear"
"186" 2015-04-08 "8:00 PM" 10 2 58 1026.1 NA "NE (50°)" 14.3 NA "" "" "Clear"
"187" 2015-04-08 "8:30 PM" 9 3 66 1026.1 NA "NE (50°)" 14.3 NA "" "" "Clear"
"188" 2015-04-08 "9:00 PM" 9 3 66 1026.1 NA "NE (40°)" 14.3 NA "" "" "Clear"
"189" 2015-04-08 "9:30 PM" 9 3 66 1026.1 NA "NE (40°)" 10.8 NA "" "" "Clear"
"190" 2015-04-08 "10:00 PM" 9 2 62 1026.1 NA "ENE (70°)" 7.2 NA "" "" "Clear"
"191" 2015-04-08 "10:30 PM" 8 1 62 1026.1 NA "ENE (60°)" 10.8 NA "" "" "Clear"
"192" 2015-04-08 "11:00 PM" 8 1 62 1026.1 NA "East (80°)" 7.2 NA "" "" "Clear"
"193" 2015-04-07 "12:00 AM" 9 7 87 1025.1 10 "NNE (20°)" 21.6 NA "" "Rain" "Light Rain Showers"
"194" 2015-04-07 "12:30 AM" 8 7 93 1025.1 10 "North (360°)" 18 NA "" "Rain" "Light Rain Showers"
"195" 2015-04-07 "1:00 AM" 8 7 93 1026.1 10 "North (360°)" 21.6 NA "" "Rain" "Light Rain Showers"
"196" 2015-04-07 "1:30 AM" 8 7 93 1025.1 10 "NNE (20°)" 21.6 NA "" "Rain" "Light Rain Showers"
"197" 2015-04-07 "2:00 AM" 8 7 93 1025.1 10 "North (10°)" 18 NA "" "Rain" "Light Rain"
"198" 2015-04-07 "2:30 AM" 8 7 93 1025.1 10 "North (360°)" 18 NA "" "Rain" "Light Rain"
"199" 2015-04-07 "3:00 AM" 8 6 87 1025.1 10 "North (360°)" 25.3 NA "" "Rain" "Light Rain"
"200" 2015-04-07 "3:30 AM" 8 6 87 1025.1 10 "North (10°)" 21.6 NA "" "" "Partly Cloudy"
"201" 2015-04-07 "4:00 AM" 8 5 81 1025.1 10 "North (360°)" 21.6 NA "" "" "Partly Cloudy"
"202" 2015-04-07 "4:30 AM" 8 5 81 1025.1 10 "North (10°)" 21.6 NA "" "" "Partly Cloudy"
"203" 2015-04-07 "5:00 AM" 8 5 81 1025.1 10 "North (10°)" 21.6 NA "" "" "Scattered Clouds"
"204" 2015-04-07 "5:30 AM" 8 4 76 1025.1 10 "North (10°)" 18 NA "" "" "Scattered Clouds"
"205" 2015-04-07 "6:00 AM" 8 4 76 1025.1 10 "NNE (20°)" 21.6 NA "" "" "Partly Cloudy"
"206" 2015-04-07 "6:30 AM" 8 3 71 1026.1 NA "NNE (30°)" 25.3 NA "" "" "Clear"
"207" 2015-04-07 "7:00 AM" 8 4 76 1026.1 NA "NNE (20°)" 18 NA "" "" "Clear"
"208" 2015-04-07 "7:30 AM" 8 4 76 1026.1 10 "NNE (20°)" 21.6 NA "" "" "Scattered Clouds"
"209" 2015-04-07 "8:00 AM" 8 4 76 1026.1 10 "North (10°)" 21.6 NA "" "" "Mostly Cloudy"
"210" 2015-04-07 "8:30 AM" 8 4 76 1027.1 10 "North (10°)" 21.6 NA "" "" "Mostly Cloudy"
"211" 2015-04-07 "9:00 AM" 8 4 76 1027.1 10 "NNE (30°)" 25.3 NA "" "" "Mostly Cloudy"
"212" 2015-04-07 "9:30 AM" 8 3 71 1027.1 10 "NNE (20°)" 25.3 NA "" "" "Scattered Clouds"
"213" 2015-04-07 "10:00 AM" 9 3 66 1027.1 10 "NNE (20°)" 28.8 NA "" "" "Scattered Clouds"
"214" 2015-04-07 "10:30 AM" 9 3 66 1027.1 10 "NNE (30°)" 28.8 NA "" "" "Scattered Clouds"
"215" 2015-04-07 "11:00 AM" 9 4 71 1027.1 10 "NNE (20°)" 25.3 NA "" "" "Scattered Clouds"
"216" 2015-04-07 "11:30 AM" 9 4 71 1027.1 10 "NNE (20°)" 25.3 NA "" "Rain" "Light Rain"
"217" 2015-04-07 "12:00 PM" 9 5 76 1027.1 10 "NNE (20°)" 18 NA "" "Rain" "Light Rain"
"218" 2015-04-07 "12:30 PM" 9 5 76 1027.1 10 "North (10°)" 18 NA "" "Rain" "Light Rain"
"219" 2015-04-07 "1:00 PM" 8 5 81 1028.1 10 "North (360°)" 21.6 NA "" "Rain" "Light Rain"
"220" 2015-04-07 "1:30 PM" 8 5 81 1027.1 10 "North (360°)" 21.6 NA "" "Rain" "Light Rain"
"221" 2015-04-07 "2:00 PM" 8 5 81 1027.1 10 "North (350°)" 21.6 NA "" "Rain" "Light Rain"
"222" 2015-04-07 "2:30 PM" 8 5 81 1027.1 10 "North (360°)" 21.6 NA "" "Rain" "Light Rain"
"223" 2015-04-07 "3:00 PM" 8 5 81 1026.1 10 "North (10°)" 21.6 NA "" "Rain" "Light Rain"
"224" 2015-04-07 "3:30 PM" 7 4 81 1027.1 10 "North (10°)" 25.3 NA "" "Rain" "Light Rain"
"225" 2015-04-07 "4:00 PM" 7 4 81 1026.1 10 "NNE (30°)" 18 NA "" "Rain" "Light Rain"
"226" 2015-04-07 "4:30 PM" 7 5 87 1027.1 10 "North (360°)" 10.8 NA "" "Rain" "Light Rain"
"227" 2015-04-07 "5:00 PM" 7 4 81 1028.1 10 "North (350°)" 21.6 NA "" "Rain" "Light Rain"
"228" 2015-04-07 "5:30 PM" 7 4 81 1028.1 10 "North (360°)" 21.6 NA "" "Rain" "Light Rain"
"229" 2015-04-07 "6:00 PM" 6 3 81 1028.1 10 "North (360°)" 21.6 NA "" "Rain" "Light Rain"
"230" 2015-04-07 "6:30 PM" 6 3 81 1028.1 10 "North (10°)" 21.6 39.6 "" "Rain" "Light Rain"
"231" 2015-04-07 "7:00 PM" 6 4 87 1029.1 10 "North (360°)" 28.8 NA "" "Rain" "Light Rain"
"232" 2015-04-07 "7:30 PM" 5 4 93 1029.1 10 "North (360°)" 25.3 NA "" "Rain" "Light Rain"
"233" 2015-04-07 "8:00 PM" 5 3 87 1030.1 10 "North (360°)" 21.6 NA "" "Rain" "Light Rain"
"234" 2015-04-07 "8:30 PM" 5 4 93 1030.1 10 "North (360°)" 18 NA "" "Rain" "Light Rain"
"235" 2015-04-07 "9:00 PM" 6 4 87 1030.1 10 "North (350°)" 14.3 NA "" "Rain" "Light Rain"
"236" 2015-04-07 "9:30 PM" 5 4 93 1030.1 10 "NNW (330°)" 10.8 NA "" "" "Scattered Clouds"
"237" 2015-04-07 "10:00 PM" 6 4 87 1030.1 10 "NW (320°)" 10.8 NA "" "" "Scattered Clouds"
"238" 2015-04-07 "10:30 PM" 5 3 87 1030.1 10 "NW (320°)" 10.8 NA "" "" "Scattered Clouds"
"239" 2015-04-07 "11:00 PM" 5 3 87 1030.1 10 "NW (320°)" 14.3 NA "" "" "Mostly Cloudy"
"240" 2015-04-07 "11:30 PM" 5 3 87 1030.1 10 "NW (320°)" 14.3 NA "" "" "Mostly Cloudy"
"241" 2015-04-06 "12:00 AM" 11 11 100 1016.3 10 "North (350°)" 10.8 NA "" "Rain" "Light Rain Showers"
"242" 2015-04-06 "12:30 AM" 11 10 94 1017.3 10 "NW (310°)" 7.2 NA "" "Rain" "Rain Showers"
"243" 2015-04-06 "1:00 AM" 11 11 100 1016.3 10 "NNW (340°)" 18 NA "" "Rain" "Light Rain"
"244" 2015-04-06 "1:30 AM" 11 11 100 1017.3 10 "WNW (290°)" 10.8 NA "" "Rain" "Light Rain Showers"
"245" 2015-04-06 "2:00 AM" 11 11 100 1014.2 10 "NNE (30°)" 18 NA "" "Rain" "Light Rain Showers"
"246" 2015-04-06 "2:30 AM" 12 11 94 1016.3 10 "NNW (330°)" 14.3 NA "" "Rain" "Light Rain Showers"
"247" 2015-04-06 "3:00 AM" 11 11 100 1016.3 10 "NNW (340°)" 10.8 NA "" "Rain" "Light Rain Showers"
"248" 2015-04-06 "3:30 AM" 11 11 100 1015.2 10 "North (10°)" 18 NA "" "Rain" "Light Rain"
"249" 2015-04-06 "4:00 AM" 11 11 100 1015.2 10 "North (10°)" 21.6 NA "" "Rain" "Light Rain"
"250" 2015-04-06 "4:30 AM" 11 10 94 1015.2 10 "North (10°)" 18 NA "" "Rain" "Light Rain"
"251" 2015-04-06 "5:00 AM" 11 10 94 1016.3 10 "North (10°)" 14.3 NA "" "Rain" "Light Rain"
"252" 2015-04-06 "5:30 AM" 11 10 94 1016.3 10 "NNE (20°)" 10.8 NA "" "Rain" "Light Rain"
"253" 2015-04-06 "6:00 AM" 11 10 94 1016.3 6.9 "NNE (20°)" 18 NA "" "Rain" "Light Rain"
"254" 2015-04-06 "6:30 AM" 11 10 94 1017.3 8 "NNE (20°)" 21.6 NA "" "Rain" "Light Rain"
"255" 2015-04-06 "7:00 AM" 11 11 100 1017.9 8 "North (360°)" 18 NA "" "Rain" "Light Rain"
"256" 2015-04-06 "7:30 AM" 11 10 94 1017.9 6 "North (350°)" 18 NA "" "Rain" "Light Rain"
"257" 2015-04-06 "8:00 AM" 11 10 94 1019 8 "North (10°)" 18 NA "" "Rain" "Light Rain"
"258" 2015-04-06 "8:30 AM" 11 10 94 1019 8 "NNE (20°)" 21.6 NA "" "Rain" "Light Rain"
"259" 2015-04-06 "9:00 AM" 11 10 94 1020 10 "NNW (340°)" 18 NA "" "Rain" "Light Rain"
"260" 2015-04-06 "9:30 AM" 11 10 94 1020 10 "NNE (20°)" 21.6 NA "" "Rain" "Light Rain"
"261" 2015-04-06 "10:00 AM" 11 10 94 1020 8 "North (360°)" 21.6 NA "" "Rain" "Light Rain"
"262" 2015-04-06 "10:30 AM" 11 9 88 1020 8 "North (10°)" 25.3 NA "" "" "Mostly Cloudy"
"263" 2015-04-06 "11:00 AM" 11 9 88 1019 8 "North (10°)" 28.8 NA "" "Rain" "Light Rain"
"264" 2015-04-06 "11:30 AM" 11 9 88 1020 8 "North (10°)" 21.6 NA "" "Rain" "Light Rain"
"265" 2015-04-06 "12:00 PM" 11 9 88 1020 10 "NNE (30°)" 21.6 NA "" "" "Mostly Cloudy"
"266" 2015-04-06 "12:30 PM" 12 9 82 1019 10 "NNE (30°)" 25.3 NA "" "" "Mostly Cloudy"
"267" 2015-04-06 "1:00 PM" 12 9 82 1019 10 "NNE (30°)" 21.6 NA "" "" "Mostly Cloudy"
"268" 2015-04-06 "1:30 PM" 12 9 82 1020 10 "NNE (20°)" 21.6 NA "" "" "Mostly Cloudy"
"269" 2015-04-06 "2:00 PM" 12 10 88 1020 10 "North (10°)" 18 NA "" "" "Mostly Cloudy"
"270" 2015-04-06 "2:30 PM" 12 9 82 1020 10 "North (10°)" 25.3 NA "" "" "Mostly Cloudy"
"271" 2015-04-06 "3:00 PM" 12 10 88 1020 10 "NNE (20°)" 21.6 NA "" "Rain" "Light Rain"
"272" 2015-04-06 "3:30 PM" 12 10 88 1020 6 "NNE (20°)" 18 NA "" "Rain" "Light Rain"
"273" 2015-04-06 "4:00 PM" 11 10 94 1021 8 "North (360°)" 21.6 NA "" "Rain" "Light Rain"
"274" 2015-04-06 "4:30 PM" 11 10 94 1021 8 "NNE (20°)" 21.6 NA "" "Rain" "Light Rain"
"275" 2015-04-06 "5:00 PM" 11 10 94 1021 6.9 "North (360°)" 25.3 NA "" "Rain" "Light Rain"
"276" 2015-04-06 "5:30 PM" 11 9 88 1021 6.9 "North (10°)" 25.3 NA "" "Rain" "Light Rain"
"277" 2015-04-06 "6:00 PM" 11 9 88 1022 6.9 "NNE (30°)" 18 NA "" "Rain" "Light Rain"
"278" 2015-04-06 "6:30 PM" 10 9 94 1022 6.9 "NNE (30°)" 21.6 NA "" "Rain" "Light Rain Showers"
"279" 2015-04-06 "7:00 PM" 10 9 94 1023 6 "North (10°)" 21.6 NA "" "Rain" "Light Rain Showers"
"280" 2015-04-06 "7:30 PM" 10 9 94 1023 10 "NNE (20°)" 18 NA "" "Rain" "Light Rain"
"281" 2015-04-06 "8:00 PM" 10 9 94 1024 10 "North (360°)" 21.6 NA "" "Rain" "Light Rain"
"282" 2015-04-06 "8:30 PM" 10 9 94 1024 10 "North (360°)" 25.3 NA "" "Rain" "Light Rain"
"283" 2015-04-06 "9:00 PM" 10 9 94 1024 10 "North (10°)" 21.6 NA "" "Rain" "Light Rain"
"284" 2015-04-06 "9:30 PM" 10 8 87 1024 10 "North (10°)" 21.6 NA "" "Rain" "Light Rain"
"285" 2015-04-06 "10:00 PM" 10 8 87 1025.1 10 "NNE (20°)" 25.3 43.1 "" "" "Mostly Cloudy"
"286" 2015-04-06 "10:30 PM" 10 8 87 1025.1 10 "NNE (20°)" 25.3 NA "" "Rain" "Light Rain"
"287" 2015-04-06 "11:00 PM" 9 8 93 1025.1 10 "North (10°)" 21.6 NA "" "" "Mostly Cloudy"
"288" 2015-04-06 "11:30 PM" 9 7 87 1025.1 10 "NNE (20°)" 21.6 NA "" "Rain" "Light Rain Showers"
"289" 2015-04-05 "12:00 AM" 15 14 94 1013.2 3.1 "NNW (340°)" 10.8 NA "" "" "Scattered Clouds"
"290" 2015-04-05 "12:30 AM" 15 13 88 1014.2 3.1 "NNW (340°)" 7.2 NA "" "" "Mostly Cloudy"
"291" 2015-04-05 "1:00 AM" 15 13 88 1014.2 3.1 "North (360°)" 7.2 NA "" "" "Mostly Cloudy"
"292" 2015-04-05 "1:30 AM" 15 14 94 1013.2 2.7 "ENE (60°)" 7.2 NA "" "" "Mostly Cloudy"
"293" 2015-04-05 "2:00 AM" 15 14 94 1013.2 2.7 "North (10°)" 10.8 NA "" "" "Mostly Cloudy"
"294" 2015-04-05 "2:30 AM" 15 13 88 1013.2 2.7 "North (10°)" 10.8 NA "" "" "Mostly Cloudy"
"295" 2015-04-05 "3:00 AM" 15 13 88 1013.2 3.5 "North (350°)" 7.2 NA "" "" "Mostly Cloudy"
"296" 2015-04-05 "3:30 AM" 15 14 94 1013.2 3.5 "ESE (110°)" 7.2 NA "" "" "Mostly Cloudy"
"297" 2015-04-05 "4:00 AM" 15 14 94 1013.2 3.1 "Variable" 3.5 NA "" "" "Mostly Cloudy"
"298" 2015-04-05 "4:30 AM" 15 14 94 1014.2 2.6 "South (190°)" 7.2 NA "" "Rain" "Light Rain"
"299" 2015-04-05 "5:00 AM" 15 14 94 1013.2 1.9 "NNE (20°)" 7.2 NA "" "Rain-Thunderstorm" "Light Thunderstorms and Rain"
"300" 2015-04-05 "5:30 AM" 14 14 100 1014.2 1.9 "North (350°)" 7.2 NA "" "Rain-Thunderstorm" "Light Thunderstorms and Rain"
"301" 2015-04-05 "6:00 AM" 14 14 100 1013.2 1.9 "North (10°)" 14.3 NA "" "Rain" "Light Rain Showers"
"302" 2015-04-05 "6:30 AM" 14 13 94 1013.2 2.3 "NNE (20°)" 25.3 NA "" "Rain" "Light Rain"
"303" 2015-04-05 "7:00 AM" 14 13 94 1012.2 2.6 "ENE (60°)" 14.3 NA "" "Rain" "Light Rain"
"304" 2015-04-05 "7:30 AM" 14 14 100 1013.2 3.1 "NNE (30°)" 7.2 NA "" "Rain" "Light Rain"
"305" 2015-04-05 "8:00 AM" 14 13 94 1011.2 3.1 "NE (50°)" 18 NA "" "Rain" "Light Rain"
"306" 2015-04-05 "8:30 AM" 14 13 94 1013.2 3.1 "SE (130°)" 7.2 NA "" "Rain" "Light Rain"
"307" 2015-04-05 "9:00 AM" 14 13 94 1013.2 3.1 "Variable" 7.2 NA "" "Rain-Thunderstorm" "Light Thunderstorms and Rain"
"308" 2015-04-05 "9:30 AM" 14 13 94 1013.2 3.5 "SSE (150°)" 14.3 NA "" "Rain" "Light Rain"
"309" 2015-04-05 "10:00 AM" 14 13 94 1013.2 5 "ESE (120°)" 14.3 NA "" "" "Mostly Cloudy"
"310" 2015-04-05 "10:30 AM" 14 13 94 1014.2 5 "NE (50°)" 7.2 NA "" "" "Mostly Cloudy"
"311" 2015-04-05 "11:00 AM" 15 13 88 1013.2 4 "East (100°)" 7.2 NA "" "" "Mostly Cloudy"
"312" 2015-04-05 "11:30 AM" 15 14 94 1014.2 3.1 "NNW (340°)" 7.2 NA "" "" "Mostly Cloudy"
"313" 2015-04-05 "12:00 PM" 15 13 88 1013.2 3.1 "NE (40°)" 14.3 NA "" "" "Mostly Cloudy"
"314" 2015-04-05 "12:30 PM" 15 14 94 1012.2 3.1 "ENE (70°)" 14.3 NA "" "" "Mostly Cloudy"
"315" 2015-04-05 "1:00 PM" 15 13 88 1013.2 3.1 "East (100°)" 14.3 NA "" "" "Mostly Cloudy"
"316" 2015-04-05 "1:30 PM" 15 13 88 1013.2 3.1 "NE (50°)" 10.8 NA "" "" "Mostly Cloudy"
"317" 2015-04-05 "2:00 PM" 14 13 94 1013.2 2.7 "North (10°)" 18 NA "" "" "Mostly Cloudy"
"318" 2015-04-05 "2:30 PM" 14 12 88 1012.2 4 "NE (40°)" 21.6 NA "" "" "Mostly Cloudy"
"319" 2015-04-05 "3:00 PM" 14 12 88 1011.2 4 "ENE (60°)" 18 NA "" "" "Mostly Cloudy"
"320" 2015-04-05 "3:30 PM" 15 12 82 1011.2 4 "ENE (70°)" 18 NA "" "" "Mostly Cloudy"
"321" 2015-04-05 "4:00 PM" 15 12 82 1011.2 4.5 "ENE (60°)" 14.3 NA "" "" "Mostly Cloudy"
"322" 2015-04-05 "4:30 PM" 15 12 82 1011.2 6.9 "ENE (70°)" 14.3 NA "" "" "Mostly Cloudy"
"323" 2015-04-05 "5:00 PM" 14 11 82 1012.2 8 "NE (50°)" 14.3 32.3 "" "" "Mostly Cloudy"
"324" 2015-04-05 "5:30 PM" 14 11 82 1012.2 6 "NNE (30°)" 18 NA "" "" "Mostly Cloudy"
"325" 2015-04-05 "6:00 PM" 13 11 88 1012.2 6 "NNE (30°)" 21.6 NA "" "" "Mostly Cloudy"
"326" 2015-04-05 "6:30 PM" 13 11 88 1013.2 8 "NNE (20°)" 18 NA "" "" "Mostly Cloudy"
"327" 2015-04-05 "7:00 PM" 12 11 94 1014.2 4 "North (10°)" 18 NA "" "Rain" "Light Rain"
"328" 2015-04-05 "7:30 PM" 12 11 94 1014.2 2.7 "North (10°)" 14.3 NA "" "Rain" "Light Rain"
"329" 2015-04-05 "8:00 PM" 12 11 94 1015.2 2.7 "North (10°)" 18 NA "" "Rain" "Light Rain"
"330" 2015-04-05 "8:30 PM" 11 11 100 1015.2 4 "North (10°)" 21.6 NA "" "Rain" "Light Rain"
"331" 2015-04-05 "9:00 PM" 11 10 94 1016.3 8 "NNE (20°)" 21.6 NA "" "Rain" "Light Rain"
"332" 2015-04-05 "9:30 PM" 11 10 94 1013.2 8 "ESE (110°)" 28.8 NA "" "Rain-Thunderstorm" "Light Thunderstorms and Rain"
"333" 2015-04-05 "10:00 PM" 11 10 94 1016.3 8 "North (350°)" 14.3 NA "" "Rain-Thunderstorm" "Light Thunderstorms and Rain"
"334" 2015-04-05 "10:30 PM" 11 10 94 1016.3 5 "North (10°)" 18 NA "" "Rain-Thunderstorm" "Heavy Thunderstorms and Rain"
"335" 2015-04-05 "11:00 PM" 11 11 100 1015.2 8 "NNE (20°)" 14.3 NA "" "Rain-Thunderstorm" "Light Thunderstorms and Rain"
"336" 2015-04-05 "11:30 PM" 11 11 100 1015.2 10 "NNE (20°)" 18 NA "" "Rain-Thunderstorm" "Light Thunderstorms and Rain"
"337" 2015-04-04 "12:00 AM" 13 9 77 1010.2 10 "East (90°)" 18 36 "" "" "Mostly Cloudy"
"338" 2015-04-04 "12:30 AM" 13 9 77 1010.2 10 "East (100°)" 10.8 NA "" "" "Mostly Cloudy"
"339" 2015-04-04 "1:00 AM" 13 9 77 1009.1 10 "ESE (110°)" 18 NA "" "" "Mostly Cloudy"
"340" 2015-04-04 "1:30 AM" 13 9 77 1009.1 10 "East (90°)" 10.8 NA "" "" "Mostly Cloudy"
"341" 2015-04-04 "2:00 AM" 13 10 82 1009.1 10 "East (100°)" 14.3 NA "" "Rain" "Light Rain"
"342" 2015-04-04 "2:30 AM" 13 10 82 1009.1 10 "East (90°)" 18 NA "" "" "Mostly Cloudy"
"343" 2015-04-04 "3:00 AM" 13 10 82 1008.1 10 "East (100°)" 14.3 NA "" "" "Mostly Cloudy"
"344" 2015-04-04 "3:30 AM" 13 11 88 1007.1 10 "East (100°)" 18 NA "" "" "Mostly Cloudy"
"345" 2015-04-04 "4:00 AM" 13 11 88 1007.1 10 "East (100°)" 21.6 NA "" "" "Mostly Cloudy"
"346" 2015-04-04 "4:30 AM" 13 11 88 1007.1 10 "East (100°)" 18 NA "" "" "Mostly Cloudy"
"347" 2015-04-04 "5:00 AM" 13 11 88 1007.1 10 "ESE (110°)" 14.3 NA "" "" "Mostly Cloudy"
"348" 2015-04-04 "5:30 AM" 13 11 88 1007.1 6.9 "ESE (110°)" 18 NA "" "" "Mostly Cloudy"
"349" 2015-04-04 "6:00 AM" 13 11 88 1007.1 6.9 "ESE (120°)" 21.6 NA "" "" "Overcast"
"350" 2015-04-04 "6:30 AM" 13 11 88 1007.1 6 "ESE (120°)" 21.6 NA "" "Rain" "Light Rain"
"351" 2015-04-04 "7:00 AM" 13 12 94 1007.1 5 "ESE (120°)" 18 NA "" "Rain" "Light Rain"
"352" 2015-04-04 "7:30 AM" 13 12 94 1007.1 4.5 "ESE (120°)" 21.6 NA "" "Rain" "Light Rain"
"353" 2015-04-04 "8:00 AM" 13 12 94 1010.2 3.1 "SW (220°)" 14.3 NA "" "Rain" "Light Rain"
"354" 2015-04-04 "8:30 AM" 13 13 100 1009.1 1.4 "Variable" 7.2 NA "" "Rain" "Light Rain"
"355" 2015-04-04 "9:00 AM" 14 13 94 1007.1 1.6 "ESE (120°)" 18 NA "" "Rain" "Light Rain"
"356" 2015-04-04 "9:30 AM" 14 13 94 1008.1 4 "SE (130°)" 14.3 NA "" "" "Overcast"
"357" 2015-04-04 "10:00 AM" 15 14 94 1008.1 5 "SE (130°)" 14.3 NA "" "" "Overcast"
"358" 2015-04-04 "10:30 AM" 16 14 88 1007.1 5 "SE (130°)" 14.3 NA "" "" "Overcast"
"359" 2015-04-04 "11:00 AM" 16 14 88 1006.1 6 "SSE (160°)" 21.6 NA "" "" "Overcast"
"360" 2015-04-04 "11:30 AM" 17 14 82 1007.1 6 "SSE (160°)" 14.3 NA "" "" "Overcast"
"361" 2015-04-04 "12:00 PM" 17 14 82 1007.1 6 "South (180°)" 14.3 NA "" "" "Overcast"
"362" 2015-04-04 "12:30 PM" 18 15 83 1006.1 6 "South (190°)" 10.8 NA "" "" "Overcast"
"363" 2015-04-04 "1:00 PM" 17 15 88 1007.1 6 "WNW (290°)" 14.3 NA "" "" "Overcast"
"364" 2015-04-04 "1:30 PM" 18 15 83 1007.1 6 "West (270°)" 18 NA "" "" "Overcast"
"365" 2015-04-04 "2:00 PM" 17 15 88 1007.1 5 "WNW (290°)" 10.8 NA "" "" "Overcast"
"366" 2015-04-04 "2:30 PM" 17 15 88 1007.1 5 "West (280°)" 10.8 NA "" "" "Overcast"
"367" 2015-04-04 "3:00 PM" 18 15 83 1008.1 5 "West (280°)" 14.3 NA "" "" "Overcast"
"368" 2015-04-04 "3:30 PM" 18 15 83 1008.1 5 "WNW (290°)" 18 NA "" "" "Overcast"
"369" 2015-04-04 "4:00 PM" 18 15 83 1009.1 5 "NW (320°)" 14.3 NA "" "" "Mostly Cloudy"
"370" 2015-04-04 "4:30 PM" 18 15 83 1009.1 5 "NW (310°)" 18 NA "" "" "Mostly Cloudy"
"371" 2015-04-04 "5:00 PM" 18 15 83 1009.1 5 "WNW (300°)" 14.3 NA "" "" "Partly Cloudy"
"372" 2015-04-04 "5:30 PM" 18 14 77 1009.1 5 "NNW (340°)" 14.3 NA "" "" "Mist"
"373" 2015-04-04 "6:00 PM" 18 14 77 1010.2 4 "NNW (330°)" 18 NA "" "" "Mist"
"374" 2015-04-04 "6:30 PM" 17 14 82 1011.2 4 "NNW (330°)" 14.3 NA "" "" "Partly Cloudy"
"375" 2015-04-04 "7:00 PM" 17 14 82 1011.2 4 "NW (320°)" 14.3 NA "" "" "Partly Cloudy"
"376" 2015-04-04 "7:30 PM" 17 14 82 1012.2 4 "NNW (330°)" 14.3 NA "" "" "Scattered Clouds"
"377" 2015-04-04 "8:00 PM" 17 14 82 1013.2 4 "WNW (300°)" 7.2 NA "" "" "Scattered Clouds"
"378" 2015-04-04 "8:30 PM" 17 14 82 1013.2 4 "Variable" 3.5 NA "" "" "Scattered Clouds"
"379" 2015-04-04 "9:00 PM" 17 14 82 1012.2 4 "NE (50°)" 10.8 NA "" "" "Mostly Cloudy"
"380" 2015-04-04 "9:30 PM" 16 14 88 1012.2 4 "NE (40°)" 10.8 NA "" "" "Mostly Cloudy"
"381" 2015-04-04 "10:00 PM" 16 14 88 1012.2 4 "North (10°)" 14.3 NA "" "" "Mostly Cloudy"
"382" 2015-04-04 "10:30 PM" 16 13 82 1013.2 4 "North (350°)" 10.8 NA "" "" "Mostly Cloudy"
"383" 2015-04-04 "11:00 PM" 15 14 94 1013.2 4 "North (10°)" 10.8 NA "" "" "Scattered Clouds"
"384" 2015-04-04 "11:30 PM" 15 13 88 1013.2 3.1 "North (360°)" 10.8 NA "" "" "Partly Cloudy"
"385" 2015-04-03 "12:00 AM" 18 16 88 1003 10 "NW (320°)" 14.3 NA "" "" "Mostly Cloudy"
"386" 2015-04-03 "12:30 AM" 17 16 94 1003 6 "North (10°)" 18 NA "" "Rain" "Light Rain"
"387" 2015-04-03 "1:00 AM" 16 15 94 1003 2.6 "NNE (20°)" 18 NA "" "Rain" "Heavy Rain"
"388" 2015-04-03 "1:30 AM" 16 15 94 1004.1 2.7 "North (350°)" 18 NA "" "Rain" "Light Rain"
"389" 2015-04-03 "2:00 AM" 16 15 94 1004.1 2.6 "NNW (340°)" 14.3 NA "" "Rain" "Rain"
"390" 2015-04-03 "2:30 AM" 16 15 94 1003 2.6 "NNE (20°)" 10.8 NA "" "Rain" "Rain"
"391" 2015-04-03 "3:00 AM" 15 14 94 1004.1 4 "North (360°)" 14.3 NA "" "Rain" "Light Rain"
"392" 2015-04-03 "3:30 AM" 15 14 94 1005.1 3.5 "North (10°)" 10.8 NA "" "Rain" "Light Rain"
"393" 2015-04-03 "4:00 AM" 15 14 94 1005.1 4.5 "NNW (340°)" 10.8 NA "" "" "Mostly Cloudy"
"394" 2015-04-03 "4:30 AM" 15 13 88 1005.1 5 "North (350°)" 18 NA "" "" "Scattered Clouds"
"395" 2015-04-03 "5:00 AM" 15 13 88 1005.1 4.5 "NNW (340°)" 18 NA "" "" "Mostly Cloudy"
"396" 2015-04-03 "5:30 AM" 14 13 94 1006.1 4 "North (350°)" 14.3 NA "" "" "Mostly Cloudy"
"397" 2015-04-03 "6:00 AM" 13 12 94 1006.1 3.5 "North (10°)" 25.3 NA "" "" "Mostly Cloudy"
"398" 2015-04-03 "7:00 AM" 13 11 88 1008.1 3.5 "North (360°)" 18 NA "" "" "Mostly Cloudy"
"399" 2015-04-03 "7:30 AM" 14 11 82 1008.1 3.5 "North (10°)" 14.3 NA "" "" "Mostly Cloudy"
"400" 2015-04-03 "8:00 AM" 14 11 82 1008.1 4 "North (360°)" 18 NA "" "" "Mostly Cloudy"
"401" 2015-04-03 "8:30 AM" 14 11 82 1009.1 4 "North (360°)" 14.3 NA "" "" "Scattered Clouds"
"402" 2015-04-03 "9:00 AM" 14 11 82 1009.1 4 "North (360°)" 14.3 NA "" "" "Scattered Clouds"
"403" 2015-04-03 "9:30 AM" 14 11 82 1009.1 4 "NE (40°)" 14.3 NA "" "" "Scattered Clouds"
"404" 2015-04-03 "10:00 AM" 15 11 77 1009.1 4 "North (10°)" 14.3 NA "" "" "Scattered Clouds"
"405" 2015-04-03 "10:30 AM" 15 11 77 1010.2 4 "North (360°)" 14.3 NA "" "" "Scattered Clouds"
"406" 2015-04-03 "11:00 AM" 14 10 77 1010.2 4 "North (10°)" 21.6 NA "" "" "Scattered Clouds"
"407" 2015-04-03 "11:30 AM" 14 10 77 1009.1 4 "NNE (20°)" 21.6 NA "" "" "Scattered Clouds"
"408" 2015-04-03 "12:00 PM" 14 10 77 1010.2 4 "North (10°)" 21.6 NA "" "" "Scattered Clouds"
"409" 2015-04-03 "12:30 PM" 14 10 77 1010.2 4 "NE (40°)" 18 NA "" "" "Scattered Clouds"
"410" 2015-04-03 "1:00 PM" 14 10 77 1009.1 4.5 "NE (40°)" 18 NA "" "" "Scattered Clouds"
"411" 2015-04-03 "1:30 PM" 14 9 72 1009.1 5 "NE (40°)" 25.3 NA "" "" "Mostly Cloudy"
"412" 2015-04-03 "2:00 PM" 14 9 72 1009.1 5 "NE (40°)" 21.6 NA "" "" "Overcast"
"413" 2015-04-03 "2:30 PM" 14 10 77 1009.1 4.5 "NNE (30°)" 21.6 NA "" "" "Overcast"
"414" 2015-04-03 "3:00 PM" 14 9 72 1009.1 4 "NE (40°)" 18 NA "" "" "Overcast"
"415" 2015-04-03 "3:30 PM" 14 9 72 1009.1 4 "NE (40°)" 18 NA "" "" "Overcast"
"416" 2015-04-03 "4:00 PM" 14 9 72 1009.1 4.5 "NNE (20°)" 14.3 NA "" "" "Overcast"
"417" 2015-04-03 "4:30 PM" 14 9 72 1009.1 6 "NE (40°)" 18 NA "" "" "Scattered Clouds"
"418" 2015-04-03 "5:00 PM" 14 9 72 1010.2 8 "NE (40°)" 14.3 NA "" "" "Partly Cloudy"
"419" 2015-04-03 "5:30 PM" 14 9 72 1010.2 8 "NE (50°)" 14.3 NA "" "" ""
"420" 2015-04-03 "6:00 PM" 14 9 72 1010.2 8 "ENE (60°)" 10.8 NA "" "" "Mostly Cloudy"
"421" 2015-04-03 "6:30 PM" 13 8 72 1010.2 10 "ENE (70°)" 10.8 NA "" "" "Scattered Clouds"
"422" 2015-04-03 "7:00 PM" 13 8 72 1011.2 10 "East (100°)" 14.3 NA "" "" "Mostly Cloudy"
"423" 2015-04-03 "7:30 PM" 13 8 72 1011.2 10 "ESE (110°)" 14.3 NA "" "" "Mostly Cloudy"
"424" 2015-04-03 "8:00 PM" 13 8 72 1011.2 10 "ESE (110°)" 10.8 NA "" "" "Mostly Cloudy"
"425" 2015-04-03 "8:30 PM" 13 8 72 1012.2 10 "ESE (120°)" 14.3 NA "" "" "Mostly Cloudy"
"426" 2015-04-03 "9:00 PM" 13 8 72 1012.2 10 "East (100°)" 14.3 32.3 "" "" "Partly Cloudy"
"427" 2015-04-03 "9:30 PM" 13 8 72 1012.2 10 "East (90°)" 14.3 NA "" "" "Partly Cloudy"
"428" 2015-04-03 "10:00 PM" 13 8 72 1012.2 10 "East (90°)" 10.8 NA "" "" "Scattered Clouds"
"429" 2015-04-03 "10:30 PM" 13 9 77 1011.2 10 "East (100°)" 14.3 32.3 "" "" "Mostly Cloudy"
"430" 2015-04-03 "11:00 PM" 13 9 77 1011.2 10 "East (100°)" 14.3 NA "" "" "Mostly Cloudy"
"431" 2015-04-03 "11:30 PM" 13 9 77 1010.2 10 "East (90°)" 18 NA "" "" "Mostly Cloudy"
"432" 2015-04-02 "12:00 AM" 18 16 88 1005.1 10 "ESE (120°)" 14.3 NA "" "" "Mostly Cloudy"
"433" 2015-04-02 "12:30 AM" 18 16 88 1005.1 10 "ESE (120°)" 10.8 NA "" "" "Mostly Cloudy"
"434" 2015-04-02 "1:00 AM" 18 16 88 1005.1 10 "ESE (120°)" 10.8 NA "" "" "Partly Cloudy"
"435" 2015-04-02 "1:30 AM" 18 16 88 1004.1 NA "ESE (120°)" 14.3 NA "" "" "Clear"
"436" 2015-04-02 "2:00 AM" 18 16 88 1003 NA "SE (140°)" 10.8 NA "" "" "Clear"
"437" 2015-04-02 "2:30 AM" 18 16 88 1003 NA "SE (130°)" 10.8 NA "" "" "Clear"
"438" 2015-04-02 "3:00 AM" 18 16 88 1002 NA "SE (130°)" 10.8 NA "" "" "Clear"
"439" 2015-04-02 "3:30 AM" 18 16 88 1002 NA "SE (140°)" 14.3 NA "" "" "Clear"
"440" 2015-04-02 "4:00 AM" 19 16 83 1002 NA "SSE (150°)" 14.3 NA "" "" "Clear"
"441" 2015-04-02 "4:30 AM" 19 16 83 1001 NA "SE (140°)" 14.3 NA "" "" "Clear"
"442" 2015-04-02 "5:00 AM" 19 16 83 1001 NA "SSE (150°)" 14.3 NA "" "" "Clear"
"443" 2015-04-02 "5:30 AM" 19 15 78 1001 NA "SSE (150°)" 14.3 NA "" "" "Clear"
"444" 2015-04-02 "6:00 AM" 19 15 78 1001 NA "SSE (150°)" 14.3 NA "" "" "Clear"
"445" 2015-04-02 "6:30 AM" 19 15 78 1001 10 "SSE (150°)" 14.3 NA "" "" "Partly Cloudy"
"446" 2015-04-02 "7:00 AM" 19 15 78 1001 10 "SSE (150°)" 18 NA "" "" "Partly Cloudy"
"447" 2015-04-02 "7:30 AM" 20 15 73 1001 NA "SSE (150°)" 18 NA "" "" "Clear"
"448" 2015-04-02 "8:00 AM" 21 16 73 1001 NA "SSE (150°)" 21.6 NA "" "" "Clear"
"449" 2015-04-02 "8:30 AM" 23 16 65 1001 NA "SSE (150°)" 21.6 NA "" "" "Clear"
"450" 2015-04-02 "9:00 AM" 24 17 65 1001 NA "SSE (160°)" 18 NA "" "" "Clear"
"451" 2015-04-02 "9:30 AM" 25 17 61 1001 NA "SSE (160°)" 18 NA "" "" "Clear"
"452" 2015-04-02 "10:00 AM" 26 17 57 1001 NA "South (170°)" 25.3 NA "" "" "Clear"
"453" 2015-04-02 "10:30 AM" 27 18 58 1000 NA "SSE (160°)" 21.6 NA "" "" "Clear"
"454" 2015-04-02 "11:00 AM" 28 18 54 1000 NA "South (170°)" 21.6 NA "" "" "Clear"
"455" 2015-04-02 "11:30 AM" 28 19 58 999 NA "SSE (160°)" 25.3 NA "" "" "Clear"
"456" 2015-04-02 "12:00 PM" 29 19 55 998 NA "South (170°)" 21.6 NA "" "" "Clear"
"457" 2015-04-02 "12:30 PM" 29 19 55 998 NA "South (170°)" 28.8 NA "" "" "Clear"
"458" 2015-04-02 "1:00 PM" 30 19 51 997 NA "SSE (160°)" 25.3 NA "" "" "Clear"
"459" 2015-04-02 "1:30 PM" 30 19 51 997 NA "South (170°)" 21.6 NA "" "" "Clear"
"460" 2015-04-02 "2:00 PM" 31 19 49 997 NA "South (170°)" 25.3 NA "" "" "Clear"
"461" 2015-04-02 "2:30 PM" 31 19 49 997 NA "South (180°)" 28.8 NA "" "" "Clear"
"462" 2015-04-02 "3:00 PM" 31 19 49 996.3 NA "South (170°)" 25.3 NA "" "" "Clear"
"463" 2015-04-02 "3:30 PM" 30 19 51 996.3 10 "SSE (160°)" 25.3 NA "" "" "Partly Cloudy"
"464" 2015-04-02 "4:00 PM" 30 19 51 996.3 10 "South (170°)" 25.3 NA "" "" "Scattered Clouds"
"465" 2015-04-02 "4:30 PM" 28 18 54 996.3 10 "South (170°)" 18 NA "" "" "Scattered Clouds"
"466" 2015-04-02 "5:00 PM" 28 19 58 997 10 "West (270°)" 28.8 NA "" "Rain" "Light Rain Showers"
"467" 2015-04-02 "5:30 PM" 24 20 78 998 10 "NNW (340°)" 28.8 NA "" "" "Partly Cloudy"
"468" 2015-04-02 "6:00 PM" 23 19 78 998 NA "North (360°)" 14.3 NA "" "" "Clear"
"469" 2015-04-02 "6:30 PM" 23 19 78 999 NA "NNW (330°)" 18 NA "" "" "Clear"
"470" 2015-04-02 "7:00 PM" 22 19 83 999 NA "NNW (330°)" 18 NA "" "" "Clear"
"471" 2015-04-02 "7:30 PM" 22 19 83 1000 10 "WNW (300°)" 21.6 NA "" "Rain-Thunderstorm" "Light Thunderstorms and Rain"
"472" 2015-04-02 "8:00 PM" 21 19 88 1001 10 "WSW (240°)" 10.8 NA "" "Rain-Thunderstorm" "Light Thunderstorms and Rain"
"473" 2015-04-02 "8:30 PM" 21 19 88 1002 10 "NW (320°)" 14.3 NA "" "Rain-Thunderstorm" "Light Thunderstorms and Rain"
"474" 2015-04-02 "9:00 PM" 20 19 94 1002 10 "NW (310°)" 21.6 NA "" "Rain-Thunderstorm" "Thunderstorms and Rain"
"475" 2015-04-02 "9:30 PM" 20 18 88 1002 10 "WNW (290°)" 10.8 NA "" "Rain" "Light Rain Showers"
"476" 2015-04-02 "10:00 PM" 19 18 94 1002 10 "North (350°)" 14.3 NA "" "Rain" "Light Rain"
"477" 2015-04-02 "10:30 PM" 19 17 88 1002 10 "NNW (340°)" 14.3 NA "" "Rain" "Light Rain"
"478" 2015-04-02 "11:00 PM" 18 17 94 1002 10 "North (350°)" 14.3 NA "" "" "Mostly Cloudy"
"479" 2015-04-02 "11:30 PM" 18 17 94 1003 10 "NNW (340°)" 18 NA "" "" "Mostly Cloudy"
"480" 2015-04-01 "12:00 AM" 22 17 73 1011.2 NA "Variable" 3.5 NA "" "" "Clear"
"481" 2015-04-01 "12:30 AM" 22 17 73 1010.2 NA "NNE (30°)" 3.5 NA "" "" "Clear"
"482" 2015-04-01 "1:00 AM" 21 17 78 1010.2 NA "East (100°)" 3.5 NA "" "" "Clear"
"483" 2015-04-01 "1:30 AM" 20 17 83 1010.2 NA "Calm" NA NA "" "" "Clear"
"484" 2015-04-01 "2:00 AM" 20 16 78 1009.1 NA "Variable" 3.5 NA "" "" "Clear"
"485" 2015-04-01 "2:30 AM" 20 17 83 1009.1 NA "Variable" 3.5 NA "" "" "Clear"
"486" 2015-04-01 "3:00 AM" 20 17 83 1009.1 NA "Variable" 3.5 NA "" "" "Clear"
"487" 2015-04-01 "3:30 AM" 20 17 83 1009.1 NA "Variable" 3.5 NA "" "" "Clear"
"488" 2015-04-01 "4:00 AM" 19 17 88 1009.1 NA "Variable" 3.5 NA "" "" "Clear"
"489" 2015-04-01 "4:30 AM" 19 17 88 1010.2 NA "Calm" NA NA "" "" "Clear"
"490" 2015-04-01 "5:00 AM" 19 17 88 1010.2 NA "Variable" 3.5 NA "" "" "Clear"
"491" 2015-04-01 "5:30 AM" 18 16 88 1010.2 NA "Calm" NA NA "" "" "Clear"
"492" 2015-04-01 "6:00 AM" 19 17 88 1010.2 NA "Variable" 3.5 NA "" "" "Clear"
"493" 2015-04-01 "6:30 AM" 20 17 83 1011.2 NA "Variable" 3.5 NA "" "" "Clear"
"494" 2015-04-01 "7:00 AM" 21 18 83 1011.2 8 "SSE (150°)" 10.8 NA "" "" ""
"495" 2015-04-01 "7:30 AM" 23 18 73 1011.2 6.9 "SE (140°)" 7.2 NA "" "" ""
"496" 2015-04-01 "8:00 AM" 23 19 78 1012.2 6.9 "ENE (60°)" 14.3 NA "" "" ""
"497" 2015-04-01 "8:30 AM" 24 18 69 1012.2 6.9 "East (90°)" 18 NA "" "" ""
"498" 2015-04-01 "9:00 AM" 25 18 65 1011.2 6.9 "East (90°)" 18 NA "" "" ""
"499" 2015-04-01 "9:30 AM" 25 18 65 1012.2 6.9 "ESE (110°)" 18 NA "" "" ""
"500" 2015-04-01 "10:00 AM" 25 17 61 1011.2 NA "East (100°)" 18 NA "" "" "Clear"
"501" 2015-04-01 "10:30 AM" 26 18 61 1011.2 NA "ESE (120°)" 18 NA "" "" "Clear"
"502" 2015-04-01 "11:00 AM" 27 17 54 1011.2 NA "ESE (110°)" 14.3 NA "" "" "Clear"
"503" 2015-04-01 "11:30 AM" 27 17 54 1011.2 NA "East (80°)" 14.3 NA "" "" "Clear"
"504" 2015-04-01 "12:00 PM" 28 17 51 1010.2 NA "East (90°)" 18 NA "" "" "Clear"
"505" 2015-04-01 "12:30 PM" 28 17 51 1010.2 NA "ESE (110°)" 21.6 NA "" "" "Clear"
"506" 2015-04-01 "1:00 PM" 27 17 54 1009.1 NA "East (90°)" 21.6 NA "" "" "Clear"
"507" 2015-04-01 "1:30 PM" 27 17 54 1009.1 NA "East (80°)" 21.6 NA "" "" "Clear"
"508" 2015-04-01 "2:00 PM" 27 17 54 1008.1 NA "East (90°)" 21.6 NA "" "" "Clear"
"509" 2015-04-01 "2:30 PM" 27 18 58 1008.1 NA "East (90°)" 21.6 NA "" "" "Clear"
"510" 2015-04-01 "3:00 PM" 27 18 58 1008.1 NA "East (100°)" 21.6 NA "" "" "Clear"
"511" 2015-04-01 "3:30 PM" 26 17 57 1007.1 NA "East (90°)" 18 NA "" "" "Clear"
"512" 2015-04-01 "4:00 PM" 26 17 57 1007.1 NA "East (90°)" 14.3 NA "" "" "Clear"
"513" 2015-04-01 "4:30 PM" 25 17 61 1007.1 NA "ENE (60°)" 18 NA "" "" "Clear"
"514" 2015-04-01 "5:00 PM" 24 17 65 1007.1 NA "ENE (60°)" 18 NA "" "" "Clear"
"515" 2015-04-01 "5:30 PM" 22 16 69 1007.1 NA "ENE (60°)" 18 NA "" "" "Clear"
"516" 2015-04-01 "6:00 PM" 21 16 73 1007.1 NA "East (80°)" 21.6 NA "" "" "Clear"
"517" 2015-04-01 "6:30 PM" 20 16 78 1007.1 NA "East (80°)" 18 NA "" "" "Clear"
"518" 2015-04-01 "7:00 PM" 18 16 88 1007.1 NA "East (100°)" 18 NA "" "" "Clear"
"519" 2015-04-01 "7:30 PM" 18 16 88 1007.1 10 "East (90°)" 18 NA "" "" "Partly Cloudy"
"520" 2015-04-01 "8:00 PM" 18 16 88 1007.1 10 "East (100°)" 25.3 NA "" "" "Mostly Cloudy"
"521" 2015-04-01 "8:30 PM" 18 16 88 1008.1 10 "East (100°)" 18 NA "" "" "Mostly Cloudy"
"522" 2015-04-01 "9:00 PM" 18 16 88 1008.1 10 "East (90°)" 18 NA "" "" "Mostly Cloudy"
"523" 2015-04-01 "9:30 PM" 18 16 88 1007.1 10 "East (90°)" 14.3 NA "" "" "Mostly Cloudy"
"524" 2015-04-01 "10:00 PM" 17 16 94 1007.1 10 "East (100°)" 21.6 NA "" "" "Mostly Cloudy"
"525" 2015-04-01 "10:30 PM" 17 16 94 1007.1 10 "East (90°)" 18 NA "" "" "Mostly Cloudy"
"526" 2015-04-01 "11:00 PM" 17 16 94 1006.1 10 "East (90°)" 18 NA "" "" "Mostly Cloudy"
"527" 2015-04-01 "11:30 PM" 18 16 88 1006.1 10 "ESE (110°)" 10.8 NA "" "" "Mostly Cloudy"
"528" 2015-03-31 "12:00 AM" 16 15 94 1012.2 6.9 "SE (140°)" 7.2 NA "" "" ""
"529" 2015-03-31 "12:30 AM" 16 15 94 1012.2 6 "SE (140°)" 10.8 NA "" "" ""
"530" 2015-03-31 "1:00 AM" 16 15 94 1012.2 5 "SE (140°)" 7.2 NA "" "" "Scattered Clouds"
"531" 2015-03-31 "1:30 AM" 16 15 94 1011.2 5 "SE (130°)" 10.8 NA "" "" "Partly Cloudy"
"532" 2015-03-31 "2:00 AM" 16 15 94 1011.2 4 "SE (140°)" 7.2 NA "" "" "Mist"
"533" 2015-03-31 "2:30 AM" 16 15 94 1011.2 3.5 "SE (130°)" 7.2 NA "" "" "Mist"
"534" 2015-03-31 "3:00 AM" 15 15 100 1011.2 3.5 "SSE (150°)" 7.2 NA "" "" "Mist"
"535" 2015-03-31 "3:30 AM" 16 15 94 1011.2 3.5 "SE (140°)" 10.8 NA "" "" "Mist"
"536" 2015-03-31 "4:00 AM" 15 15 100 1011.2 3.5 "SE (130°)" 7.2 NA "" "" "Mist"
"537" 2015-03-31 "4:30 AM" 15 14 94 1011.2 3.1 "SSE (160°)" 7.2 NA "" "" "Mist"
"538" 2015-03-31 "5:00 AM" 15 14 94 1011.2 3.1 "SSE (160°)" 10.8 NA "" "" "Mist"
"539" 2015-03-31 "5:30 AM" 15 14 94 1011.2 2.7 "SSE (150°)" 10.8 NA "" "" "Mist"
"540" 2015-03-31 "6:00 AM" 15 14 94 1011.2 1.9 "SE (140°)" 7.2 NA "" "" "Mist"
"541" 2015-03-31 "6:30 AM" 15 15 100 1011.2 2.6 "SSE (150°)" 7.2 NA "" "" "Mist"
"542" 2015-03-31 "7:00 AM" 16 15 94 1011.2 NA "SSE (150°)" 7.2 NA "" "" "Mist"
"543" 2015-03-31 "7:30 AM" 17 15 88 1012.2 NA "SSE (150°)" 7.2 NA "" "" "Mist"
"544" 2015-03-31 "8:00 AM" 19 16 83 1012.2 4 "South (170°)" 10.8 NA "" "" "Mist"
"545" 2015-03-31 "8:30 AM" 21 16 73 1012.2 6 "South (190°)" 10.8 NA "" "" ""
"546" 2015-03-31 "9:00 AM" 22 17 73 1012.2 6.9 "South (190°)" 10.8 NA "" "" ""
"547" 2015-03-31 "9:30 AM" 23 17 69 1012.2 6.9 "South (170°)" 10.8 NA "" "" ""
"548" 2015-03-31 "10:00 AM" 25 17 61 1012.2 NA "SSW (210°)" 14.3 NA "" "" "Clear"
"549" 2015-03-31 "10:30 AM" 26 17 57 1011.2 NA "SSW (210°)" 14.3 NA "" "" "Clear"
"550" 2015-03-31 "11:00 AM" 27 18 58 1011.2 NA "SSW (200°)" 14.3 NA "" "" "Clear"
"551" 2015-03-31 "11:30 AM" 27 18 58 1010.2 NA "WSW (240°)" 18 NA "" "" "Clear"
"552" 2015-03-31 "12:00 PM" 27 18 58 1010.2 NA "WSW (240°)" 21.6 NA "" "" "Clear"
"553" 2015-03-31 "12:30 PM" 29 19 55 1009.1 NA "SW (220°)" 18 NA "" "" "Clear"
"554" 2015-03-31 "1:00 PM" 30 19 51 1009.1 NA "SW (220°)" 14.3 NA "" "" "Clear"
"555" 2015-03-31 "1:30 PM" 29 19 55 1008.1 NA "SW (230°)" 14.3 NA "" "" "Clear"
"556" 2015-03-31 "2:00 PM" 29 18 51 1008.1 NA "West (260°)" 10.8 NA "" "" "Clear"
"557" 2015-03-31 "2:30 PM" 29 18 51 1008.1 NA "WSW (240°)" 10.8 NA "" "" "Clear"
"558" 2015-03-31 "3:00 PM" 29 17 48 1007.1 NA "West (260°)" 10.8 NA "" "" "Clear"
"559" 2015-03-31 "3:30 PM" 29 18 51 1007.1 NA "SW (220°)" 10.8 NA "" "" "Clear"
"560" 2015-03-31 "4:00 PM" 29 18 51 1007.1 NA "SW (220°)" 10.8 NA "" "" "Clear"
"561" 2015-03-31 "4:30 PM" 29 18 51 1007.1 NA "WSW (250°)" 10.8 NA "" "" "Clear"
"562" 2015-03-31 "5:00 PM" 29 19 55 1007.1 NA "South (190°)" 10.8 NA "" "" "Clear"
"563" 2015-03-31 "5:30 PM" 27 19 61 1008.1 NA "South (180°)" 14.3 NA "" "" "Clear"
"564" 2015-03-31 "6:00 PM" 26 19 65 1008.1 NA "South (170°)" 14.3 NA "" "" "Clear"
"565" 2015-03-31 "6:30 PM" 26 19 65 1008.1 6.9 "SSE (160°)" 10.8 NA "" "" ""
"566" 2015-03-31 "7:00 PM" 25 19 69 1009.1 6.9 "SSE (150°)" 14.3 NA "" "" ""
"567" 2015-03-31 "7:30 PM" 24 18 69 1009.1 6.9 "SSE (150°)" 10.8 NA "" "" ""
"568" 2015-03-31 "8:00 PM" 23 17 69 1010.2 6.9 "SE (140°)" 7.2 NA "" "" ""
"569" 2015-03-31 "8:30 PM" 23 17 69 1010.2 NA "SE (140°)" 7.2 NA "" "" "Clear"
"570" 2015-03-31 "9:00 PM" 23 17 69 1010.2 NA "SE (140°)" 7.2 NA "" "" "Clear"
"571" 2015-03-31 "9:30 PM" 23 17 69 1010.2 NA "ESE (120°)" 7.2 NA "" "" "Clear"
"572" 2015-03-31 "10:00 PM" 23 17 69 1010.2 NA "SE (130°)" 10.8 NA "" "" "Clear"
"573" 2015-03-31 "10:30 PM" 22 17 73 1011.2 NA "SSE (150°)" 10.8 NA "" "" "Clear"
"574" 2015-03-31 "11:00 PM" 22 17 73 1011.2 NA "SE (130°)" 7.2 NA "" "" "Clear"
"575" 2015-03-31 "11:30 PM" 22 17 73 1011.2 NA "ESE (110°)" 7.2 NA "" "" "Clear"
"576" 2015-03-30 "12:00 AM" 17 9 59 1015.2 NA "SE (140°)" 21.6 NA "" "" "Clear"
"577" 2015-03-30 "12:30 AM" 17 9 59 1015.2 NA "SE (140°)" 21.6 NA "" "" "Clear"
"578" 2015-03-30 "1:00 AM" 17 9 59 1015.2 NA "SE (130°)" 18 NA "" "" "Clear"
"579" 2015-03-30 "1:30 AM" 17 9 59 1015.2 NA "SE (130°)" 18 NA "" "" "Clear"
"580" 2015-03-30 "2:00 AM" 17 9 59 1014.2 NA "SE (130°)" 18 NA "" "" "Clear"
"581" 2015-03-30 "2:30 AM" 17 9 59 1014.2 NA "SE (140°)" 18 NA "" "" "Clear"
"582" 2015-03-30 "3:00 AM" 16 9 63 1014.2 NA "SE (140°)" 14.3 NA "" "" "Clear"
"583" 2015-03-30 "3:30 AM" 16 9 63 1013.2 NA "SE (130°)" 14.3 NA "" "" "Clear"
"584" 2015-03-30 "4:00 AM" 16 9 63 1013.2 NA "SE (130°)" 14.3 NA "" "" "Clear"
"585" 2015-03-30 "4:30 AM" 16 8 59 1013.2 NA "SE (140°)" 18 NA "" "" "Clear"
"586" 2015-03-30 "5:00 AM" 16 8 59 1013.2 NA "SE (140°)" 21.6 NA "" "" "Clear"
"587" 2015-03-30 "5:30 AM" 16 8 59 1013.2 NA "SE (140°)" 25.3 NA "" "" "Clear"
"588" 2015-03-30 "6:00 AM" 16 9 63 1014.2 NA "SE (140°)" 21.6 NA "" "" "Clear"
"589" 2015-03-30 "6:30 AM" 15 11 77 1014.2 10 "SE (140°)" 21.6 NA "" "Rain" "Light Rain"
"590" 2015-03-30 "7:00 AM" 15 12 82 1014.2 10 "SE (140°)" 18 NA "" "Rain" "Light Rain"
"591" 2015-03-30 "7:30 AM" 15 12 82 1014.2 6.9 "SE (140°)" 18 NA "" "Rain" "Light Rain"
"592" 2015-03-30 "8:00 AM" 14 13 94 1015.2 6 "SSE (150°)" 14.3 NA "" "Rain" "Light Rain"
"593" 2015-03-30 "8:30 AM" 14 13 94 1015.2 6 "SSE (150°)" 18 NA "" "Rain" "Light Rain"
"594" 2015-03-30 "9:00 AM" 15 13 88 1015.2 8 "SSE (150°)" 21.6 NA "" "Rain" "Light Rain"
"595" 2015-03-30 "9:30 AM" 15 13 88 1015.2 8 "SE (140°)" 18 NA "" "Rain" "Light Rain"
"596" 2015-03-30 "10:00 AM" 15 13 88 1015.2 8 "SSE (150°)" 14.3 NA "" "Rain" "Light Rain"
"597" 2015-03-30 "10:30 AM" 15 13 88 1015.2 8 "SE (140°)" 18 NA "" "Rain" "Light Rain"
"598" 2015-03-30 "11:00 AM" 15 14 94 1015.2 8 "SE (140°)" 21.6 NA "" "Rain" "Light Rain"
"599" 2015-03-30 "11:30 AM" 15 14 94 1015.2 8 "SSE (150°)" 21.6 NA "" "Rain" "Light Rain"
"600" 2015-03-30 "12:00 PM" 16 14 88 1015.2 8 "SSE (150°)" 21.6 NA "" "Rain" "Light Rain"
"601" 2015-03-30 "12:30 PM" 15 14 94 1014.2 6 "SE (140°)" 25.3 NA "" "Rain" "Light Rain"
"602" 2015-03-30 "1:00 PM" 15 14 94 1013.2 6 "SE (140°)" 21.6 NA "" "Rain" "Light Rain"
"603" 2015-03-30 "1:30 PM" 16 15 94 1012.2 6 "SSE (150°)" 28.8 NA "" "Rain" "Light Rain"
"604" 2015-03-30 "2:00 PM" 16 14 88 1013.2 8 "SE (140°)" 18 NA "" "" "Mostly Cloudy"
"605" 2015-03-30 "2:30 PM" 16 15 94 1012.2 8 "SE (140°)" 18 NA "" "" "Mostly Cloudy"
"606" 2015-03-30 "3:00 PM" 16 14 88 1012.2 8 "SE (130°)" 21.6 NA "" "" "Mostly Cloudy"
"607" 2015-03-30 "3:30 PM" 17 15 88 1012.2 8 "SSE (150°)" 21.6 NA "" "" "Mostly Cloudy"
"608" 2015-03-30 "4:00 PM" 17 15 88 1012.2 8 "SE (140°)" 18 NA "" "" "Mostly Cloudy"
"609" 2015-03-30 "4:30 PM" 17 14 82 1012.2 10 "SE (140°)" 18 NA "" "" "Mostly Cloudy"
"610" 2015-03-30 "5:00 PM" 17 14 82 1012.2 10 "SE (140°)" 21.6 NA "" "" "Mostly Cloudy"
"611" 2015-03-30 "5:30 PM" 16 14 88 1012.2 10 "SE (140°)" 21.6 NA "" "" "Scattered Clouds"
"612" 2015-03-30 "6:00 PM" 16 14 88 1012.2 10 "SE (140°)" 18 NA "" "" "Scattered Clouds"
"613" 2015-03-30 "6:30 PM" 16 14 88 1012.2 10 "SE (140°)" 14.3 NA "" "" "Scattered Clouds"
"614" 2015-03-30 "7:00 PM" 16 14 88 1012.2 10 "SE (140°)" 14.3 NA "" "" "Scattered Clouds"
"615" 2015-03-30 "7:30 PM" 16 14 88 1012.2 10 "SE (140°)" 14.3 NA "" "" "Scattered Clouds"
"616" 2015-03-30 "8:00 PM" 16 14 88 1013.2 10 "SE (130°)" 10.8 NA "" "" "Scattered Clouds"
"617" 2015-03-30 "8:30 PM" 16 15 94 1013.2 10 "SE (140°)" 10.8 NA "" "" "Scattered Clouds"
"618" 2015-03-30 "9:00 PM" 16 14 88 1013.2 10 "SE (140°)" 14.3 NA "" "" "Scattered Clouds"
"619" 2015-03-30 "9:30 PM" 16 15 94 1013.2 10 "SE (130°)" 14.3 NA "" "" "Scattered Clouds"
"620" 2015-03-30 "10:00 PM" 16 15 94 1013.2 6.9 "SSE (150°)" 18 NA "" "" "Scattered Clouds"
"621" 2015-03-30 "10:30 PM" 16 15 94 1013.2 6.9 "SSE (150°)" 14.3 NA "" "" "Mostly Cloudy"
"622" 2015-03-30 "11:00 PM" 16 15 94 1013.2 6.9 "SE (140°)" 10.8 NA "" "" "Mostly Cloudy"
"623" 2015-03-30 "11:30 PM" 16 15 94 1012.2 6.9 "SE (140°)" 10.8 NA "" "" "Scattered Clouds"
"624" 2015-03-29 "12:00 AM" 13 10 82 1017.3 6 "SSE (160°)" 7.2 NA "" "" ""
"625" 2015-03-29 "12:30 AM" 13 10 82 1017.3 6.9 "SE (140°)" 3.5 NA "" "" ""
"626" 2015-03-29 "1:00 AM" 13 10 82 1017.3 6.9 "SE (140°)" 7.2 NA "" "" ""
"627" 2015-03-29 "1:30 AM" 13 10 82 1017.3 6.9 "SE (140°)" 3.5 NA "" "" ""
"628" 2015-03-29 "2:00 AM" 12 10 88 1017.3 6 "SSE (150°)" 3.5 NA "" "" ""
"629" 2015-03-29 "2:30 AM" 12 10 88 1017.3 6 "SE (130°)" 3.5 NA "" "" ""
"630" 2015-03-29 "3:00 AM" 12 10 88 1017.3 6 "SE (140°)" 3.5 NA "" "" ""
"631" 2015-03-29 "3:30 AM" 12 10 88 1017.3 5 "SE (140°)" 3.5 NA "" "" "Mist"
"632" 2015-03-29 "4:00 AM" 12 10 88 1017.3 5 "SSE (150°)" 3.5 NA "" "" "Mist"
"633" 2015-03-29 "4:30 AM" 12 10 88 1017.3 5 "South (180°)" 3.5 NA "" "" "Mist"
"634" 2015-03-29 "5:00 AM" 11 10 94 1017.3 4 "South (170°)" 3.5 NA "" "" "Mist"
"635" 2015-03-29 "5:30 AM" 12 10 88 1017.3 4 "Calm" NA NA "" "" "Mist"
"636" 2015-03-29 "6:00 AM" 12 10 88 1017.3 3.1 "SE (140°)" 3.5 NA "" "" "Mist"
"637" 2015-03-29 "6:30 AM" 12 10 88 1017.9 3.1 "Calm" NA NA "" "" "Mist"
"638" 2015-03-29 "7:00 AM" 13 11 88 1017.9 3.5 "SSE (160°)" 3.5 NA "" "" "Mist"
"639" 2015-03-29 "7:30 AM" 14 11 82 1017.9 4 "SSE (160°)" 7.2 NA "" "" "Mist"
"640" 2015-03-29 "8:00 AM" 16 12 77 1017.9 4 "South (180°)" 7.2 NA "" "" "Mist"
"641" 2015-03-29 "8:30 AM" 17 12 72 1019 4 "South (180°)" 10.8 NA "" "" "Haze"
"642" 2015-03-29 "9:00 AM" 18 12 68 1019 4 "South (180°)" 10.8 NA "" "" "Haze"
"643" 2015-03-29 "9:30 AM" 19 11 60 1019 4 "South (180°)" 10.8 NA "" "" "Haze"
"644" 2015-03-29 "10:00 AM" 21 11 53 1019 5 "South (180°)" 7.2 NA "" "" "Haze"
"645" 2015-03-29 "10:30 AM" 22 11 50 1019 5 "South (190°)" 7.2 NA "" "" "Haze"
"646" 2015-03-29 "11:00 AM" 22 12 53 1017.9 6 "Variable" 7.2 NA "" "" ""
"647" 2015-03-29 "11:30 AM" 23 11 47 1017.9 6 "Variable" 7.2 NA "" "" ""
"648" 2015-03-29 "12:00 PM" 22 11 50 1017.9 6.9 "Variable" 7.2 NA "" "" "Partly Cloudy"
"649" 2015-03-29 "12:30 PM" 24 11 44 1017.3 6.9 "Variable" 10.8 28.8 "" "" "Partly Cloudy"
"650" 2015-03-29 "1:00 PM" 24 10 41 1017.3 6.9 "South (190°)" 14.3 NA "" "" "Partly Cloudy"
"651" 2015-03-29 "1:30 PM" 24 10 41 1016.3 6.9 "SW (220°)" 10.8 NA "" "" "Partly Cloudy"
"652" 2015-03-29 "2:00 PM" 25 11 41 1016.3 6.9 "SSW (200°)" 18 NA "" "" "Scattered Clouds"
"653" 2015-03-29 "2:30 PM" 23 11 47 1016.3 6.9 "South (190°)" 14.3 NA "" "" ""
"654" 2015-03-29 "3:00 PM" 23 11 47 1015.2 NA "SE (140°)" 14.3 NA "" "" "Clear"
"655" 2015-03-29 "3:30 PM" 23 11 47 1015.2 NA "South (170°)" 14.3 NA "" "" "Clear"
"656" 2015-03-29 "4:00 PM" 23 11 47 1015.2 NA "SSE (160°)" 18 NA "" "" "Clear"
"657" 2015-03-29 "4:30 PM" 22 10 46 1015.2 NA "South (170°)" 21.6 NA "" "" "Clear"
"658" 2015-03-29 "5:00 PM" 22 10 46 1015.2 NA "SSE (150°)" 18 NA "" "" "Clear"
"659" 2015-03-29 "5:30 PM" 21 10 49 1015.2 NA "SSE (160°)" 18 NA "" "" "Clear"
"660" 2015-03-29 "6:00 PM" 20 10 52 1016.3 NA "SSE (150°)" 14.3 NA "" "" "Clear"
"661" 2015-03-29 "6:30 PM" 20 10 52 1016.3 NA "SSE (150°)" 14.3 NA "" "" "Clear"
"662" 2015-03-29 "7:00 PM" 20 10 52 1016.3 NA "SE (140°)" 14.3 NA "" "" "Clear"
"663" 2015-03-29 "7:30 PM" 19 10 56 1016.3 NA "SE (130°)" 14.3 NA "" "" "Clear"
"664" 2015-03-29 "8:00 PM" 19 10 56 1016.3 NA "SE (140°)" 18 NA "" "" "Clear"
"665" 2015-03-29 "8:30 PM" 19 10 56 1016.3 NA "SE (130°)" 18 NA "" "" "Clear"
"666" 2015-03-29 "9:00 PM" 18 10 59 1016.3 NA "SE (140°)" 18 NA "" "" "Clear"
"667" 2015-03-29 "9:30 PM" 18 10 59 1016.3 NA "SE (140°)" 21.6 NA "" "" "Clear"
"668" 2015-03-29 "10:00 PM" 18 9 56 1016.3 NA "SSE (150°)" 18 NA "" "" "Clear"
"669" 2015-03-29 "10:30 PM" 18 9 56 1016.3 10 "SE (140°)" 18 NA "" "Rain" "Light Rain"
"670" 2015-03-29 "11:00 PM" 17 10 63 1016.3 10 "SE (140°)" 14.3 NA "" "Rain" "Light Rain"
"671" 2015-03-29 "11:30 PM" 17 9 59 1016.3 NA "SE (140°)" 14.3 NA "" "" "Clear"
"672" 2015-03-28 "12:00 AM" 11 8 82 1024 NA "Variable" 7.2 NA "" "" "Clear"
"673" 2015-03-28 "12:30 AM" 11 8 82 1023 NA "SE (140°)" 7.2 NA "" "" "Clear"
"674" 2015-03-28 "1:00 AM" 10 8 87 1023 NA "Variable" 3.5 NA "" "" "Clear"
"675" 2015-03-28 "1:30 AM" 10 8 87 1023 10 "WSW (240°)" 3.5 NA "" "" "Scattered Clouds"
"676" 2015-03-28 "2:00 AM" 10 9 94 1022 10 "Variable" 3.5 NA "" "" "Scattered Clouds"
"677" 2015-03-28 "2:30 AM" 10 8 87 1022 10 "SE (140°)" 7.2 NA "" "" "Scattered Clouds"
"678" 2015-03-28 "3:00 AM" 10 8 87 1021 10 "Variable" 3.5 NA "" "" "Mostly Cloudy"
"679" 2015-03-28 "3:30 AM" 10 9 94 1021 10 "SW (220°)" 3.5 NA "" "" "Mostly Cloudy"
"680" 2015-03-28 "4:00 AM" 10 9 94 1021 10 "SSE (160°)" 3.5 NA "" "" "Mostly Cloudy"
"681" 2015-03-28 "4:30 AM" 10 9 94 1021 10 "South (180°)" 7.2 NA "" "" "Mostly Cloudy"
"682" 2015-03-28 "5:00 AM" 10 8 87 1021 10 "SSW (200°)" 3.5 NA "" "" "Mostly Cloudy"
"683" 2015-03-28 "5:30 AM" 11 8 82 1021 10 "South (190°)" 3.5 NA "" "" "Mostly Cloudy"
"684" 2015-03-28 "6:00 AM" 11 9 88 1021 6.9 "SSE (150°)" 3.5 NA "" "" "Mostly Cloudy"
"685" 2015-03-28 "6:30 AM" 11 9 88 1021 6 "SSE (160°)" 7.2 NA "" "" "Mostly Cloudy"
"686" 2015-03-28 "7:00 AM" 11 9 88 1021 6 "South (170°)" 7.2 NA "" "" "Mostly Cloudy"
"687" 2015-03-28 "7:30 AM" 12 9 82 1021 6 "South (170°)" 7.2 NA "" "" "Mostly Cloudy"
"688" 2015-03-28 "8:00 AM" 13 9 77 1021 8 "South (170°)" 7.2 NA "" "" "Partly Cloudy"
"689" 2015-03-28 "8:30 AM" 14 9 72 1021 8 "South (170°)" 10.8 NA "" "" "Scattered Clouds"
"690" 2015-03-28 "9:00 AM" 14 10 77 1021 6.9 "South (180°)" 10.8 NA "" "" "Mostly Cloudy"
"691" 2015-03-28 "9:30 AM" 15 10 72 1021 6.9 "South (180°)" 14.3 NA "" "" "Mostly Cloudy"
"692" 2015-03-28 "10:00 AM" 16 10 68 1021 6.9 "South (180°)" 14.3 NA "" "" "Mostly Cloudy"
"693" 2015-03-28 "10:30 AM" 17 11 68 1020 8 "South (170°)" 10.8 NA "" "" "Mostly Cloudy"
"694" 2015-03-28 "11:00 AM" 17 11 68 1020 8 "SSW (200°)" 14.3 NA "" "" "Mostly Cloudy"
"695" 2015-03-28 "11:30 AM" 18 11 64 1019 6.9 "SSW (200°)" 14.3 NA "" "" "Mostly Cloudy"
"696" 2015-03-28 "12:00 PM" 19 11 60 1019 6.9 "SSW (210°)" 14.3 NA "" "" "Mostly Cloudy"
"697" 2015-03-28 "12:30 PM" 19 11 60 1017.9 6.9 "Variable" 7.2 NA "" "" "Mostly Cloudy"
"698" 2015-03-28 "1:00 PM" 20 10 52 1017.9 6.9 "SW (220°)" 10.8 NA "" "" "Scattered Clouds"
"699" 2015-03-28 "1:30 PM" 20 10 52 1017.3 6.9 "WSW (240°)" 10.8 NA "" "" ""
"700" 2015-03-28 "2:00 PM" 20 10 52 1017.3 6.9 "WSW (240°)" 10.8 NA "" "" ""
"701" 2015-03-28 "2:30 PM" 19 10 56 1016.3 6.9 "West (270°)" 10.8 NA "" "" ""
"702" 2015-03-28 "3:00 PM" 20 10 52 1016.3 6.9 "SW (220°)" 10.8 NA "" "" ""
"703" 2015-03-28 "3:30 PM" 20 10 52 1016.3 6.9 "Variable" 7.2 NA "" "" ""
"704" 2015-03-28 "4:00 PM" 21 9 46 1015.2 6.9 "WSW (250°)" 7.2 NA "" "" ""
"705" 2015-03-28 "4:30 PM" 20 10 52 1015.2 6.9 "SSW (200°)" 10.8 NA "" "" ""
"706" 2015-03-28 "5:00 PM" 20 10 52 1015.2 NA "WSW (240°)" 10.8 NA "" "" "Clear"
"707" 2015-03-28 "5:30 PM" 19 9 52 1016.3 NA "WSW (250°)" 10.8 NA "" "" "Clear"
"708" 2015-03-28 "6:00 PM" 19 10 56 1015.2 NA "SW (220°)" 7.2 NA "" "" "Clear"
"709" 2015-03-28 "6:30 PM" 18 10 59 1016.3 8 "West (260°)" 7.2 NA "" "" ""
"710" 2015-03-28 "7:00 PM" 17 12 72 1016.3 8 "South (190°)" 10.8 NA "" "" ""
"711" 2015-03-28 "7:30 PM" 16 12 77 1017.3 6.9 "South (170°)" 10.8 NA "" "" ""
"712" 2015-03-28 "8:00 PM" 15 12 82 1017.3 6 "South (190°)" 7.2 NA "" "" ""
"713" 2015-03-28 "8:30 PM" 15 12 82 1017.3 5 "South (170°)" 10.8 NA "" "" "Mist"
"714" 2015-03-28 "9:00 PM" 15 12 82 1017.9 5 "SSE (150°)" 7.2 NA "" "" "Mist"
"715" 2015-03-28 "9:30 PM" 14 12 88 1017.9 4.5 "South (170°)" 10.8 NA "" "" "Mist"
"716" 2015-03-28 "10:00 PM" 14 12 88 1017.9 4.5 "SE (140°)" 10.8 NA "" "" "Mist"
"717" 2015-03-28 "10:30 PM" 14 11 82 1017.3 5 "SSE (150°)" 10.8 NA "" "" "Mist"
"718" 2015-03-28 "11:00 PM" 13 10 82 1017.3 6 "SSE (160°)" 7.2 NA "" "" ""
"719" 2015-03-28 "11:30 PM" 13 10 82 1017.3 6 "SSE (160°)" 7.2 NA "" "" ""
"720" 2015-03-27 "12:00 AM" 11 10 94 1028.1 6.9 "East (100°)" 14.3 NA "" "Rain" "Rain"
"721" 2015-03-27 "12:30 AM" 11 10 94 1028.1 6.9 "East (100°)" 10.8 NA "" "Rain" "Light Rain"
"722" 2015-03-27 "1:00 AM" 11 10 94 1028.1 6.9 "East (90°)" 10.8 NA "" "Rain" "Light Rain"
"723" 2015-03-27 "1:30 AM" 11 10 94 1027.1 6.9 "East (80°)" 10.8 NA "" "Rain" "Light Rain"
"724" 2015-03-27 "2:00 AM" 11 10 94 1027.1 10 "East (100°)" 14.3 NA "" "Rain" "Light Rain"
"725" 2015-03-27 "2:30 AM" 11 10 94 1026.1 10 "ENE (70°)" 14.3 NA "" "Rain" "Light Rain"
"726" 2015-03-27 "3:00 AM" 11 10 94 1026.1 10 "ENE (70°)" 14.3 NA "" "Rain" "Light Rain"
"727" 2015-03-27 "3:30 AM" 11 10 94 1026.1 10 "ENE (60°)" 7.2 NA "" "Rain" "Light Rain"
"728" 2015-03-27 "4:00 AM" 11 10 94 1026.1 10 "ENE (60°)" 10.8 NA "" "Rain" "Light Rain"
"729" 2015-03-27 "4:30 AM" 11 10 94 1026.1 10 "Variable" 3.5 NA "" "Rain" "Light Rain"
"730" 2015-03-27 "5:00 AM" 11 10 94 1026.1 10 "NE (50°)" 10.8 NA "" "Rain" "Light Rain"
"731" 2015-03-27 "5:30 AM" 11 10 94 1026.1 10 "NE (40°)" 10.8 NA "" "Rain" "Light Rain"
"732" 2015-03-27 "6:00 AM" 11 10 94 1026.1 10 "NE (50°)" 10.8 NA "" "Rain" "Light Rain"
"733" 2015-03-27 "6:30 AM" 11 10 94 1026.1 6.9 "NNE (30°)" 10.8 NA "" "Rain" "Light Rain"
"734" 2015-03-27 "7:00 AM" 11 10 94 1026.1 6.9 "NNE (30°)" 10.8 NA "" "Rain" "Light Rain"
"735" 2015-03-27 "7:30 AM" 11 9 88 1027.1 10 "NE (40°)" 10.8 NA "" "Rain" "Light Rain"
"736" 2015-03-27 "8:00 AM" 11 10 94 1027.1 10 "NNE (20°)" 7.2 NA "" "Rain" "Light Rain"
"737" 2015-03-27 "8:30 AM" 11 10 94 1027.1 10 "NE (50°)" 10.8 NA "" "Rain" "Light Rain"
"738" 2015-03-27 "9:00 AM" 12 10 88 1027.1 10 "ENE (70°)" 10.8 28.8 "" "Rain" "Light Rain"
"739" 2015-03-27 "9:30 AM" 12 10 88 1027.1 10 "NE (50°)" 10.8 NA "" "Rain" "Light Rain"
"740" 2015-03-27 "10:00 AM" 12 10 88 1027.1 10 "ENE (60°)" 10.8 NA "" "Rain" "Light Rain"
"741" 2015-03-27 "10:30 AM" 12 10 88 1027.1 10 "NE (50°)" 14.3 NA "" "Rain" "Light Rain"
"742" 2015-03-27 "11:00 AM" 12 10 88 1027.1 10 "ENE (60°)" 7.2 28.8 "" "Rain" "Light Rain"
"743" 2015-03-27 "11:30 AM" 12 10 88 1027.1 10 "NNE (20°)" 10.8 NA "" "Rain" "Light Rain"
"744" 2015-03-27 "12:00 PM" 13 10 82 1026.1 10 "ENE (60°)" 14.3 NA "" "" "Mostly Cloudy"
"745" 2015-03-27 "12:30 PM" 13 10 82 1026.1 10 "NE (50°)" 10.8 NA "" "" "Mostly Cloudy"
"746" 2015-03-27 "1:00 PM" 13 10 82 1026.1 10 "North (10°)" 10.8 NA "" "" "Mostly Cloudy"
"747" 2015-03-27 "1:30 PM" 13 10 82 1025.1 10 "North (350°)" 14.3 NA "" "" "Mostly Cloudy"
"748" 2015-03-27 "2:00 PM" 13 11 88 1025.1 10 "North (360°)" 10.8 NA "" "" "Mostly Cloudy"
"749" 2015-03-27 "2:30 PM" 13 10 82 1025.1 10 "North (360°)" 14.3 NA "" "" "Mostly Cloudy"
"750" 2015-03-27 "3:00 PM" 13 10 82 1025.1 10 "North (360°)" 14.3 NA "" "" "Mostly Cloudy"
"751" 2015-03-27 "3:30 PM" 13 10 82 1024 10 "NNW (340°)" 14.3 NA "" "" "Mostly Cloudy"
"752" 2015-03-27 "4:00 PM" 13 10 82 1024 10 "North (350°)" 10.8 NA "" "" "Mostly Cloudy"
"753" 2015-03-27 "4:30 PM" 13 10 82 1024 10 "North (350°)" 10.8 NA "" "" "Mostly Cloudy"
"754" 2015-03-27 "5:00 PM" 13 10 82 1024 10 "North (360°)" 10.8 NA "" "" "Mostly Cloudy"
"755" 2015-03-27 "5:30 PM" 13 10 82 1024 10 "NNW (340°)" 10.8 NA "" "" "Mostly Cloudy"
"756" 2015-03-27 "6:00 PM" 12 10 88 1024 10 "NNW (340°)" 10.8 NA "" "" "Mostly Cloudy"
"757" 2015-03-27 "6:30 PM" 12 9 82 1024 10 "North (350°)" 10.8 NA "" "" "Mostly Cloudy"
"758" 2015-03-27 "7:00 PM" 12 10 88 1024 10 "North (360°)" 10.8 NA "" "" "Mostly Cloudy"
"759" 2015-03-27 "7:30 PM" 12 10 88 1024 10 "North (10°)" 10.8 NA "" "" "Mostly Cloudy"
"760" 2015-03-27 "8:00 PM" 12 10 88 1025.1 10 "North (360°)" 7.2 NA "" "" "Mostly Cloudy"
"761" 2015-03-27 "8:30 PM" 12 9 82 1024 10 "NNE (20°)" 7.2 NA "" "" "Mostly Cloudy"
"762" 2015-03-27 "9:00 PM" 12 9 82 1024 10 "ENE (70°)" 7.2 NA "" "" "Mostly Cloudy"
"763" 2015-03-27 "9:30 PM" 12 9 82 1024 10 "SE (130°)" 10.8 NA "" "" "Mostly Cloudy"
"764" 2015-03-27 "10:00 PM" 12 9 82 1024 10 "SE (140°)" 14.3 NA "" "" "Mostly Cloudy"
"765" 2015-03-27 "10:30 PM" 11 8 82 1024 10 "SE (130°)" 14.3 NA "" "" "Scattered Clouds"
"766" 2015-03-27 "11:00 PM" 11 8 82 1024 10 "SSE (150°)" 7.2 NA "" "" "Partly Cloudy"
"767" 2015-03-27 "11:30 PM" 11 8 82 1024 NA "SSE (150°)" 7.2 NA "" "" "Clear"
"768" 2015-03-26 "12:00 AM" 10 5 71 1033.2 NA "ESE (120°)" 14.3 NA "" "" "Clear"
"769" 2015-03-26 "12:30 AM" 10 5 71 1033.2 NA "ESE (120°)" 14.3 NA "" "" "Clear"
"770" 2015-03-26 "1:00 AM" 10 5 71 1033.2 NA "ESE (120°)" 10.8 NA "" "" "Clear"
"771" 2015-03-26 "1:30 AM" 10 5 71 1032.2 NA "ESE (120°)" 10.8 NA "" "" "Clear"
"772" 2015-03-26 "2:00 AM" 10 5 71 1032.2 NA "ESE (120°)" 10.8 NA "" "" "Clear"
"773" 2015-03-26 "2:30 AM" 10 5 71 1032.2 NA "ESE (110°)" 14.3 NA "" "" "Clear"
"774" 2015-03-26 "3:00 AM" 10 5 71 1031.2 NA "ESE (110°)" 10.8 NA "" "" "Clear"
"775" 2015-03-26 "3:30 AM" 10 6 76 1031.2 NA "ESE (110°)" 10.8 NA "" "" "Clear"
"776" 2015-03-26 "4:00 AM" 10 6 76 1031.2 NA "ESE (110°)" 14.3 NA "" "" "Clear"
"777" 2015-03-26 "4:30 AM" 10 6 76 1031.2 NA "ESE (110°)" 14.3 NA "" "" "Clear"
"778" 2015-03-26 "5:00 AM" 10 6 76 1031.2 NA "ESE (110°)" 14.3 NA "" "" "Clear"
"779" 2015-03-26 "5:30 AM" 10 6 76 1031.2 NA "ESE (110°)" 10.8 NA "" "" "Clear"
"780" 2015-03-26 "6:00 AM" 10 6 76 1032.2 NA "ESE (110°)" 10.8 NA "" "" "Clear"
"781" 2015-03-26 "6:30 AM" 10 7 82 1032.2 NA "ESE (120°)" 14.3 NA "" "" "Clear"
"782" 2015-03-26 "7:00 AM" 11 7 76 1032.2 NA "ESE (110°)" 14.3 NA "" "" "Clear"
"783" 2015-03-26 "7:30 AM" 11 7 76 1032.2 NA "ESE (110°)" 14.3 NA "" "" "Clear"
"784" 2015-03-26 "8:00 AM" 12 7 72 1032.2 10 "SE (130°)" 21.6 NA "" "" "Scattered Clouds"
"785" 2015-03-26 "8:30 AM" 13 7 67 1032.2 10 "ESE (120°)" 21.6 NA "" "" "Scattered Clouds"
"786" 2015-03-26 "9:00 AM" 13 6 63 1032.2 10 "ESE (110°)" 25.3 NA "" "" "Scattered Clouds"
"787" 2015-03-26 "10:00 AM" 15 6 55 1032.2 10 "SE (130°)" 21.6 NA "" "" "Scattered Clouds"
"788" 2015-03-26 "10:30 AM" 16 6 52 1032.2 10 "SE (130°)" 21.6 NA "" "" "Scattered Clouds"
"789" 2015-03-26 "11:00 AM" 16 6 52 1032.2 10 "ESE (120°)" 21.6 NA "" "" "Scattered Clouds"
"790" 2015-03-26 "11:30 AM" 16 6 52 1031.2 NA "ESE (110°)" 28.8 NA "" "" "Clear"
"791" 2015-03-26 "12:00 PM" 16 6 52 1031.2 NA "ESE (120°)" 21.6 NA "" "" "Clear"
"792" 2015-03-26 "12:30 PM" 16 5 48 1031.2 10 "SE (130°)" 25.3 NA "" "" "Partly Cloudy"
"793" 2015-03-26 "1:00 PM" 17 5 45 1030.1 10 "SE (130°)" 25.3 NA "" "" "Scattered Clouds"
"794" 2015-03-26 "1:30 PM" 17 5 45 1030.1 10 "ESE (120°)" 25.3 NA "" "" "Partly Cloudy"
"795" 2015-03-26 "2:00 PM" 16 5 48 1029.1 NA "ESE (110°)" 25.3 NA "" "" "Clear"
"796" 2015-03-26 "2:30 PM" 16 5 48 1029.1 NA "ESE (110°)" 25.3 NA "" "" "Clear"
"797" 2015-03-26 "3:00 PM" 16 6 52 1029.1 NA "ESE (120°)" 21.6 NA "" "" "Clear"
"798" 2015-03-26 "3:30 PM" 15 6 55 1028.1 NA "ESE (110°)" 21.6 NA "" "" "Clear"
"799" 2015-03-26 "4:00 PM" 15 7 59 1029.1 NA "ESE (110°)" 21.6 NA "" "" "Clear"
"800" 2015-03-26 "4:30 PM" 14 7 63 1029.1 NA "ESE (110°)" 25.3 NA "" "" "Clear"
"801" 2015-03-26 "5:00 PM" 14 8 67 1029.1 NA "ESE (110°)" 21.6 NA "" "" "Clear"
"802" 2015-03-26 "5:30 PM" 13 9 77 1029.1 10 "ESE (120°)" 18 NA "" "Rain" "Light Rain"
"803" 2015-03-26 "6:00 PM" 13 8 72 1029.1 10 "East (100°)" 14.3 NA "" "" "Partly Cloudy"
"804" 2015-03-26 "6:30 PM" 13 9 77 1029.1 10 "ESE (110°)" 18 NA "" "Rain" "Light Rain"
"805" 2015-03-26 "7:00 PM" 12 9 82 1029.1 10 "East (90°)" 18 NA "" "Rain" "Light Rain"
"806" 2015-03-26 "7:30 PM" 12 10 88 1029.1 10 "East (100°)" 10.8 NA "" "Rain" "Light Rain"
"807" 2015-03-26 "8:00 PM" 12 10 88 1029.1 10 "ESE (110°)" 10.8 NA "" "Rain" "Light Rain"
"808" 2015-03-26 "8:30 PM" 12 10 88 1029.1 10 "East (100°)" 14.3 NA "" "Rain" "Light Rain"
"809" 2015-03-26 "9:00 PM" 11 10 94 1029.1 10 "East (100°)" 14.3 NA "" "Rain" "Light Rain"
"810" 2015-03-26 "9:30 PM" 11 10 94 1029.1 10 "East (100°)" 14.3 NA "" "Rain" "Light Rain"
"811" 2015-03-26 "10:00 PM" 11 10 94 1029.1 6.9 "ESE (110°)" 14.3 NA "" "Rain" "Rain"
"812" 2015-03-26 "10:30 PM" 11 10 94 1029.1 6.9 "East (100°)" 14.3 NA "" "Rain" "Rain"
"813" 2015-03-26 "11:00 PM" 11 10 94 1029.1 6.9 "ESE (110°)" 10.8 NA "" "Rain" "Rain"
"814" 2015-03-26 "11:30 PM" 11 10 94 1028.1 6.9 "ESE (110°)" 10.8 NA "" "Rain" "Rain"
"815" 2015-03-25 "12:00 AM" 10 2 58 1034.2 NA "ESE (120°)" 10.8 NA "" "" "Clear"
"816" 2015-03-25 "12:30 AM" 10 2 58 1034.2 NA "ESE (110°)" 10.8 NA "" "" "Clear"
"817" 2015-03-25 "1:00 AM" 9 2 62 1033.2 NA "East (100°)" 14.3 NA "" "" "Clear"
"818" 2015-03-25 "1:30 AM" 10 2 58 1033.2 NA "East (90°)" 10.8 NA "" "" "Clear"
"819" 2015-03-25 "2:00 AM" 9 2 62 1033.2 NA "East (100°)" 10.8 NA "" "" "Clear"
"820" 2015-03-25 "2:30 AM" 9 2 62 1033.2 NA "East (90°)" 10.8 NA "" "" "Clear"
"821" 2015-03-25 "3:00 AM" 9 2 62 1033.2 NA "East (100°)" 10.8 NA "" "" "Clear"
"822" 2015-03-25 "3:30 AM" 9 2 62 1032.2 NA "East (80°)" 10.8 NA "" "" "Clear"
"823" 2015-03-25 "4:00 AM" 9 3 66 1032.2 NA "East (90°)" 7.2 NA "" "" "Clear"
"824" 2015-03-25 "4:30 AM" 9 3 66 1032.2 NA "East (90°)" 7.2 NA "" "" "Clear"
"825" 2015-03-25 "5:00 AM" 9 3 66 1032.2 NA "East (90°)" 7.2 NA "" "" "Clear"
"826" 2015-03-25 "5:30 AM" 8 3 71 1033.2 NA "ESE (120°)" 7.2 NA "" "" "Clear"
"827" 2015-03-25 "6:00 AM" 8 3 71 1033.2 NA "SE (130°)" 7.2 NA "" "" "Clear"
"828" 2015-03-25 "6:30 AM" 8 3 71 1033.2 NA "SSE (150°)" 7.2 NA "" "" "Clear"
"829" 2015-03-25 "7:00 AM" 9 3 66 1033.2 NA "SE (140°)" 7.2 NA "" "" "Clear"
"830" 2015-03-25 "7:30 AM" 10 3 62 1034.2 NA "ESE (120°)" 10.8 NA "" "" "Clear"
"831" 2015-03-25 "8:00 AM" 11 3 58 1034.2 NA "SE (130°)" 14.3 NA "" "" "Clear"
"832" 2015-03-25 "8:30 AM" 11 3 58 1034.2 NA "SE (130°)" 14.3 NA "" "" "Clear"
"833" 2015-03-25 "9:00 AM" 12 2 51 1034.2 NA "SE (130°)" 14.3 NA "" "" "Clear"
"834" 2015-03-25 "9:30 AM" 13 1 44 1035.2 NA "SE (130°)" 18 NA "" "" "Clear"
"835" 2015-03-25 "10:00 AM" 13 1 44 1035.2 NA "SE (140°)" 18 NA "" "" "Clear"
"836" 2015-03-25 "10:30 AM" 14 -2 33 1035.2 NA "ESE (120°)" 18 NA "" "" "Clear"
"837" 2015-03-25 "11:00 AM" 15 -2 31 1034.2 NA "East (90°)" 21.6 NA "" "" "Clear"
"838" 2015-03-25 "11:30 AM" 15 -2 31 1034.2 NA "East (90°)" 18 NA "" "" "Clear"
"839" 2015-03-25 "12:00 PM" 15 -3 29 1034.2 NA "East (80°)" 21.6 NA "" "" "Clear"
"840" 2015-03-25 "12:30 PM" 16 -4 25 1034.2 NA "East (90°)" 21.6 NA "" "" "Clear"
"841" 2015-03-25 "1:00 PM" 15 -4 27 1033.2 NA "ESE (120°)" 21.6 NA "" "" "Clear"
"842" 2015-03-25 "1:30 PM" 16 -2 29 1033.2 NA "East (100°)" 18 NA "" "" "Clear"
"843" 2015-03-25 "2:00 PM" 16 0 34 1033.2 NA "East (80°)" 18 NA "" "" "Clear"
"844" 2015-03-25 "2:30 PM" 16 -2 29 1033.2 NA "East (100°)" 18 NA "" "" "Clear"
"845" 2015-03-25 "3:00 PM" 16 -3 27 1032.2 NA "East (100°)" 21.6 NA "" "" "Clear"
"846" 2015-03-25 "3:30 PM" 16 -1 31 1032.2 NA "ESE (120°)" 18 NA "" "" "Clear"
"847" 2015-03-25 "4:00 PM" 15 -1 34 1032.2 NA "ESE (110°)" 18 NA "" "" "Clear"
"848" 2015-03-25 "4:30 PM" 14 1 41 1032.2 NA "East (90°)" 21.6 NA "" "" "Clear"
"849" 2015-03-25 "5:00 PM" 14 1 41 1032.2 NA "East (100°)" 18 NA "" "" "Clear"
"850" 2015-03-25 "5:30 PM" 13 0 41 1032.2 NA "East (100°)" 25.3 NA "" "" "Clear"
"851" 2015-03-25 "6:00 PM" 12 0 44 1032.2 NA "ESE (120°)" 21.6 NA "" "" "Clear"
"852" 2015-03-25 "6:30 PM" 12 1 47 1032.2 NA "ESE (110°)" 21.6 NA "" "" "Clear"
"853" 2015-03-25 "7:00 PM" 11 2 54 1033.2 NA "East (100°)" 21.6 NA "" "" "Clear"
"854" 2015-03-25 "7:30 PM" 11 3 58 1033.2 NA "ESE (110°)" 21.6 NA "" "" "Clear"
"855" 2015-03-25 "8:00 PM" 10 3 62 1033.2 NA "ESE (110°)" 21.6 NA "" "" "Clear"
"856" 2015-03-25 "8:30 PM" 10 3 62 1033.2 NA "ESE (120°)" 18 NA "" "" "Clear"
"857" 2015-03-25 "9:00 PM" 10 4 66 1034.2 NA "ESE (120°)" 21.6 NA "" "" "Clear"
"858" 2015-03-25 "9:30 PM" 10 4 66 1034.2 NA "ESE (120°)" 14.3 NA "" "" "Clear"
"859" 2015-03-25 "10:00 PM" 10 4 66 1034.2 NA "ESE (110°)" 14.3 NA "" "" "Clear"
"860" 2015-03-25 "10:30 PM" 10 4 66 1034.2 NA "ESE (120°)" 14.3 NA "" "" "Clear"
"861" 2015-03-25 "11:00 PM" 10 5 71 1034.2 NA "ESE (120°)" 14.3 NA "" "" "Clear"
"862" 2015-03-25 "11:30 PM" 10 5 71 1033.2 NA "ESE (120°)" 14.3 NA "" "" "Clear"
"863" 2015-03-24 "12:00 AM" 10 2 58 1031.2 NA "East (80°)" 10.8 NA "" "" "Clear"
"864" 2015-03-24 "12:30 AM" 10 2 58 1032.2 NA "East (90°)" 14.3 NA "" "" "Clear"
"865" 2015-03-24 "1:00 AM" 10 2 58 1032.2 NA "ENE (70°)" 10.8 NA "" "" "Clear"
"866" 2015-03-24 "1:30 AM" 10 1 54 1032.2 NA "ENE (70°)" 10.8 NA "" "" "Clear"
"867" 2015-03-24 "2:00 AM" 10 1 54 1032.2 NA "East (80°)" 10.8 NA "" "" "Clear"
"868" 2015-03-24 "2:30 AM" 10 0 50 1031.2 NA "East (90°)" 10.8 NA "" "" "Clear"
"869" 2015-03-24 "3:00 AM" 9 1 58 1031.2 NA "ENE (70°)" 10.8 NA "" "" "Clear"
"870" 2015-03-24 "3:30 AM" 9 1 58 1031.2 NA "ENE (70°)" 7.2 NA "" "" "Clear"
"871" 2015-03-24 "4:00 AM" 9 1 58 1031.2 NA "ENE (70°)" 7.2 NA "" "" "Clear"
"872" 2015-03-24 "4:30 AM" 9 1 58 1031.2 NA "East (80°)" 10.8 NA "" "" "Clear"
"873" 2015-03-24 "5:00 AM" 9 1 58 1032.2 NA "ENE (70°)" 10.8 NA "" "" "Clear"
"874" 2015-03-24 "5:30 AM" 9 2 62 1032.2 NA "ENE (70°)" 10.8 NA "" "" "Clear"
"875" 2015-03-24 "6:00 AM" 9 2 62 1032.2 NA "East (80°)" 14.3 NA "" "" "Clear"
"876" 2015-03-24 "6:30 AM" 9 2 62 1032.2 NA "East (80°)" 14.3 NA "" "" "Clear"
"877" 2015-03-24 "7:00 AM" 10 2 58 1033.2 NA "East (80°)" 14.3 NA "" "" "Clear"
"878" 2015-03-24 "7:30 AM" 10 1 54 1033.2 NA "ENE (70°)" 10.8 NA "" "" "Clear"
"879" 2015-03-24 "8:00 AM" 11 -1 44 1033.2 NA "ENE (60°)" 18 NA "" "" "Clear"
"880" 2015-03-24 "8:30 AM" 12 -2 38 1034.2 NA "ENE (70°)" 14.3 NA "" "" "Clear"
"881" 2015-03-24 "9:00 AM" 13 -3 33 1034.2 NA "ENE (70°)" 18 NA "" "" "Clear"
"882" 2015-03-24 "9:30 AM" 13 -3 33 1034.2 NA "ENE (60°)" 14.3 NA "" "" "Clear"
"883" 2015-03-24 "10:00 AM" 14 -4 29 1034.2 NA "ENE (70°)" 18 NA "" "" "Clear"
"884" 2015-03-24 "10:30 AM" 14 -4 29 1034.2 NA "ENE (60°)" 21.6 NA "" "" "Clear"
"885" 2015-03-24 "11:00 AM" 15 -7 22 1034.2 NA "ENE (70°)" 21.6 NA "" "" "Clear"
"886" 2015-03-24 "11:30 AM" 15 -7 22 1034.2 NA "East (90°)" 25.3 NA "" "" "Clear"
"887" 2015-03-24 "12:00 PM" 15 -5 25 1034.2 NA "ENE (60°)" 21.6 NA "" "" "Clear"
"888" 2015-03-24 "12:30 PM" 15 -6 23 1033.2 NA "East (100°)" 21.6 NA "" "" "Clear"
"889" 2015-03-24 "1:00 PM" 15 -8 20 1033.2 NA "East (90°)" 21.6 NA "" "" "Clear"
"890" 2015-03-24 "1:30 PM" 15 -8 20 1033.2 NA "East (80°)" 18 36 "" "" "Clear"
"891" 2015-03-24 "2:00 PM" 15 -6 23 1032.2 NA "ENE (60°)" 21.6 NA "" "" "Clear"
"892" 2015-03-24 "2:30 PM" 15 -7 22 1032.2 NA "East (80°)" 21.6 NA "" "" "Clear"
"893" 2015-03-24 "3:00 PM" 15 -4 27 1032.2 NA "East (90°)" 18 36 "" "" "Clear"
"894" 2015-03-24 "3:30 PM" 14 -4 29 1032.2 NA "East (100°)" 21.6 46.8 "" "" "Clear"
"895" 2015-03-24 "4:00 PM" 15 -3 29 1032.2 NA "East (90°)" 18 NA "" "" "Clear"
"896" 2015-03-24 "4:30 PM" 14 -2 33 1032.2 NA "East (90°)" 14.3 NA "" "" "Clear"
"897" 2015-03-24 "5:00 PM" 13 -2 36 1032.2 NA "ESE (110°)" 18 NA "" "" "Clear"
"898" 2015-03-24 "5:30 PM" 12 -2 38 1032.2 NA "ESE (110°)" 18 NA "" "" "Clear"
"899" 2015-03-24 "6:00 PM" 12 -2 38 1032.2 NA "ESE (120°)" 18 NA "" "" "Clear"
"900" 2015-03-24 "6:30 PM" 11 -1 44 1033.2 NA "ESE (110°)" 18 36 "" "" "Clear"
"901" 2015-03-24 "7:00 PM" 11 0 47 1033.2 NA "ESE (120°)" 14.3 NA "" "" "Clear"
"902" 2015-03-24 "7:30 PM" 11 0 47 1033.2 NA "SE (130°)" 14.3 NA "" "" "Clear"
"903" 2015-03-24 "8:00 PM" 11 1 50 1033.2 NA "ESE (120°)" 14.3 NA "" "" "Clear"
"904" 2015-03-24 "8:30 PM" 10 1 54 1033.2 NA "ESE (110°)" 10.8 NA "" "" "Clear"
"905" 2015-03-24 "9:00 PM" 10 1 54 1033.2 NA "ESE (110°)" 10.8 32.3 "" "" "Clear"
"906" 2015-03-24 "9:30 PM" 10 1 54 1034.2 NA "East (90°)" 14.3 NA "" "" "Clear"
"907" 2015-03-24 "10:00 PM" 10 1 54 1034.2 NA "East (90°)" 14.3 NA "" "" "Clear"
"908" 2015-03-24 "10:30 PM" 10 1 54 1034.2 NA "ESE (110°)" 14.3 NA "" "" "Clear"
"909" 2015-03-24 "11:00 PM" 10 2 58 1034.2 NA "ESE (110°)" 14.3 NA "" "" "Clear"
"910" 2015-03-24 "11:30 PM" 10 2 58 1034.2 NA "East (100°)" 10.8 NA "" "" "Clear"
"911" 2015-03-23 "12:00 AM" 12 0 44 1026.1 NA "East (100°)" 10.8 NA "" "" "Clear"
"912" 2015-03-23 "12:30 AM" 12 1 47 1026.1 NA "East (100°)" 10.8 NA "" "" "Clear"
"913" 2015-03-23 "1:00 AM" 12 3 54 1026.1 NA "ESE (110°)" 10.8 NA "" "" "Clear"
"914" 2015-03-23 "1:30 AM" 11 4 62 1026.1 NA "East (100°)" 10.8 NA "" "" "Clear"
"915" 2015-03-23 "2:00 AM" 11 5 67 1026.1 NA "East (100°)" 14.3 NA "" "" "Clear"
"916" 2015-03-23 "2:30 AM" 11 5 67 1026.1 NA "East (100°)" 14.3 NA "" "" "Clear"
"917" 2015-03-23 "3:00 AM" 11 5 67 1025.1 NA "East (90°)" 14.3 NA "" "" "Clear"
"918" 2015-03-23 "3:30 AM" 11 5 67 1025.1 NA "East (90°)" 10.8 NA "" "" "Clear"
"919" 2015-03-23 "4:00 AM" 10 5 71 1025.1 NA "ENE (70°)" 7.2 NA "" "" "Clear"
"920" 2015-03-23 "4:30 AM" 11 5 67 1025.1 NA "East (80°)" 10.8 NA "" "" "Clear"
"921" 2015-03-23 "5:00 AM" 10 5 71 1026.1 NA "ENE (60°)" 10.8 NA "" "" "Clear"
"922" 2015-03-23 "5:30 AM" 11 5 67 1026.1 NA "East (80°)" 7.2 NA "" "" "Clear"
"923" 2015-03-23 "6:00 AM" 11 5 67 1026.1 NA "East (80°)" 10.8 NA "" "" "Clear"
"924" 2015-03-23 "6:30 AM" 11 6 71 1026.1 NA "ENE (70°)" 14.3 NA "" "" "Clear"
"925" 2015-03-23 "7:00 AM" 11 6 71 1026.1 NA "East (80°)" 10.8 NA "" "" "Clear"
"926" 2015-03-23 "7:30 AM" 12 7 72 1026.1 NA "ENE (60°)" 14.3 NA "" "" "Clear"
"927" 2015-03-23 "8:00 AM" 12 7 72 1026.1 NA "NE (50°)" 21.6 NA "" "" "Clear"
"928" 2015-03-23 "8:30 AM" 12 6 67 1027.1 NA "NE (50°)" 14.3 NA "" "" "Clear"
"929" 2015-03-23 "9:00 AM" 12 5 62 1027.1 NA "ENE (60°)" 10.8 NA "" "" "Clear"
"930" 2015-03-23 "9:30 AM" 13 5 58 1028.1 NA "East (80°)" 18 NA "" "" "Clear"
"931" 2015-03-23 "10:00 AM" 13 5 58 1028.1 NA "East (80°)" 14.3 NA "" "" "Clear"
"932" 2015-03-23 "10:30 AM" 13 5 58 1028.1 NA "East (90°)" 14.3 NA "" "" "Clear"
"933" 2015-03-23 "11:00 AM" 14 3 48 1028.1 NA "East (100°)" 18 43.1 "" "" "Clear"
"934" 2015-03-23 "11:30 AM" 13 3 51 1028.1 NA "ESE (110°)" 21.6 NA "" "" "Clear"
"935" 2015-03-23 "12:00 PM" 14 3 48 1028.1 NA "East (100°)" 14.3 NA "" "" "Clear"
"936" 2015-03-23 "12:30 PM" 14 3 48 1027.1 NA "East (100°)" 18 36 "" "" "Clear"
"937" 2015-03-23 "1:00 PM" 14 1 41 1027.1 NA "East (90°)" 18 NA "" "" "Clear"
"938" 2015-03-23 "1:30 PM" 15 -1 34 1027.1 NA "East (80°)" 18 NA "" "" "Clear"
"939" 2015-03-23 "2:00 PM" 15 1 39 1027.1 NA "ENE (70°)" 18 NA "" "" "Clear"
"940" 2015-03-23 "2:30 PM" 15 0 36 1027.1 NA "East (90°)" 14.3 36 "" "" "Clear"
"941" 2015-03-23 "3:00 PM" 15 -2 31 1027.1 NA "East (100°)" 18 NA "" "" "Clear"
"942" 2015-03-23 "3:30 PM" 15 -1 34 1027.1 NA "East (90°)" 18 39.6 "" "" "Clear"
"943" 2015-03-23 "4:00 PM" 14 -1 36 1027.1 NA "ESE (110°)" 21.6 NA "" "" "Clear"
"944" 2015-03-23 "4:30 PM" 14 1 41 1027.1 NA "ESE (120°)" 14.3 NA "" "" "Clear"
"945" 2015-03-23 "5:00 PM" 13 1 44 1028.1 NA "ESE (120°)" 18 NA "" "" "Clear"
"946" 2015-03-23 "5:30 PM" 13 1 44 1028.1 NA "East (100°)" 18 NA "" "" "Clear"
"947" 2015-03-23 "6:00 PM" 13 2 47 1028.1 NA "ESE (110°)" 14.3 NA "" "" "Clear"
"948" 2015-03-23 "6:30 PM" 12 2 51 1029.1 NA "East (100°)" 14.3 NA "" "" "Clear"
"949" 2015-03-23 "7:00 PM" 12 0 44 1029.1 NA "ESE (110°)" 14.3 NA "" "" "Clear"
"950" 2015-03-23 "7:30 PM" 12 0 44 1029.1 NA "East (100°)" 14.3 NA "" "" "Clear"
"951" 2015-03-23 "8:00 PM" 11 1 50 1030.1 NA "ESE (110°)" 14.3 NA "" "" "Clear"
"952" 2015-03-23 "8:30 PM" 11 2 54 1030.1 NA "East (90°)" 18 NA "" "" "Clear"
"953" 2015-03-23 "9:00 PM" 11 3 58 1030.1 NA "East (100°)" 14.3 NA "" "" "Clear"
"954" 2015-03-23 "9:30 PM" 11 2 54 1031.2 NA "ENE (70°)" 10.8 NA "" "" "Clear"
"955" 2015-03-23 "10:00 PM" 11 1 50 1031.2 NA "East (80°)" 14.3 NA "" "" "Clear"
"956" 2015-03-23 "10:30 PM" 11 1 50 1031.2 NA "East (80°)" 10.8 NA "" "" "Clear"
"957" 2015-03-23 "11:00 PM" 10 2 58 1031.2 NA "East (80°)" 10.8 NA "" "" "Clear"
"958" 2015-03-23 "11:30 PM" 10 2 58 1031.2 NA "East (80°)" 10.8 NA "" "" "Clear"
"959" 2015-03-22 "12:00 AM" 13 10 82 1022 5 "SW (220°)" 3.5 NA "" "" "Mist"
"960" 2015-03-22 "12:30 AM" 13 10 82 1022 5 "SW (220°)" 3.5 NA "" "" "Mist"
"961" 2015-03-22 "1:00 AM" 12 10 88 1022 5 "SSW (210°)" 3.5 NA "" "" "Mist"
"962" 2015-03-22 "1:30 AM" 12 10 88 1022 4 "SSW (210°)" 3.5 NA "" "" "Mist"
"963" 2015-03-22 "2:00 AM" 12 10 88 1021 4 "Calm" NA NA "" "" "Mist"
"964" 2015-03-22 "2:30 AM" 12 10 88 1021 4 "Calm" NA NA "" "" "Mist"
"965" 2015-03-22 "3:00 AM" 11 10 94 1021 3.5 "Calm" NA NA "" "" "Mist"
"966" 2015-03-22 "3:30 AM" 12 10 88 1022 3.1 "Calm" NA NA "" "" "Mist"
"967" 2015-03-22 "4:00 AM" 11 9 88 1022 2.6 "Calm" NA NA "" "" "Mist"
"968" 2015-03-22 "4:30 AM" 11 9 88 1022 2.6 "West (270°)" 3.5 NA "" "" "Mist"
"969" 2015-03-22 "5:00 AM" 11 10 94 1022 2.3 "Variable" 3.5 NA "" "" "Mist"
"970" 2015-03-22 "5:30 AM" 11 10 94 1022 2.3 "Calm" NA NA "" "" "Mist"
"971" 2015-03-22 "6:00 AM" 11 9 88 1022 1.9 "North (360°)" 7.2 NA "" "" "Mist"
"972" 2015-03-22 "6:30 AM" 10 9 94 1023 2.6 "North (10°)" 7.2 NA "" "" "Mist"
"973" 2015-03-22 "7:00 AM" 12 10 88 1023 3.1 "North (350°)" 3.5 NA "" "" "Mist"
"974" 2015-03-22 "7:30 AM" 15 0 36 1023 6 "ENE (70°)" 10.8 NA "" "" ""
"975" 2015-03-22 "8:00 AM" 16 -2 29 1023 NA "East (90°)" 10.8 NA "" "" "Clear"
"976" 2015-03-22 "8:30 AM" 17 -4 24 1023 NA "ESE (110°)" 10.8 28.8 "" "" "Clear"
"977" 2015-03-22 "9:00 AM" 18 -5 21 1024 NA "East (100°)" 10.8 NA "" "" "Clear"
"978" 2015-03-22 "9:30 AM" 18 -5 21 1024 NA "East (100°)" 10.8 NA "" "" "Clear"
"979" 2015-03-22 "10:00 AM" 19 -6 18 1024 NA "ESE (110°)" 14.3 NA "" "" "Clear"
"980" 2015-03-22 "10:30 AM" 19 -5 19 1024 NA "East (100°)" 10.8 32.3 "" "" "Clear"
"981" 2015-03-22 "11:00 AM" 20 -5 18 1024 NA "East (100°)" 10.8 32.3 "" "" "Clear"
"982" 2015-03-22 "11:30 AM" 20 -5 18 1024 NA "SE (130°)" 14.3 NA "" "" "Clear"
"983" 2015-03-22 "12:00 PM" 20 -4 20 1024 NA "Variable" 10.8 NA "" "" "Clear"
"984" 2015-03-22 "12:30 PM" 21 -4 18 1023 NA "Variable" 10.8 NA "" "" "Clear"
"985" 2015-03-22 "1:00 PM" 21 -2 21 1023 NA "SE (130°)" 10.8 NA "" "" "Clear"
"986" 2015-03-22 "1:30 PM" 21 -3 20 1022 NA "ESE (120°)" 10.8 32.3 "" "" "Clear"
"987" 2015-03-22 "2:00 PM" 21 -4 18 1022 NA "East (100°)" 14.3 32.3 "" "" "Clear"
"988" 2015-03-22 "2:30 PM" 22 -2 20 1022 NA "East (80°)" 14.3 NA "" "" "Clear"
"989" 2015-03-22 "3:00 PM" 21 -4 18 1022 NA "East (100°)" 14.3 NA "" "" "Clear"
"990" 2015-03-22 "3:30 PM" 21 -3 20 1022 NA "East (90°)" 21.6 NA "" "" "Clear"
"991" 2015-03-22 "4:00 PM" 20 -3 21 1022 NA "ENE (70°)" 21.6 NA "" "" "Clear"
"992" 2015-03-22 "4:30 PM" 19 -6 18 1023 NA "ENE (70°)" 21.6 39.6 "" "" "Clear"
"993" 2015-03-22 "5:00 PM" 18 -7 18 1023 NA "East (80°)" 18 NA "" "" "Clear"
"994" 2015-03-22 "5:30 PM" 17 -7 19 1023 NA "East (90°)" 18 36 "" "" "Clear"
"995" 2015-03-22 "6:00 PM" 16 -9 17 1024 NA "East (100°)" 18 NA "" "" "Clear"
"996" 2015-03-22 "6:30 PM" 16 -8 19 1024 NA "East (90°)" 14.3 NA "" "" "Clear"
"997" 2015-03-22 "7:00 PM" 16 -9 17 1024 NA "East (100°)" 18 36 "" "" "Clear"
"998" 2015-03-22 "7:30 PM" 15 -10 17 1025.1 NA "East (100°)" 18 NA "" "" "Clear"
"999" 2015-03-22 "8:00 PM" 15 -9 19 1025.1 NA "East (80°)" 18 NA "" "" "Clear"
"1000" 2015-03-22 "8:30 PM" 14 -8 21 1025.1 NA "ENE (70°)" 21.6 39.6 "" "" "Clear"
"1001" 2015-03-22 "9:00 PM" 14 -5 27 1026.1 NA "East (80°)" 18 NA "" "" "Clear"
"1002" 2015-03-22 "9:30 PM" 14 -4 29 1026.1 NA "East (80°)" 14.3 NA "" "" "Clear"
"1003" 2015-03-22 "10:00 PM" 13 -4 31 1026.1 NA "East (80°)" 14.3 NA "" "" "Clear"
"1004" 2015-03-22 "10:30 PM" 13 -6 26 1026.1 NA "East (90°)" 14.3 NA "" "" "Clear"
"1005" 2015-03-22 "11:00 PM" 13 -4 31 1026.1 NA "East (90°)" 10.8 NA "" "" "Clear"
"1006" 2015-03-22 "11:30 PM" 12 -1 41 1026.1 NA "East (100°)" 18 NA "" "" "Clear"
"1007" 2015-03-21 "12:00 AM" 11 10 94 1020 10 "Variable" 3.5 NA "" "" "Overcast"
"1008" 2015-03-21 "12:30 AM" 11 10 94 1021 10 "Variable" 3.5 NA "" "" "Overcast"
"1009" 2015-03-21 "1:00 AM" 11 10 94 1021 10 "SW (220°)" 7.2 NA "" "" "Overcast"
"1010" 2015-03-21 "1:30 AM" 11 10 94 1020 10 "South (190°)" 3.5 NA "" "" "Overcast"
"1011" 2015-03-21 "2:00 AM" 11 10 94 1020 10 "Variable" 3.5 NA "" "" "Overcast"
"1012" 2015-03-21 "2:30 AM" 11 10 94 1020 10 "West (280°)" 7.2 NA "" "" "Overcast"
"1013" 2015-03-21 "3:00 AM" 11 10 94 1020 10 "West (270°)" 7.2 NA "" "" "Overcast"
"1014" 2015-03-21 "3:30 AM" 11 10 94 1020 6.9 "Variable" 3.5 NA "" "" "Overcast"
"1015" 2015-03-21 "4:00 AM" 11 10 94 1020 6 "West (280°)" 3.5 NA "" "" "Overcast"
"1016" 2015-03-21 "4:30 AM" 11 10 94 1020 4 "Variable" 3.5 NA "" "" "Overcast"
"1017" 2015-03-21 "5:00 AM" 11 10 94 1020 4 "Calm" NA NA "" "" "Mostly Cloudy"
"1018" 2015-03-21 "5:30 AM" 11 10 94 1020 2.7 "Variable" 3.5 NA "" "" "Partly Cloudy"
"1019" 2015-03-21 "6:00 AM" 11 10 94 1020 1.8 "Variable" 3.5 NA "" "" "Partly Cloudy"
"1020" 2015-03-21 "6:30 AM" 11 10 94 1020 1.9 "WNW (290°)" 7.2 NA "" "" "Partly Cloudy"
"1021" 2015-03-21 "7:00 AM" 12 10 88 1021 2.3 "NW (320°)" 7.2 NA "" "" "Overcast"
"1022" 2015-03-21 "7:30 AM" 12 11 94 1022 2.4 "NW (310°)" 7.2 NA "" "" "Overcast"
"1023" 2015-03-21 "8:00 AM" 12 10 88 1022 2.6 "NNW (330°)" 14.3 NA "" "" "Overcast"
"1024" 2015-03-21 "8:30 AM" 13 10 82 1022 2.6 "NNW (330°)" 10.8 NA "" "" "Mostly Cloudy"
"1025" 2015-03-21 "9:00 AM" 13 10 82 1022 3.1 "NW (320°)" 10.8 NA "" "" "Mostly Cloudy"
"1026" 2015-03-21 "9:30 AM" 14 11 82 1022 3.1 "WNW (300°)" 14.3 NA "" "" "Mostly Cloudy"
"1027" 2015-03-21 "10:00 AM" 14 11 82 1022 3.1 "West (280°)" 10.8 NA "" "" "Scattered Clouds"
"1028" 2015-03-21 "10:30 AM" 16 11 72 1021 3.1 "Variable" 10.8 NA "" "" "Haze"
"1029" 2015-03-21 "11:00 AM" 16 11 72 1021 3.1 "West (260°)" 10.8 NA "" "" "Haze"
"1030" 2015-03-21 "11:30 AM" 17 11 68 1021 3.1 "NW (310°)" 10.8 NA "" "" "Haze"
"1031" 2015-03-21 "12:00 PM" 18 11 64 1020 4 "NW (310°)" 10.8 NA "" "" "Haze"
"1032" 2015-03-21 "12:30 PM" 18 10 59 1020 5 "NNW (330°)" 10.8 NA "" "" "Haze"
"1033" 2015-03-21 "1:00 PM" 18 9 56 1019 6 "North (360°)" 10.8 NA "" "" ""
"1034" 2015-03-21 "1:30 PM" 19 10 56 1019 6 "North (360°)" 10.8 NA "" "" ""
"1035" 2015-03-21 "2:00 PM" 19 8 49 1019 6 "Variable" 7.2 NA "" "" ""
"1036" 2015-03-21 "2:30 PM" 20 10 52 1019 6 "North (350°)" 10.8 NA "" "" ""
"1037" 2015-03-21 "3:00 PM" 20 9 49 1017.9 6 "Variable" 7.2 NA "" "" ""
"1038" 2015-03-21 "3:30 PM" 20 9 49 1017.9 6 "Variable" 7.2 NA "" "" ""
"1039" 2015-03-21 "4:00 PM" 20 9 49 1019 6 "North (360°)" 10.8 NA "" "" ""
"1040" 2015-03-21 "4:30 PM" 20 9 49 1017.9 6 "Variable" 10.8 NA "" "" ""
"1041" 2015-03-21 "5:00 PM" 19 9 52 1019 6 "NNW (340°)" 10.8 NA "" "" ""
"1042" 2015-03-21 "5:30 PM" 19 8 49 1019 6 "NNW (330°)" 7.2 NA "" "" ""
"1043" 2015-03-21 "6:00 PM" 18 9 56 1019 6 "WNW (290°)" 7.2 NA "" "" ""
"1044" 2015-03-21 "6:30 PM" 18 9 56 1019 6 "West (280°)" 7.2 NA "" "" ""
"1045" 2015-03-21 "7:00 PM" 17 11 68 1020 6 "West (260°)" 14.3 NA "" "" ""
"1046" 2015-03-21 "7:30 PM" 16 11 72 1020 6 "West (270°)" 10.8 NA "" "" ""
"1047" 2015-03-21 "8:00 PM" 16 10 68 1021 6 "West (270°)" 14.3 NA "" "" ""
"1048" 2015-03-21 "8:30 PM" 16 10 68 1021 6 "WSW (250°)" 10.8 NA "" "" ""
"1049" 2015-03-21 "9:00 PM" 15 10 72 1021 6 "West (280°)" 7.2 NA "" "" ""
"1050" 2015-03-21 "9:30 PM" 15 10 72 1021 6 "West (260°)" 7.2 NA "" "" ""
"1051" 2015-03-21 "10:00 PM" 15 10 72 1022 6 "West (280°)" 10.8 NA "" "" ""
"1052" 2015-03-21 "10:30 PM" 14 10 77 1022 5 "Variable" 3.5 NA "" "" "Mist"
"1053" 2015-03-21 "11:00 PM" 14 10 77 1022 5 "Variable" 3.5 NA "" "" "Mist"
"1054" 2015-03-21 "11:30 PM" 14 10 77 1021 5 "SSW (200°)" 3.5 NA "" "" "Mist"
"1055" 2015-03-20 "12:00 AM" 14 9 72 1017.9 NA "SE (130°)" 7.2 NA "" "" "Clear"
"1056" 2015-03-20 "12:30 AM" 14 9 72 1017.9 NA "ESE (110°)" 10.8 NA "" "" "Clear"
"1057" 2015-03-20 "1:00 AM" 14 8 67 1017.9 NA "East (80°)" 10.8 NA "" "" "Clear"
"1058" 2015-03-20 "1:30 AM" 14 7 63 1017.3 NA "ENE (60°)" 14.3 NA "" "" "Clear"
"1059" 2015-03-20 "2:00 AM" 14 6 59 1017.3 NA "East (80°)" 14.3 NA "" "" "Clear"
"1060" 2015-03-20 "2:30 AM" 13 7 67 1017.9 10 "NNE (30°)" 18 NA "" "Rain" "Light Rain"
"1061" 2015-03-20 "3:00 AM" 12 8 77 1017.9 10 "NE (40°)" 18 NA "" "Rain" "Light Rain"
"1062" 2015-03-20 "3:30 AM" 12 8 77 1017.3 NA "NE (40°)" 18 NA "" "" "Clear"
"1063" 2015-03-20 "4:00 AM" 12 9 82 1017.3 10 "NE (40°)" 14.3 NA "" "Rain" "Light Rain"
"1064" 2015-03-20 "4:30 AM" 11 9 88 1019 10 "NNE (20°)" 21.6 NA "" "Rain" "Light Rain"
"1065" 2015-03-20 "5:00 AM" 11 9 88 1019 6.9 "NE (50°)" 10.8 NA "" "Rain" "Light Rain"
"1066" 2015-03-20 "5:30 AM" 10 9 94 1020 4 "NNE (20°)" 18 NA "" "Rain" "Rain"
"1067" 2015-03-20 "6:00 AM" 10 9 94 1017.9 4 "ESE (110°)" 21.6 NA "" "Rain" "Rain"
"1068" 2015-03-20 "6:30 AM" 11 9 88 1017.9 5 "East (90°)" 14.3 NA "" "Rain" "Light Rain"
"1069" 2015-03-20 "7:00 AM" 11 10 94 1019 5 "ENE (60°)" 7.2 NA "" "Rain" "Light Rain"
"1070" 2015-03-20 "7:30 AM" 11 10 94 1020 5 "NNE (30°)" 10.8 NA "" "Rain" "Light Rain"
"1071" 2015-03-20 "8:00 AM" 11 10 94 1020 4 "NNE (20°)" 14.3 NA "" "Rain" "Light Rain"
"1072" 2015-03-20 "8:30 AM" 11 9 88 1021 3.5 "NE (40°)" 14.3 NA "" "" "Overcast"
"1073" 2015-03-20 "9:00 AM" 10 9 94 1021 3.5 "NE (40°)" 18 NA "" "" "Overcast"
"1074" 2015-03-20 "9:30 AM" 10 9 94 1021 3.5 "NE (50°)" 18 NA "" "" "Overcast"
"1075" 2015-03-20 "10:00 AM" 10 9 94 1021 4 "NE (50°)" 14.3 32.3 "" "" "Overcast"
"1076" 2015-03-20 "10:30 AM" 11 8 82 1021 4 "ENE (70°)" 10.8 NA "" "" "Overcast"
"1077" 2015-03-20 "11:00 AM" 11 8 82 1021 5 "ENE (60°)" 10.8 NA "" "" "Overcast"
"1078" 2015-03-20 "11:30 AM" 11 8 82 1021 6 "East (80°)" 7.2 NA "" "" "Mostly Cloudy"
"1079" 2015-03-20 "12:00 PM" 12 8 77 1021 6 "East (100°)" 7.2 NA "" "" "Mostly Cloudy"
"1080" 2015-03-20 "12:30 PM" 12 9 82 1020 6 "ENE (70°)" 7.2 NA "" "" "Mostly Cloudy"
"1081" 2015-03-20 "1:00 PM" 13 9 77 1019 6 "Variable" 7.2 28.8 "" "" "Mostly Cloudy"
"1082" 2015-03-20 "1:30 PM" 13 10 82 1019 6 "ENE (70°)" 7.2 NA "" "" "Scattered Clouds"
"1083" 2015-03-20 "2:00 PM" 13 9 77 1019 6.9 "SE (130°)" 7.2 NA "" "" "Overcast"
"1084" 2015-03-20 "2:30 PM" 13 9 77 1017.9 6.9 "South (170°)" 7.2 NA "" "" "Overcast"
"1085" 2015-03-20 "3:00 PM" 14 9 72 1017.9 6.9 "SE (140°)" 7.2 NA "" "" "Overcast"
"1086" 2015-03-20 "3:30 PM" 14 10 77 1017.9 6.9 "Variable" 3.5 NA "" "" "Overcast"
"1087" 2015-03-20 "4:00 PM" 14 10 77 1017.9 6.9 "Variable" 3.5 NA "" "" "Overcast"
"1088" 2015-03-20 "4:30 PM" 14 10 77 1017.9 6.9 "NNW (340°)" 7.2 NA "" "" "Overcast"
"1089" 2015-03-20 "5:00 PM" 13 10 82 1019 6 "NNW (340°)" 10.8 NA "" "" "Overcast"
"1090" 2015-03-20 "5:30 PM" 13 10 82 1019 3.1 "NNW (340°)" 14.3 NA "" "Rain" "Light Rain"
"1091" 2015-03-20 "6:00 PM" 12 10 88 1020 4 "North (360°)" 14.3 NA "" "" "Overcast"
"1092" 2015-03-20 "6:30 PM" 12 10 88 1019 5 "ENE (70°)" 10.8 NA "" "" "Overcast"
"1093" 2015-03-20 "7:00 PM" 12 10 88 1020 4 "Variable" 7.2 NA "" "Rain" "Rain"
"1094" 2015-03-20 "7:30 PM" 12 11 94 1020 4 "North (360°)" 10.8 NA "" "Rain" "Light Rain"
"1095" 2015-03-20 "8:00 PM" 11 10 94 1020 5 "NNE (30°)" 14.3 NA "" "" "Overcast"
"1096" 2015-03-20 "8:30 PM" 11 10 94 1020 5 "NE (50°)" 14.3 NA "" "" "Overcast"
"1097" 2015-03-20 "9:00 PM" 11 9 88 1021 5 "NE (50°)" 14.3 NA "" "" "Overcast"
"1098" 2015-03-20 "9:30 PM" 11 9 88 1021 6.9 "NNE (20°)" 10.8 NA "" "" "Scattered Clouds"
"1099" 2015-03-20 "10:00 PM" 11 9 88 1021 6.9 "NE (40°)" 7.2 NA "" "Rain" "Light Rain"
"1100" 2015-03-20 "10:30 PM" 11 8 82 1021 6.9 "ENE (60°)" 7.2 NA "" "Rain" "Light Rain"
"1101" 2015-03-20 "11:00 PM" 11 8 82 1020 10 "Variable" 3.5 NA "" "" "Partly Cloudy"
"1102" 2015-03-20 "11:30 PM" 11 9 88 1020 10 "SSE (150°)" 7.2 NA "" "" "Partly Cloudy"
"1103" 2015-03-19 "12:00 AM" 11 10 94 1013.2 10 "NNW (340°)" 21.6 NA "" "Rain" "Light Rain Showers"
"1104" 2015-03-19 "12:30 AM" 11 10 94 1012.2 10 "NNW (340°)" 18 NA "" "Rain" "Light Rain Showers"
"1105" 2015-03-19 "1:00 AM" 11 10 94 1014.2 10 "NW (320°)" 14.3 NA "" "Rain" "Light Rain Showers"
"1106" 2015-03-19 "1:30 AM" 11 10 94 1014.2 10 "NNW (330°)" 21.6 NA "" "" "Mostly Cloudy"
"1107" 2015-03-19 "2:00 AM" 10 9 94 1014.2 10 "NNW (340°)" 21.6 NA "" "" "Mostly Cloudy"
"1108" 2015-03-19 "2:30 AM" 10 9 94 1013.2 8 "North (350°)" 14.3 NA "" "Rain" "Light Rain Showers"
"1109" 2015-03-19 "3:00 AM" 10 9 94 1013.2 6 "NW (320°)" 14.3 NA "" "" "Mostly Cloudy"
"1110" 2015-03-19 "3:30 AM" 10 9 94 1014.2 5 "NW (320°)" 14.3 NA "" "" "Mostly Cloudy"
"1111" 2015-03-19 "4:00 AM" 10 9 94 1014.2 4 "NW (320°)" 14.3 NA "" "" "Mostly Cloudy"
"1112" 2015-03-19 "4:30 AM" 10 9 94 1014.2 4 "NW (310°)" 14.3 NA "" "" "Mostly Cloudy"
"1113" 2015-03-19 "5:00 AM" 10 10 100 1014.2 3.5 "WNW (290°)" 10.8 NA "" "" "Mostly Cloudy"
"1114" 2015-03-19 "5:30 AM" 11 10 94 1015.2 3.1 "WNW (300°)" 10.8 NA "" "" "Mostly Cloudy"
"1115" 2015-03-19 "6:00 AM" 11 10 94 1016.3 2.6 "NW (320°)" 14.3 NA "" "" "Mostly Cloudy"
"1116" 2015-03-19 "6:30 AM" 11 10 94 1016.3 1.9 "NNW (330°)" 10.8 NA "" "" "Mostly Cloudy"
"1117" 2015-03-19 "7:00 AM" 11 10 94 1017.3 1.9 "NNW (330°)" 14.3 NA "" "" "Mostly Cloudy"
"1118" 2015-03-19 "7:30 AM" 11 9 88 1017.3 2.6 "NNW (340°)" 14.3 NA "" "" "Mostly Cloudy"
"1119" 2015-03-19 "8:00 AM" 11 9 88 1017.9 2.6 "NNW (340°)" 18 NA "" "" "Mostly Cloudy"
"1120" 2015-03-19 "8:30 AM" 12 9 82 1017.9 2.6 "NNW (330°)" 21.6 NA "" "" "Mostly Cloudy"
"1121" 2015-03-19 "9:00 AM" 12 9 82 1017.9 2.7 "North (350°)" 14.3 NA "" "" "Mostly Cloudy"
"1122" 2015-03-19 "9:30 AM" 12 9 82 1017.9 2.7 "North (350°)" 14.3 NA "" "" "Mostly Cloudy"
"1123" 2015-03-19 "10:00 AM" 13 9 77 1019 3.1 "North (350°)" 10.8 NA "" "" "Scattered Clouds"
"1124" 2015-03-19 "10:30 AM" 13 9 77 1017.9 3.5 "North (360°)" 10.8 NA "" "" "Mostly Cloudy"
"1125" 2015-03-19 "11:00 AM" 13 9 77 1017.9 3.5 "North (350°)" 14.3 NA "" "" "Mostly Cloudy"
"1126" 2015-03-19 "11:30 AM" 15 10 72 1017.9 3.5 "North (10°)" 14.3 NA "" "" "Partly Cloudy"
"1127" 2015-03-19 "12:00 PM" 15 10 72 1017.3 3.5 "North (350°)" 14.3 NA "" "" "Scattered Clouds"
"1128" 2015-03-19 "12:30 PM" 16 11 72 1017.3 5 "NNE (30°)" 14.3 NA "" "" "Scattered Clouds"
"1129" 2015-03-19 "1:00 PM" 16 11 72 1016.3 8 "North (10°)" 10.8 NA "" "" "Scattered Clouds"
"1130" 2015-03-19 "1:30 PM" 16 11 72 1016.3 8 "North (10°)" 10.8 NA "" "" "Scattered Clouds"
"1131" 2015-03-19 "2:00 PM" 16 11 72 1016.3 8 "North (360°)" 10.8 NA "" "" "Partly Cloudy"
"1132" 2015-03-19 "2:30 PM" 16 11 72 1016.3 8 "NNW (340°)" 10.8 NA "" "" "Scattered Clouds"
"1133" 2015-03-19 "3:00 PM" 17 11 68 1015.2 8 "NNE (20°)" 14.3 NA "" "" "Partly Cloudy"
"1134" 2015-03-19 "3:30 PM" 17 11 68 1015.2 8 "NNE (30°)" 14.3 NA "" "" ""
"1135" 2015-03-19 "4:00 PM" 17 10 63 1015.2 8 "NNE (30°)" 14.3 NA "" "" ""
"1136" 2015-03-19 "4:30 PM" 17 10 63 1016.3 8 "NNE (20°)" 14.3 NA "" "" ""
"1137" 2015-03-19 "5:00 PM" 16 10 68 1016.3 8 "NNE (30°)" 14.3 NA "" "" ""
"1138" 2015-03-19 "5:30 PM" 16 10 68 1016.3 8 "NE (40°)" 18 NA "" "" ""
"1139" 2015-03-19 "6:00 PM" 16 10 68 1017.3 8 "NE (50°)" 14.3 NA "" "" ""
"1140" 2015-03-19 "6:30 PM" 16 10 68 1016.3 NA "NE (50°)" 14.3 NA "" "" "Clear"
"1141" 2015-03-19 "7:00 PM" 16 10 68 1016.3 NA "ENE (60°)" 10.8 NA "" "" "Clear"
"1142" 2015-03-19 "7:30 PM" 16 11 72 1016.3 NA "ENE (70°)" 10.8 NA "" "" "Clear"
"1143" 2015-03-19 "8:00 PM" 16 10 68 1017.3 NA "East (80°)" 10.8 28.8 "" "" "Clear"
"1144" 2015-03-19 "8:30 PM" 16 10 68 1017.3 NA "East (100°)" 14.3 NA "" "" "Clear"
"1145" 2015-03-19 "9:00 PM" 15 10 72 1017.3 NA "East (80°)" 7.2 NA "" "" "Clear"
"1146" 2015-03-19 "9:30 PM" 15 11 77 1017.3 NA "ESE (120°)" 10.8 NA "" "" "Clear"
"1147" 2015-03-19 "10:00 PM" 15 11 77 1017.3 NA "ESE (120°)" 7.2 NA "" "" "Clear"
"1148" 2015-03-19 "10:30 PM" 15 10 72 1017.9 NA "Variable" 3.5 NA "" "" "Clear"
"1149" 2015-03-19 "11:00 PM" 14 10 77 1017.3 NA "SSE (150°)" 7.2 NA "" "" "Clear"
"1150" 2015-03-19 "11:30 PM" 14 8 67 1017.9 NA "SSE (150°)" 10.8 NA "" "" "Clear"
"1151" 2015-03-18 "12:00 AM" 17 14 82 1007.1 5 "ENE (70°)" 7.2 NA "" "Rain" "Light Rain Showers"
"1152" 2015-03-18 "12:30 AM" 17 15 88 1006.1 4.5 "East (80°)" 7.2 NA "" "Rain-Thunderstorm" "Light Thunderstorms and Rain"
"1153" 2015-03-18 "1:00 AM" 16 15 94 1006.1 4.5 "North (10°)" 10.8 NA "" "Rain" "Light Rain Showers"
"1154" 2015-03-18 "1:30 AM" 16 15 94 1005.1 4.5 "Variable" 7.2 NA "" "Rain-Thunderstorm" "Light Thunderstorms and Rain"
"1155" 2015-03-18 "2:00 AM" 16 15 94 1005.1 NA "South (180°)" 10.8 NA "" "Rain-Thunderstorm" "Heavy Thunderstorms and Rain"
"1156" 2015-03-18 "2:30 AM" 16 16 100 1004.1 4 "ESE (120°)" 18 NA "" "Rain-Thunderstorm" "Light Thunderstorms and Rain"
"1157" 2015-03-18 "3:00 AM" 17 16 94 1004.1 4 "SSE (150°)" 10.8 NA "" "Rain" "Light Rain Showers"
"1158" 2015-03-18 "3:30 AM" 17 16 94 1005.1 1.8 "West (270°)" 7.2 NA "" "Rain-Thunderstorm" "Heavy Thunderstorms and Rain"
"1159" 2015-03-18 "4:00 AM" 17 16 94 1003 1.9 "Variable" 3.5 NA "" "Rain-Thunderstorm" "Light Thunderstorms and Rain"
"1160" 2015-03-18 "4:30 AM" 17 16 94 1003 2.6 "SSE (160°)" 10.8 NA "" "Rain" "Light Rain Showers"
"1161" 2015-03-18 "5:00 AM" 17 16 94 1003 2.7 "South (170°)" 7.2 NA "" "Rain" "Light Rain Showers"
"1162" 2015-03-18 "5:30 AM" 17 17 100 1003 3.1 "Variable" 3.5 NA "" "Rain" "Light Rain Showers"
"1163" 2015-03-18 "6:00 AM" 17 17 100 1004.1 3.1 "SW (230°)" 10.8 NA "" "Rain" "Light Rain Showers"
"1164" 2015-03-18 "6:30 AM" 17 16 94 1005.1 2.6 "West (280°)" 18 NA "" "" "Overcast"
"1165" 2015-03-18 "7:00 AM" 16 16 100 1005.1 1.4 "West (270°)" 14.3 NA "" "Rain" "Light Rain Showers"
"1166" 2015-03-18 "7:30 AM" 16 16 100 1006.1 1.9 "West (260°)" 14.3 NA "" "Rain" "Light Rain Showers"
"1167" 2015-03-18 "8:00 AM" 16 15 94 1006.1 1.6 "WNW (290°)" 21.6 NA "" "Rain" "Light Rain Showers"
"1168" 2015-03-18 "8:30 AM" 15 15 100 1007.1 2.6 "West (270°)" 14.3 NA "" "" "Overcast"
"1169" 2015-03-18 "9:00 AM" 16 15 94 1007.1 2.6 "West (280°)" 21.6 NA "" "" "Overcast"
"1170" 2015-03-18 "9:30 AM" 15 15 100 1008.1 2.7 "WNW (290°)" 21.6 NA "" "" "Overcast"
"1171" 2015-03-18 "10:00 AM" 16 14 88 1008.1 6 "West (270°)" 25.3 NA "" "" "Overcast"
"1172" 2015-03-18 "10:30 AM" 16 14 88 1008.1 6 "WNW (290°)" 21.6 NA "" "" "Overcast"
"1173" 2015-03-18 "11:00 AM" 16 13 82 1008.1 5 "WNW (290°)" 25.3 NA "" "" "Overcast"
"1174" 2015-03-18 "11:30 AM" 16 13 82 1008.1 5 "WNW (300°)" 21.6 NA "" "" "Mostly Cloudy"
"1175" 2015-03-18 "12:00 PM" 16 13 82 1008.1 5 "West (280°)" 18 NA "" "" "Mostly Cloudy"
"1176" 2015-03-18 "12:30 PM" 16 13 82 1007.1 5 "WNW (300°)" 21.6 NA "" "" "Mostly Cloudy"
"1177" 2015-03-18 "1:00 PM" 16 13 82 1007.1 5 "WNW (290°)" 21.6 NA "" "" "Mostly Cloudy"
"1178" 2015-03-18 "1:30 PM" 17 13 77 1007.1 5 "WNW (300°)" 21.6 NA "" "" "Mostly Cloudy"
"1179" 2015-03-18 "2:00 PM" 16 12 77 1007.1 6 "WNW (290°)" 21.6 NA "" "" "Mostly Cloudy"
"1180" 2015-03-18 "2:30 PM" 16 12 77 1007.1 6 "NW (310°)" 21.6 NA "" "" "Mostly Cloudy"
"1181" 2015-03-18 "3:00 PM" 16 12 77 1007.1 6 "NNW (330°)" 18 NA "" "" "Mostly Cloudy"
"1182" 2015-03-18 "3:30 PM" 16 12 77 1007.1 6 "NNW (330°)" 21.6 NA "" "" "Mostly Cloudy"
"1183" 2015-03-18 "4:00 PM" 15 12 82 1007.1 6 "NNW (330°)" 18 NA "" "" "Mostly Cloudy"
"1184" 2015-03-18 "4:30 PM" 15 11 77 1007.1 6 "NW (320°)" 21.6 NA "" "" "Mostly Cloudy"
"1185" 2015-03-18 "5:00 PM" 15 11 77 1007.1 5 "NNW (340°)" 21.6 NA "" "" "Overcast"
"1186" 2015-03-18 "5:30 PM" 14 11 82 1008.1 4.5 "NNW (330°)" 18 NA "" "" "Overcast"
"1187" 2015-03-18 "6:00 PM" 14 11 82 1008.1 3.1 "North (350°)" 14.3 NA "" "" "Overcast"
"1188" 2015-03-18 "6:30 PM" 13 10 82 1008.1 4 "North (360°)" 14.3 NA "" "Rain" "Light Rain Showers"
"1189" 2015-03-18 "7:00 PM" 12 11 94 1009.1 3.5 "NNW (340°)" 21.6 NA "" "Rain" "Rain Showers"
"1190" 2015-03-18 "7:30 PM" 12 11 94 1009.1 4 "North (360°)" 14.3 NA "" "Rain" "Light Rain Showers"
"1191" 2015-03-18 "8:00 PM" 12 11 94 1010.2 3.5 "NNW (340°)" 14.3 NA "" "Rain" "Rain Showers"
"1192" 2015-03-18 "8:30 PM" 12 11 94 1011.2 3.5 "NNW (330°)" 21.6 NA "" "Rain" "Rain Showers"
"1193" 2015-03-18 "9:00 PM" 12 11 94 1012.2 5 "NNW (330°)" 10.8 NA "" "Rain" "Rain Showers"
"1194" 2015-03-18 "9:30 PM" 11 11 100 1012.2 6.9 "NNW (340°)" 18 NA "" "Rain" "Light Rain Showers"
"1195" 2015-03-18 "10:00 PM" 11 10 94 1013.2 10 "North (350°)" 14.3 NA "" "Rain" "Light Rain Showers"
"1196" 2015-03-18 "10:30 PM" 11 10 94 1012.2 10 "North (350°)" 18 NA "" "Rain" "Light Rain Showers"
"1197" 2015-03-18 "11:00 PM" 11 10 94 1014.2 10 "NW (310°)" 18 NA "" "Rain" "Rain Showers"
"1198" 2015-03-18 "11:30 PM" 11 10 94 1013.2 10 "NNW (340°)" 21.6 NA "" "Rain" "Light Rain Showers"
"1199" 2015-03-17 "12:00 AM" 12 12 100 1016.3 2.6 "SE (130°)" 14.3 NA "" "" "Mostly Cloudy"
"1200" 2015-03-17 "12:30 AM" 12 12 100 1016.3 2.6 "SE (130°)" 14.3 NA "" "" "Mostly Cloudy"
"1201" 2015-03-17 "1:00 AM" 13 12 94 1016.3 2.3 "SE (130°)" 14.3 NA "" "" "Mostly Cloudy"
"1202" 2015-03-17 "1:30 AM" 13 12 94 1015.2 1.8 "ESE (120°)" 10.8 NA "" "" "Mostly Cloudy"
"1203" 2015-03-17 "2:00 AM" 13 12 94 1015.2 1.8 "SE (130°)" 10.8 NA "" "" "Mostly Cloudy"
"1204" 2015-03-17 "2:30 AM" 13 12 94 1015.2 1.8 "SE (140°)" 10.8 NA "" "" "Mostly Cloudy"
"1205" 2015-03-17 "3:00 AM" 13 12 94 1015.2 1.8 "SE (140°)" 10.8 NA "" "" "Mostly Cloudy"
"1206" 2015-03-17 "3:30 AM" 13 13 100 1014.2 1.8 "SE (130°)" 10.8 NA "" "" "Mostly Cloudy"
"1207" 2015-03-17 "4:00 AM" 13 13 100 1014.2 1.8 "ESE (120°)" 10.8 NA "" "" "Mostly Cloudy"
"1208" 2015-03-17 "4:30 AM" 13 13 100 1014.2 1.4 "SE (130°)" 14.3 NA "" "" "Mostly Cloudy"
"1209" 2015-03-17 "5:00 AM" 13 13 100 1014.2 1.8 "SE (130°)" 10.8 NA "" "" "Mostly Cloudy"
"1210" 2015-03-17 "5:30 AM" 13 13 100 1014.2 1.9 "ESE (120°)" 10.8 NA "" "" "Mostly Cloudy"
"1211" 2015-03-17 "6:00 AM" 13 13 100 1014.2 1.9 "SE (140°)" 14.3 NA "" "" "Mostly Cloudy"
"1212" 2015-03-17 "6:30 AM" 13 13 100 1014.2 1.6 "SE (140°)" 10.8 NA "" "" "Mostly Cloudy"
"1213" 2015-03-17 "7:00 AM" 13 13 100 1015.2 1.1 "SSE (150°)" 14.3 NA "" "" "Mostly Cloudy"
"1214" 2015-03-17 "7:30 AM" 13 13 100 1014.2 1.6 "SE (140°)" 14.3 NA "" "" "Mostly Cloudy"
"1215" 2015-03-17 "8:00 AM" 13 13 100 1014.2 2.7 "SSE (150°)" 18 NA "" "" "Mostly Cloudy"
"1216" 2015-03-17 "8:30 AM" 13 13 100 1014.2 3.1 "SE (140°)" 10.8 NA "" "" "Mostly Cloudy"
"1217" 2015-03-17 "9:00 AM" 15 14 94 1014.2 3.5 "SE (130°)" 10.8 NA "" "" "Mostly Cloudy"
"1218" 2015-03-17 "9:30 AM" 15 14 94 1014.2 4 "SSE (150°)" 14.3 NA "" "" "Mostly Cloudy"
"1219" 2015-03-17 "10:00 AM" 16 14 88 1014.2 5 "SE (140°)" 14.3 NA "" "" "Mostly Cloudy"
"1220" 2015-03-17 "10:30 AM" 17 14 82 1013.2 5 "SSE (150°)" 14.3 NA "" "" "Mostly Cloudy"
"1221" 2015-03-17 "11:00 AM" 18 14 77 1012.2 6.9 "SE (130°)" 18 NA "" "" ""
"1222" 2015-03-17 "11:30 AM" 19 15 78 1012.2 8 "SE (140°)" 18 NA "" "" ""
"1223" 2015-03-17 "12:00 PM" 21 15 68 1011.2 NA "ESE (110°)" 18 NA "" "" "Clear"
"1224" 2015-03-17 "12:30 PM" 22 16 69 1010.2 NA "SE (140°)" 18 NA "" "" "Clear"
"1225" 2015-03-17 "1:00 PM" 22 16 69 1010.2 NA "SE (140°)" 18 NA "" "" "Clear"
"1226" 2015-03-17 "1:30 PM" 23 16 65 1009.1 NA "SSE (150°)" 21.6 NA "" "" "Clear"
"1227" 2015-03-17 "2:00 PM" 23 16 65 1008.1 NA "SSE (150°)" 18 NA "" "" "Clear"
"1228" 2015-03-17 "2:30 PM" 22 16 69 1008.1 NA "SE (140°)" 18 NA "" "" "Clear"
"1229" 2015-03-17 "3:00 PM" 23 16 65 1007.1 NA "SE (130°)" 14.3 NA "" "" "Clear"
"1230" 2015-03-17 "3:30 PM" 22 16 69 1007.1 NA "SE (130°)" 14.3 NA "" "" "Clear"
"1231" 2015-03-17 "4:00 PM" 22 16 69 1007.1 NA "ESE (110°)" 14.3 NA "" "" "Clear"
"1232" 2015-03-17 "4:30 PM" 22 16 69 1006.1 NA "SE (130°)" 18 NA "" "" "Clear"
"1233" 2015-03-17 "5:00 PM" 21 16 73 1006.1 NA "SE (130°)" 14.3 NA "" "" "Clear"
"1234" 2015-03-17 "5:30 PM" 20 16 78 1006.1 NA "SE (130°)" 18 NA "" "" "Clear"
"1235" 2015-03-17 "6:00 PM" 20 16 78 1006.1 8 "SSE (150°)" 21.6 NA "" "" ""
"1236" 2015-03-17 "6:30 PM" 19 16 83 1008.1 10 "Variable" 10.8 NA "" "Thunderstorm" "Thunderstorm"
"1237" 2015-03-17 "7:00 PM" 20 16 78 1008.1 10 "East (80°)" 10.8 NA "" "" "Partly Cloudy"
"1238" 2015-03-17 "7:30 PM" 20 16 78 1008.1 NA "SE (130°)" 7.2 NA "" "" "Clear"
"1239" 2015-03-17 "8:00 PM" 20 16 78 1008.1 NA "ENE (70°)" 7.2 NA "" "" "Clear"
"1240" 2015-03-17 "8:30 PM" 19 15 78 1008.1 NA "NE (40°)" 14.3 NA "" "" "Clear"
"1241" 2015-03-17 "9:00 PM" 18 15 83 1008.1 NA "NE (40°)" 14.3 NA "" "" "Clear"
"1242" 2015-03-17 "9:30 PM" 18 15 83 1008.1 NA "ESE (120°)" 10.8 NA "" "" "Clear"
"1243" 2015-03-17 "10:00 PM" 18 15 83 1008.1 NA "SE (130°)" 10.8 NA "" "" "Clear"
"1244" 2015-03-17 "10:30 PM" 18 15 83 1007.1 NA "SE (130°)" 10.8 NA "" "" "Clear"
"1245" 2015-03-17 "11:00 PM" 17 15 88 1008.1 8 "NNW (340°)" 10.8 NA "" "Rain" "Light Rain Showers"
"1246" 2015-03-17 "11:30 PM" 16 14 88 1007.1 6 "NNE (20°)" 10.8 NA "" "" ""
"1247" 2015-03-16 "12:00 AM" 11 10 94 1020 10 "East (100°)" 18 NA "" "" "Mostly Cloudy"
"1248" 2015-03-16 "12:30 AM" 11 10 94 1020 10 "East (100°)" 14.3 NA "" "" "Mostly Cloudy"
"1249" 2015-03-16 "1:00 AM" 11 10 94 1020 10 "ESE (110°)" 14.3 NA "" "Rain" "Light Rain"
"1250" 2015-03-16 "1:30 AM" 11 10 94 1019 10 "ESE (120°)" 14.3 NA "" "Rain" "Light Rain"
"1251" 2015-03-16 "2:00 AM" 11 10 94 1019 10 "East (90°)" 14.3 NA "" "Rain" "Light Rain"
"1252" 2015-03-16 "2:30 AM" 11 10 94 1019 10 "East (90°)" 10.8 NA "" "Rain" "Light Rain"
"1253" 2015-03-16 "3:00 AM" 11 10 94 1019 10 "NE (40°)" 7.2 NA "" "Rain" "Light Rain"
"1254" 2015-03-16 "3:30 AM" 11 10 94 1017.9 10 "ESE (110°)" 10.8 NA "" "Rain" "Light Rain"
"1255" 2015-03-16 "4:00 AM" 11 10 94 1017.9 10 "East (100°)" 10.8 NA "" "Rain" "Light Rain"
"1256" 2015-03-16 "4:30 AM" 11 10 94 1017.9 10 "East (100°)" 10.8 NA "" "Rain" "Light Rain"
"1257" 2015-03-16 "5:00 AM" 11 10 94 1017.9 10 "East (100°)" 10.8 NA "" "Rain" "Light Rain"
"1258" 2015-03-16 "5:30 AM" 11 10 94 1017.9 10 "East (90°)" 10.8 NA "" "Rain" "Light Rain"
"1259" 2015-03-16 "6:00 AM" 11 10 94 1017.9 10 "East (100°)" 10.8 NA "" "Rain" "Light Rain"
"1260" 2015-03-16 "6:30 AM" 11 10 94 1019 6.9 "East (80°)" 10.8 NA "" "Rain" "Light Rain"
"1261" 2015-03-16 "7:00 AM" 11 11 100 1019 5 "East (100°)" 7.2 NA "" "Rain" "Light Rain"
"1262" 2015-03-16 "7:30 AM" 11 11 100 1019 2.6 "ESE (110°)" 10.8 NA "" "Rain" "Rain"
"1263" 2015-03-16 "8:00 AM" 12 11 94 1019 6 "ESE (120°)" 14.3 NA "" "Rain" "Light Rain"
"1264" 2015-03-16 "8:30 AM" 12 11 94 1019 10 "SE (130°)" 18 NA "" "" "Mostly Cloudy"
"1265" 2015-03-16 "9:00 AM" 12 11 94 1019 10 "ESE (120°)" 14.3 NA "" "" "Mostly Cloudy"
"1266" 2015-03-16 "9:30 AM" 12 11 94 1019 10 "SE (130°)" 14.3 NA "" "" "Mostly Cloudy"
"1267" 2015-03-16 "10:00 AM" 12 11 94 1019 10 "SE (130°)" 14.3 NA "" "" "Mostly Cloudy"
"1268" 2015-03-16 "10:30 AM" 13 12 94 1019 10 "SE (140°)" 10.8 NA "" "" "Mostly Cloudy"
"1269" 2015-03-16 "11:00 AM" 13 12 94 1017.9 10 "SE (130°)" 10.8 NA "" "" "Mostly Cloudy"
"1270" 2015-03-16 "11:30 AM" 13 12 94 1017.9 10 "ESE (120°)" 10.8 NA "" "" "Mostly Cloudy"
"1271" 2015-03-16 "12:00 PM" 14 12 88 1017.9 10 "SE (140°)" 10.8 NA "" "" "Mostly Cloudy"
"1272" 2015-03-16 "12:30 PM" 14 12 88 1017.9 10 "SE (130°)" 10.8 NA "" "" "Mostly Cloudy"
"1273" 2015-03-16 "1:00 PM" 14 12 88 1017.3 10 "SE (130°)" 10.8 NA "" "" "Mostly Cloudy"
"1274" 2015-03-16 "1:30 PM" 14 12 88 1017.3 10 "ESE (110°)" 10.8 NA "" "" "Mostly Cloudy"
"1275" 2015-03-16 "2:00 PM" 14 13 94 1017.3 10 "SE (130°)" 10.8 NA "" "" "Mostly Cloudy"
"1276" 2015-03-16 "2:30 PM" 15 13 88 1016.3 10 "ESE (120°)" 10.8 NA "" "" "Mostly Cloudy"
"1277" 2015-03-16 "3:00 PM" 15 12 82 1016.3 10 "ESE (110°)" 10.8 NA "" "" "Mostly Cloudy"
"1278" 2015-03-16 "3:30 PM" 15 13 88 1016.3 10 "ESE (120°)" 10.8 NA "" "" "Mostly Cloudy"
"1279" 2015-03-16 "4:00 PM" 15 13 88 1016.3 10 "ESE (120°)" 14.3 NA "" "" "Mostly Cloudy"
"1280" 2015-03-16 "4:30 PM" 15 13 88 1015.2 10 "ESE (120°)" 14.3 NA "" "" "Mostly Cloudy"
"1281" 2015-03-16 "5:00 PM" 14 12 88 1016.3 10 "SE (130°)" 14.3 NA "" "" "Mostly Cloudy"
"1282" 2015-03-16 "5:30 PM" 14 12 88 1016.3 10 "SE (130°)" 14.3 NA "" "" "Mostly Cloudy"
"1283" 2015-03-16 "6:00 PM" 14 12 88 1015.2 6.9 "ESE (120°)" 14.3 NA "" "" "Mostly Cloudy"
"1284" 2015-03-16 "6:30 PM" 14 12 88 1016.3 6.9 "ESE (120°)" 18 NA "" "" "Mostly Cloudy"
"1285" 2015-03-16 "7:00 PM" 14 12 88 1016.3 6.9 "ESE (120°)" 10.8 NA "" "" "Mostly Cloudy"
"1286" 2015-03-16 "7:30 PM" 13 12 94 1017.3 6.9 "ESE (110°)" 14.3 NA "" "" "Mostly Cloudy"
"1287" 2015-03-16 "8:00 PM" 13 12 94 1017.3 6 "SE (130°)" 14.3 NA "" "" "Mostly Cloudy"
"1288" 2015-03-16 "8:30 PM" 13 12 94 1017.3 4 "SE (130°)" 14.3 NA "" "" "Mostly Cloudy"
"1289" 2015-03-16 "9:00 PM" 13 12 94 1017.3 4 "SE (130°)" 14.3 NA "" "" "Mostly Cloudy"
"1290" 2015-03-16 "9:30 PM" 13 12 94 1017.3 4 "SE (140°)" 14.3 NA "" "" "Mostly Cloudy"
"1291" 2015-03-16 "10:00 PM" 13 12 94 1017.3 4 "SE (130°)" 7.2 NA "" "" "Mostly Cloudy"
"1292" 2015-03-16 "10:30 PM" 13 12 94 1017.3 3.5 "ESE (120°)" 10.8 NA "" "" "Mostly Cloudy"
"1293" 2015-03-16 "11:00 PM" 13 12 94 1017.3 2.6 "SE (130°)" 10.8 NA "" "" "Mostly Cloudy"
"1294" 2015-03-16 "11:30 PM" 12 12 100 1016.3 1.9 "SE (130°)" 14.3 NA "" "" "Mostly Cloudy"
"1295" 2015-03-15 "12:00 AM" 10 9 94 1020 4 "SE (130°)" 10.8 NA "" "" "Overcast"
"1296" 2015-03-15 "12:30 AM" 10 8 87 1020 4 "ESE (120°)" 14.3 NA "" "" "Overcast"
"1297" 2015-03-15 "1:00 AM" 10 8 87 1020 4 "SE (140°)" 14.3 NA "" "" "Overcast"
"1298" 2015-03-15 "1:30 AM" 10 9 94 1020 4 "SE (130°)" 10.8 NA "" "" "Overcast"
"1299" 2015-03-15 "2:00 AM" 10 9 94 1020 4.5 "ESE (110°)" 10.8 NA "" "" "Overcast"
"1300" 2015-03-15 "2:30 AM" 10 9 94 1020 4.5 "ESE (110°)" 7.2 NA "" "" "Overcast"
"1301" 2015-03-15 "3:00 AM" 10 9 94 1019 4.5 "SE (130°)" 10.8 NA "" "" "Overcast"
"1302" 2015-03-15 "3:30 AM" 10 9 94 1019 5 "SE (140°)" 10.8 NA "" "" "Overcast"
"1303" 2015-03-15 "4:00 AM" 11 9 88 1019 5 "SE (140°)" 10.8 NA "" "" "Overcast"
"1304" 2015-03-15 "4:30 AM" 11 9 88 1019 5 "SE (130°)" 7.2 NA "" "" "Overcast"
"1305" 2015-03-15 "5:00 AM" 11 9 88 1020 5 "ESE (110°)" 7.2 NA "" "" "Overcast"
"1306" 2015-03-15 "5:30 AM" 11 9 88 1020 5 "ESE (120°)" 10.8 NA "" "" "Overcast"
"1307" 2015-03-15 "6:00 AM" 11 9 88 1020 4.5 "East (100°)" 7.2 NA "" "" "Overcast"
"1308" 2015-03-15 "6:30 AM" 11 9 88 1020 4 "ESE (110°)" 10.8 NA "" "" "Overcast"
"1309" 2015-03-15 "7:00 AM" 11 9 88 1020 4 "NE (40°)" 10.8 NA "" "" "Overcast"
"1310" 2015-03-15 "7:30 AM" 11 9 88 1021 4.5 "ENE (70°)" 7.2 NA "" "" "Overcast"
"1311" 2015-03-15 "8:00 AM" 11 9 88 1021 4 "ENE (70°)" 7.2 NA "" "" "Overcast"
"1312" 2015-03-15 "8:30 AM" 11 9 88 1021 4 "East (80°)" 14.3 NA "" "" "Overcast"
"1313" 2015-03-15 "9:00 AM" 11 9 88 1021 4 "East (90°)" 10.8 NA "" "" "Overcast"
"1314" 2015-03-15 "9:30 AM" 11 9 88 1021 4 "East (90°)" 14.3 NA "" "" "Overcast"
"1315" 2015-03-15 "10:00 AM" 11 10 94 1021 4 "East (90°)" 14.3 36 "" "" "Overcast"
"1316" 2015-03-15 "10:30 AM" 12 10 88 1021 4.5 "East (100°)" 14.3 32.3 "" "" "Overcast"
"1317" 2015-03-15 "11:00 AM" 12 10 88 1021 5 "East (90°)" 14.3 39.6 "" "" "Overcast"
"1318" 2015-03-15 "11:30 AM" 12 10 88 1021 6 "East (100°)" 18 NA "" "" "Overcast"
"1319" 2015-03-15 "12:00 PM" 12 10 88 1021 6.9 "East (100°)" 14.3 36 "" "" "Overcast"
"1320" 2015-03-15 "12:30 PM" 12 10 88 1020 6.9 "East (80°)" 18 NA "" "" "Overcast"
"1321" 2015-03-15 "1:00 PM" 12 10 88 1020 6.9 "East (100°)" 18 36 "" "" "Overcast"
"1322" 2015-03-15 "1:30 PM" 12 10 88 1019 6.9 "East (100°)" 18 NA "" "" "Overcast"
"1323" 2015-03-15 "2:00 PM" 12 9 82 1019 6.9 "East (80°)" 14.3 NA "" "" "Overcast"
"1324" 2015-03-15 "2:30 PM" 12 9 82 1020 6.9 "East (90°)" 10.8 28.8 "" "" "Overcast"
"1325" 2015-03-15 "3:00 PM" 12 9 82 1019 6.9 "East (100°)" 14.3 NA "" "" "Overcast"
"1326" 2015-03-15 "3:30 PM" 12 9 82 1019 6.9 "East (90°)" 14.3 36 "" "" "Mostly Cloudy"
"1327" 2015-03-15 "4:00 PM" 12 9 82 1019 6.9 "East (100°)" 18 NA "" "" "Mostly Cloudy"
"1328" 2015-03-15 "4:30 PM" 12 9 82 1019 10 "East (90°)" 18 NA "" "" "Mostly Cloudy"
"1329" 2015-03-15 "5:00 PM" 12 9 82 1019 10 "East (100°)" 14.3 NA "" "" "Mostly Cloudy"
"1330" 2015-03-15 "5:30 PM" 12 9 82 1020 10 "East (100°)" 14.3 NA "" "" "Mostly Cloudy"
"1331" 2015-03-15 "6:00 PM" 12 9 82 1019 10 "East (100°)" 21.6 NA "" "" "Mostly Cloudy"
"1332" 2015-03-15 "6:30 PM" 12 9 82 1020 10 "ESE (120°)" 14.3 NA "" "" "Mostly Cloudy"
"1333" 2015-03-15 "7:00 PM" 11 9 88 1020 10 "East (90°)" 14.3 39.6 "" "" "Mostly Cloudy"
"1334" 2015-03-15 "7:30 PM" 11 9 88 1020 10 "East (100°)" 14.3 NA "" "" "Mostly Cloudy"
"1335" 2015-03-15 "8:00 PM" 11 9 88 1020 10 "East (90°)" 14.3 NA "" "" "Mostly Cloudy"
"1336" 2015-03-15 "8:30 PM" 11 10 94 1021 10 "East (80°)" 7.2 25.3 "" "Rain" "Light Rain"
"1337" 2015-03-15 "9:00 PM" 11 10 94 1021 10 "NE (50°)" 14.3 NA "" "Rain" "Light Rain"
"1338" 2015-03-15 "9:30 PM" 11 10 94 1021 10 "ESE (110°)" 14.3 NA "" "Rain" "Light Rain"
"1339" 2015-03-15 "10:00 PM" 11 10 94 1020 10 "ESE (110°)" 18 39.6 "" "" "Mostly Cloudy"
"1340" 2015-03-15 "10:30 PM" 11 10 94 1020 10 "ESE (110°)" 10.8 NA "" "" "Mostly Cloudy"
"1341" 2015-03-15 "11:00 PM" 11 10 94 1020 10 "ESE (110°)" 14.3 NA "" "" "Mostly Cloudy"
"1342" 2015-03-15 "11:30 PM" 11 10 94 1020 10 "East (100°)" 18 NA "" "" "Mostly Cloudy"
"1343" 2015-03-14 "12:00 AM" 12 7 72 1022 8 "North (350°)" 7.2 NA "" "" ""
"1344" 2015-03-14 "12:30 AM" 12 7 72 1022 8 "Variable" 3.5 NA "" "" ""
"1345" 2015-03-14 "1:00 AM" 12 7 72 1022 8 "Variable" 3.5 NA "" "" ""
"1346" 2015-03-14 "1:30 AM" 12 7 72 1022 8 "Calm" NA NA "" "" ""
"1347" 2015-03-14 "2:00 AM" 11 7 76 1022 8 "North (10°)" 3.5 NA "" "" ""
"1348" 2015-03-14 "2:30 AM" 10 7 82 1022 6 "North (10°)" 3.5 NA "" "" ""
"1349" 2015-03-14 "3:00 AM" 10 7 82 1022 5 "North (360°)" 10.8 NA "" "" "Mist"
"1350" 2015-03-14 "3:30 AM" 10 7 82 1022 4.5 "North (360°)" 10.8 NA "" "" "Mist"
"1351" 2015-03-14 "4:00 AM" 10 7 82 1022 4.5 "NNE (30°)" 10.8 NA "" "" "Mist"
"1352" 2015-03-14 "4:30 AM" 11 7 76 1022 5 "NNE (20°)" 14.3 NA "" "" "Mist"
"1353" 2015-03-14 "5:00 AM" 11 8 82 1022 6 "NE (40°)" 14.3 NA "" "" ""
"1354" 2015-03-14 "5:30 AM" 11 7 76 1022 5 "NE (50°)" 14.3 NA "" "" "Mist"
"1355" 2015-03-14 "6:00 AM" 11 8 82 1022 4 "NE (40°)" 14.3 NA "" "" "Mist"
"1356" 2015-03-14 "6:30 AM" 11 7 76 1022 NA "ENE (70°)" 10.8 NA "" "" "Mist"
"1357" 2015-03-14 "7:00 AM" 11 7 76 1022 3.1 "ENE (70°)" 14.3 NA "" "" "Mist"
"1358" 2015-03-14 "7:30 AM" 12 7 72 1022 2.7 "ENE (60°)" 10.8 NA "" "" "Haze"
"1359" 2015-03-14 "8:00 AM" 12 7 72 1023 2.7 "ENE (60°)" 14.3 NA "" "" "Haze"
"1360" 2015-03-14 "8:30 AM" 12 7 72 1024 NA "NE (50°)" 14.3 NA "" "" "Haze"
"1361" 2015-03-14 "9:00 AM" 13 7 67 1023 3.5 "ENE (60°)" 10.8 NA "" "" "Haze"
"1362" 2015-03-14 "9:30 AM" 13 8 72 1024 3.5 "NE (50°)" 10.8 NA "" "" "Haze"
"1363" 2015-03-14 "10:00 AM" 13 8 72 1023 3.5 "NE (50°)" 10.8 NA "" "" "Haze"
"1364" 2015-03-14 "10:30 AM" 13 8 72 1023 3.5 "ENE (60°)" 14.3 32.3 "" "" "Haze"
"1365" 2015-03-14 "11:00 AM" 13 8 72 1023 3.5 "NE (50°)" 14.3 NA "" "" "Haze"
"1366" 2015-03-14 "11:30 AM" 13 8 72 1023 3.5 "East (80°)" 14.3 32.3 "" "" "Haze"
"1367" 2015-03-14 "12:00 PM" 13 8 72 1023 4 "ENE (60°)" 14.3 32.3 "" "" "Haze"
"1368" 2015-03-14 "12:30 PM" 13 9 77 1022 4.5 "ENE (60°)" 18 NA "" "Rain" "Light Rain"
"1369" 2015-03-14 "1:00 PM" 12 8 77 1021 4.5 "ENE (60°)" 18 NA "" "Rain" "Light Rain"
"1370" 2015-03-14 "1:30 PM" 12 8 77 1021 4 "East (90°)" 14.3 NA "" "" "Partly Cloudy"
"1371" 2015-03-14 "2:00 PM" 12 8 77 1020 4.5 "East (90°)" 21.6 43.1 "" "Rain" "Light Rain"
"1372" 2015-03-14 "2:30 PM" 12 8 77 1020 4.5 "East (90°)" 18 NA "" "Rain" "Light Rain"
"1373" 2015-03-14 "3:00 PM" 12 9 82 1021 4 "ENE (70°)" 10.8 NA "" "Rain" "Light Rain"
"1374" 2015-03-14 "3:30 PM" 12 9 82 1021 4 "East (80°)" 14.3 32.3 "" "Rain" "Light Rain"
"1375" 2015-03-14 "4:00 PM" 11 8 82 1021 4 "East (100°)" 14.3 NA "" "Rain" "Light Rain"
"1376" 2015-03-14 "4:30 PM" 11 9 88 1020 4 "East (90°)" 18 36 "" "Rain" "Light Rain"
"1377" 2015-03-14 "5:00 PM" 11 9 88 1021 4 "East (80°)" 14.3 NA "" "Rain" "Light Rain"
"1378" 2015-03-14 "5:30 PM" 11 9 88 1022 3.5 "ENE (60°)" 14.3 NA "" "Rain" "Light Rain"
"1379" 2015-03-14 "6:00 PM" 11 9 88 1022 3.1 "ENE (70°)" 10.8 28.8 "" "Rain" "Light Rain"
"1380" 2015-03-14 "6:30 PM" 11 9 88 1022 3.1 "ENE (70°)" 10.8 NA "" "Rain" "Light Rain"
"1381" 2015-03-14 "7:00 PM" 11 9 88 1022 2.7 "East (100°)" 18 NA "" "Rain" "Light Rain"
"1382" 2015-03-14 "7:30 PM" 11 9 88 1022 2.7 "East (100°)" 18 39.6 "" "Rain" "Light Rain"
"1383" 2015-03-14 "8:00 PM" 10 9 94 1021 3.1 "ESE (110°)" 14.3 32.3 "" "Rain" "Light Rain"
"1384" 2015-03-14 "8:30 PM" 10 9 94 1021 3.1 "East (100°)" 18 NA "" "Rain" "Light Rain"
"1385" 2015-03-14 "9:00 PM" 10 9 94 1021 3.5 "ESE (110°)" 18 NA "" "Rain" "Light Rain"
"1386" 2015-03-14 "9:30 PM" 10 9 94 1021 3.5 "East (100°)" 14.3 NA "" "Rain" "Light Rain"
"1387" 2015-03-14 "10:00 PM" 10 9 94 1021 3.5 "East (100°)" 14.3 32.3 "" "" "Overcast"
"1388" 2015-03-14 "10:30 PM" 10 9 94 1021 3.5 "East (90°)" 10.8 NA "" "" "Overcast"
"1389" 2015-03-14 "11:00 PM" 10 9 94 1021 4 "East (100°)" 10.8 NA "" "" "Overcast"
"1390" 2015-03-14 "11:30 PM" 10 8 87 1021 4 "ESE (120°)" 10.8 NA "" "" "Overcast"
"1391" 2015-03-13 "12:00 AM" 9 4 71 1019 NA "SE (140°)" 14.3 NA "" "" "Clear"
"1392" 2015-03-13 "12:30 AM" 9 4 71 1019 NA "SE (140°)" 10.8 NA "" "" "Clear"
"1393" 2015-03-13 "1:00 AM" 9 4 71 1017.9 NA "SE (140°)" 10.8 NA "" "" "Clear"
"1394" 2015-03-13 "1:30 AM" 9 4 71 1017.9 NA "SSE (150°)" 10.8 NA "" "" "Clear"
"1395" 2015-03-13 "2:00 AM" 9 4 71 1017.9 NA "SSE (150°)" 10.8 NA "" "" "Clear"
"1396" 2015-03-13 "2:30 AM" 9 4 71 1017.9 NA "SSE (150°)" 10.8 NA "" "" "Clear"
"1397" 2015-03-13 "3:00 AM" 8 4 76 1017.3 NA "SSE (150°)" 7.2 NA "" "" "Clear"
"1398" 2015-03-13 "3:30 AM" 8 4 76 1017.3 NA "SSE (150°)" 10.8 NA "" "" "Clear"
"1399" 2015-03-13 "4:00 AM" 7 4 81 1017.3 NA "South (170°)" 3.5 NA "" "" "Clear"
"1400" 2015-03-13 "4:30 AM" 8 4 76 1017.3 NA "SSE (160°)" 7.2 NA "" "" "Clear"
"1401" 2015-03-13 "5:00 AM" 8 4 76 1017.9 NA "SSE (160°)" 7.2 NA "" "" "Clear"
"1402" 2015-03-13 "5:30 AM" 7 4 81 1017.9 NA "South (180°)" 7.2 NA "" "" "Clear"
"1403" 2015-03-13 "6:00 AM" 8 4 76 1017.9 NA "South (180°)" 7.2 NA "" "" "Clear"
"1404" 2015-03-13 "6:30 AM" 7 4 81 1017.9 NA "South (170°)" 7.2 NA "" "" "Clear"
"1405" 2015-03-13 "7:00 AM" 8 5 81 1019 NA "South (170°)" 7.2 NA "" "" "Clear"
"1406" 2015-03-13 "7:30 AM" 10 6 76 1019 NA "South (170°)" 7.2 NA "" "" "Clear"
"1407" 2015-03-13 "8:00 AM" 12 5 62 1020 NA "South (190°)" 7.2 NA "" "" "Clear"
"1408" 2015-03-13 "8:30 AM" 13 5 58 1020 NA "South (190°)" 10.8 NA "" "" "Clear"
"1409" 2015-03-13 "9:00 AM" 15 5 51 1020 6 "SSW (200°)" 10.8 NA "" "" ""
"1410" 2015-03-13 "9:30 AM" 16 6 52 1020 6 "SW (230°)" 10.8 NA "" "" ""
"1411" 2015-03-13 "10:00 AM" 17 6 48 1020 6 "SW (230°)" 7.2 NA "" "" ""
"1412" 2015-03-13 "10:30 AM" 17 6 48 1019 6 "WSW (250°)" 14.3 NA "" "" ""
"1413" 2015-03-13 "11:00 AM" 19 7 46 1019 6.9 "SSW (210°)" 10.8 NA "" "" ""
"1414" 2015-03-13 "11:30 AM" 20 7 43 1019 6.9 "SW (220°)" 10.8 NA "" "" ""
"1415" 2015-03-13 "12:00 PM" 19 7 46 1019 8 "WSW (250°)" 10.8 NA "" "" ""
"1416" 2015-03-13 "12:30 PM" 20 6 40 1017.9 8 "WSW (250°)" 10.8 NA "" "" ""
"1417" 2015-03-13 "1:00 PM" 20 7 43 1017.9 8 "SW (230°)" 7.2 NA "" "" ""
"1418" 2015-03-13 "1:30 PM" 21 7 40 1017.9 8 "SW (220°)" 10.8 NA "" "" ""
"1419" 2015-03-13 "2:00 PM" 20 7 43 1017.3 8 "West (260°)" 10.8 NA "" "" ""
"1420" 2015-03-13 "2:30 PM" 20 7 43 1017.3 8 "Variable" 14.3 NA "" "" ""
"1421" 2015-03-13 "3:00 PM" 20 6 40 1017.3 8 "WNW (290°)" 7.2 NA "" "" ""
"1422" 2015-03-13 "3:30 PM" 21 7 40 1017.3 6.9 "WSW (240°)" 7.2 NA "" "" ""
"1423" 2015-03-13 "4:00 PM" 20 7 43 1017.3 6 "West (280°)" 10.8 NA "" "" ""
"1424" 2015-03-13 "4:30 PM" 20 6 40 1017.3 6.9 "Variable" 7.2 NA "" "" ""
"1425" 2015-03-13 "5:00 PM" 20 6 40 1017.9 8 "West (270°)" 7.2 NA "" "" ""
"1426" 2015-03-13 "5:30 PM" 19 6 43 1017.9 8 "Variable" 7.2 NA "" "" ""
"1427" 2015-03-13 "6:00 PM" 19 6 43 1017.9 8 "West (280°)" 7.2 NA "" "" ""
"1428" 2015-03-13 "6:30 PM" 16 9 63 1017.9 8 "South (190°)" 14.3 NA "" "" ""
"1429" 2015-03-13 "7:00 PM" 16 9 63 1019 8 "South (180°)" 7.2 NA "" "" ""
"1430" 2015-03-13 "7:30 PM" 15 8 63 1019 8 "South (170°)" 7.2 NA "" "" ""
"1431" 2015-03-13 "8:00 PM" 15 8 63 1019 8 "SSE (150°)" 3.5 NA "" "" ""
"1432" 2015-03-13 "8:30 PM" 15 8 63 1020 8 "SE (130°)" 7.2 NA "" "" ""
"1433" 2015-03-13 "9:00 PM" 15 8 63 1020 8 "SSE (150°)" 7.2 NA "" "" ""
"1434" 2015-03-13 "9:30 PM" 13 7 67 1021 8 "South (170°)" 7.2 NA "" "" ""
"1435" 2015-03-13 "10:00 PM" 13 7 67 1021 8 "SSE (160°)" 3.5 NA "" "" ""
"1436" 2015-03-13 "10:30 PM" 13 7 67 1021 8 "ESE (120°)" 3.5 NA "" "" ""
"1437" 2015-03-13 "11:00 PM" 11 7 76 1021 8 "South (170°)" 7.2 NA "" "" ""
"1438" 2015-03-13 "11:30 PM" 13 7 67 1021 8 "Calm" NA NA "" "" ""
"1439" 2015-03-12 "12:00 AM" 6 0 66 1025.1 NA "Variable" 3.5 NA "" "" "Clear"
"1440" 2015-03-12 "12:30 AM" 5 0 70 1025.1 NA "South (170°)" 3.5 NA "" "" "Clear"
"1441" 2015-03-12 "1:00 AM" 5 0 70 1025.1 NA "South (180°)" 3.5 NA "" "" "Clear"
"1442" 2015-03-12 "1:30 AM" 5 0 70 1024 NA "SW (230°)" 3.5 NA "" "" "Clear"
"1443" 2015-03-12 "2:00 AM" 5 0 70 1024 NA "Calm" NA NA "" "" "Clear"
"1444" 2015-03-12 "2:30 AM" 5 0 70 1024 NA "Calm" NA NA "" "" "Clear"
"1445" 2015-03-12 "3:00 AM" 4 0 75 1024 NA "Calm" NA NA "" "" "Clear"
"1446" 2015-03-12 "3:30 AM" 4 0 75 1024 NA "South (170°)" 3.5 NA "" "" "Clear"
"1447" 2015-03-12 "4:00 AM" 4 1 81 1024 NA "SE (140°)" 3.5 NA "" "" "Clear"
"1448" 2015-03-12 "4:30 AM" 4 1 81 1024 NA "North (10°)" 3.5 NA "" "" "Clear"
"1449" 2015-03-12 "5:00 AM" 4 0 75 1024 NA "Calm" NA NA "" "" "Clear"
"1450" 2015-03-12 "5:30 AM" 3 0 81 1024 NA "Calm" NA NA "" "" "Clear"
"1451" 2015-03-12 "6:00 AM" 3 0 81 1024 NA "South (170°)" 3.5 NA "" "" "Clear"
"1452" 2015-03-12 "6:30 AM" 3 1 87 1024 NA "SSE (160°)" 3.5 NA "" "" "Clear"
"1453" 2015-03-12 "7:00 AM" 5 2 81 1024 NA "South (170°)" 7.2 NA "" "" "Clear"
"1454" 2015-03-12 "7:30 AM" 6 4 87 1024 NA "SSE (160°)" 7.2 NA "" "" "Clear"
"1455" 2015-03-12 "8:00 AM" 8 4 76 1024 NA "South (170°)" 7.2 NA "" "" "Clear"
"1456" 2015-03-12 "8:30 AM" 9 4 71 1024 NA "South (170°)" 10.8 NA "" "" "Clear"
"1457" 2015-03-12 "9:00 AM" 10 3 62 1024 NA "South (170°)" 10.8 NA "" "" "Clear"
"1458" 2015-03-12 "9:30 AM" 11 1 50 1024 NA "SSE (150°)" 10.8 NA "" "" "Clear"
"1459" 2015-03-12 "10:00 AM" 12 0 44 1024 NA "South (170°)" 10.8 NA "" "" "Clear"
"1460" 2015-03-12 "10:30 AM" 13 -2 36 1024 NA "South (170°)" 10.8 NA "" "" "Clear"
"1461" 2015-03-12 "11:00 AM" 14 -1 36 1024 NA "South (190°)" 14.3 NA "" "" "Clear"
"1462" 2015-03-12 "11:30 AM" 13 -1 38 1023 NA "SSE (160°)" 14.3 NA "" "" "Clear"
"1463" 2015-03-12 "12:00 PM" 14 0 38 1023 NA "South (190°)" 18 NA "" "" "Clear"
"1464" 2015-03-12 "12:30 PM" 15 1 39 1022 NA "SSW (200°)" 14.3 NA "" "" "Clear"
"1465" 2015-03-12 "1:00 PM" 15 0 36 1021 NA "SSW (210°)" 14.3 NA "" "" "Clear"
"1466" 2015-03-12 "1:30 PM" 15 -1 34 1021 NA "South (170°)" 14.3 NA "" "" "Clear"
"1467" 2015-03-12 "2:00 PM" 16 -2 29 1020 NA "SSW (200°)" 14.3 NA "" "" "Clear"
"1468" 2015-03-12 "2:30 PM" 16 -2 29 1019 NA "SSE (160°)" 10.8 NA "" "" "Clear"
"1469" 2015-03-12 "3:00 PM" 16 -3 27 1019 NA "SSW (210°)" 10.8 NA "" "" "Clear"
"1470" 2015-03-12 "3:30 PM" 16 -3 27 1019 NA "SSW (200°)" 14.3 NA "" "" "Clear"
"1471" 2015-03-12 "4:00 PM" 16 -2 29 1019 NA "South (190°)" 14.3 NA "" "" "Clear"
"1472" 2015-03-12 "4:30 PM" 15 -2 31 1019 NA "South (190°)" 14.3 NA "" "" "Clear"
"1473" 2015-03-12 "5:00 PM" 14 -1 36 1019 NA "South (170°)" 21.6 NA "" "" "Clear"
"1474" 2015-03-12 "5:30 PM" 13 -2 36 1019 NA "South (180°)" 18 NA "" "" "Clear"
"1475" 2015-03-12 "6:00 PM" 12 -2 38 1019 NA "SSE (150°)" 18 NA "" "" "Clear"
"1476" 2015-03-12 "6:30 PM" 11 -2 41 1019 NA "SSE (150°)" 14.3 NA "" "" "Clear"
"1477" 2015-03-12 "7:00 PM" 11 -1 44 1019 NA "SSE (150°)" 18 NA "" "" "Clear"
"1478" 2015-03-12 "7:30 PM" 10 0 50 1019 NA "SE (140°)" 18 NA "" "" "Clear"
"1479" 2015-03-12 "8:00 PM" 10 1 54 1019 NA "SSE (150°)" 21.6 NA "" "" "Clear"
"1480" 2015-03-12 "8:30 PM" 10 1 54 1019 NA "SSE (150°)" 18 NA "" "" "Clear"
"1481" 2015-03-12 "9:00 PM" 10 2 58 1020 NA "SE (140°)" 18 NA "" "" "Clear"
"1482" 2015-03-12 "9:30 PM" 10 3 62 1020 NA "SSE (150°)" 14.3 NA "" "" "Clear"
"1483" 2015-03-12 "10:00 PM" 9 3 66 1020 NA "SSE (150°)" 14.3 NA "" "" "Clear"
"1484" 2015-03-12 "10:30 PM" 9 3 66 1020 NA "SSE (150°)" 14.3 NA "" "" "Clear"
"1485" 2015-03-12 "11:00 PM" 9 4 71 1019 NA "SSE (150°)" 14.3 NA "" "" "Clear"
"1486" 2015-03-12 "11:30 PM" 9 4 71 1019 NA "SSE (150°)" 14.3 NA "" "" "Clear"
"1487" 2015-03-11 "12:00 AM" 4 -3 61 1031.2 NA "SSE (150°)" 7.2 NA "" "" "Clear"
"1488" 2015-03-11 "12:30 AM" 4 -4 56 1030.1 NA "SSE (150°)" 7.2 NA "" "" "Clear"
"1489" 2015-03-11 "1:00 AM" 4 -4 56 1030.1 NA "SSE (150°)" 7.2 NA "" "" "Clear"
"1490" 2015-03-11 "1:30 AM" 3 -4 60 1030.1 NA "SSE (160°)" 7.2 NA "" "" "Clear"
"1491" 2015-03-11 "2:00 AM" 3 -3 65 1030.1 NA "SSE (160°)" 7.2 NA "" "" "Clear"
"1492" 2015-03-11 "3:00 AM" 3 -3 65 1029.1 NA "SE (140°)" 7.2 NA "" "" "Clear"
"1493" 2015-03-11 "3:30 AM" 2 -3 70 1029.1 NA "SSE (150°)" 7.2 NA "" "" "Clear"
"1494" 2015-03-11 "4:00 AM" 2 -3 70 1029.1 NA "SE (140°)" 7.2 NA "" "" "Clear"
"1495" 2015-03-11 "4:30 AM" 2 -3 70 1029.1 NA "SSE (160°)" 7.2 NA "" "" "Clear"
"1496" 2015-03-11 "5:00 AM" 2 -3 70 1028.1 NA "South (170°)" 3.5 NA "" "" "Clear"
"1497" 2015-03-11 "5:30 AM" 1 -3 75 1029.1 NA "South (170°)" 7.2 NA "" "" "Clear"
"1498" 2015-03-11 "6:00 AM" 1 -3 75 1029.1 NA "SSE (160°)" 7.2 NA "" "" "Clear"
"1499" 2015-03-11 "6:30 AM" 2 -3 70 1028.1 NA "SE (140°)" 7.2 NA "" "" "Clear"
"1500" 2015-03-11 "7:00 AM" 3 -3 65 1029.1 NA "SE (130°)" 7.2 NA "" "" "Clear"
"1501" 2015-03-11 "7:30 AM" 4 -5 52 1029.1 NA "SE (130°)" 10.8 NA "" "" "Clear"
"1502" 2015-03-11 "8:00 AM" 5 -5 49 1029.1 NA "SSE (150°)" 7.2 NA "" "" "Clear"
"1503" 2015-03-11 "8:30 AM" 5 -5 49 1030.1 NA "SSE (160°)" 7.2 NA "" "" "Clear"
"1504" 2015-03-11 "9:00 AM" 7 -4 46 1030.1 NA "SSE (150°)" 7.2 NA "" "" "Clear"
"1505" 2015-03-11 "9:30 AM" 7 -5 43 1029.1 NA "South (170°)" 10.8 NA "" "" "Clear"
"1506" 2015-03-11 "10:00 AM" 7 -4 46 1029.1 NA "SW (220°)" 10.8 NA "" "" "Clear"
"1507" 2015-03-11 "10:30 AM" 8 -4 43 1029.1 NA "SSW (200°)" 10.8 NA "" "" "Clear"
"1508" 2015-03-11 "11:00 AM" 8 -4 43 1028.1 NA "Variable" 7.2 NA "" "" "Clear"
"1509" 2015-03-11 "11:30 AM" 9 -4 40 1028.1 NA "SSW (210°)" 10.8 NA "" "" "Clear"
"1510" 2015-03-11 "12:00 PM" 9 -4 40 1027.1 NA "WSW (240°)" 10.8 NA "" "" "Clear"
"1511" 2015-03-11 "12:30 PM" 10 -5 35 1027.1 NA "SW (220°)" 10.8 NA "" "" "Clear"
"1512" 2015-03-11 "1:00 PM" 10 -5 35 1026.1 NA "Variable" 7.2 NA "" "" "Clear"
"1513" 2015-03-11 "1:30 PM" 10 -4 37 1025.1 NA "Variable" 7.2 NA "" "" "Clear"
"1514" 2015-03-11 "2:00 PM" 10 -5 35 1025.1 NA "West (280°)" 7.2 NA "" "" "Clear"
"1515" 2015-03-11 "2:30 PM" 11 -5 33 1025.1 NA "WNW (300°)" 10.8 NA "" "" "Clear"
"1516" 2015-03-11 "3:00 PM" 11 -5 33 1025.1 NA "West (270°)" 10.8 NA "" "" "Clear"
"1517" 2015-03-11 "3:30 PM" 11 -4 35 1024 NA "SSW (210°)" 10.8 NA "" "" "Clear"
"1518" 2015-03-11 "4:00 PM" 11 -3 38 1024 NA "WSW (240°)" 10.8 NA "" "" "Clear"
"1519" 2015-03-11 "4:30 PM" 11 -3 38 1024 NA "SW (220°)" 10.8 NA "" "" "Clear"
"1520" 2015-03-11 "5:00 PM" 10 -4 37 1024 NA "WSW (240°)" 10.8 NA "" "" "Clear"
"1521" 2015-03-11 "5:30 PM" 10 0 50 1024 NA "SSW (200°)" 14.3 NA "" "" "Clear"
"1522" 2015-03-11 "6:00 PM" 9 0 54 1024 NA "South (180°)" 10.8 NA "" "" "Clear"
"1523" 2015-03-11 "6:30 PM" 8 1 62 1024 NA "SSW (200°)" 10.8 NA "" "" "Clear"
"1524" 2015-03-11 "7:00 PM" 8 0 57 1025.1 NA "South (170°)" 14.3 NA "" "" "Clear"
"1525" 2015-03-11 "7:30 PM" 7 -1 57 1025.1 NA "South (180°)" 14.3 NA "" "" "Clear"
"1526" 2015-03-11 "8:00 PM" 7 -1 57 1025.1 NA "South (170°)" 14.3 NA "" "" "Clear"
"1527" 2015-03-11 "9:00 PM" 7 -1 57 1025.1 NA "SSE (160°)" 10.8 NA "" "" "Clear"
"1528" 2015-03-11 "9:30 PM" 6 0 66 1026.1 NA "South (190°)" 10.8 NA "" "" "Clear"
"1529" 2015-03-11 "10:00 PM" 6 -1 61 1026.1 NA "South (170°)" 7.2 NA "" "" "Clear"
"1530" 2015-03-11 "10:30 PM" 6 -1 61 1026.1 NA "South (170°)" 7.2 NA "" "" "Clear"
"1531" 2015-03-11 "11:00 PM" 6 0 66 1025.1 NA "SSE (150°)" 3.5 NA "" "" "Clear"
"1532" 2015-03-11 "11:30 PM" 6 0 66 1025.1 NA "Variable" 3.5 NA "" "" "Clear"
"1533" 2015-03-10 "12:00 AM" 4 -2 65 1033.2 10 "North (360°)" 25.3 NA "" "" "Partly Cloudy"
"1534" 2015-03-10 "12:30 AM" 4 -2 65 1033.2 10 "North (10°)" 28.8 NA "" "" "Scattered Clouds"
"1535" 2015-03-10 "1:00 AM" 4 -2 65 1033.2 NA "North (10°)" 25.3 NA "" "" "Clear"
"1536" 2015-03-10 "1:30 AM" 4 -2 65 1033.2 NA "North (10°)" 28.8 NA "" "" "Clear"
"1537" 2015-03-10 "2:00 AM" 3 -3 65 1033.2 NA "North (10°)" 28.8 NA "" "" "Clear"
"1538" 2015-03-10 "2:30 AM" 3 -3 65 1033.2 NA "North (10°)" 28.8 NA "" "" "Clear"
"1539" 2015-03-10 "3:00 AM" 3 -3 65 1033.2 NA "North (10°)" 25.3 NA "" "" "Clear"
"1540" 2015-03-10 "3:30 AM" 3 -3 65 1033.2 NA "North (10°)" 28.8 NA "" "" "Clear"
"1541" 2015-03-10 "4:00 AM" 3 -3 65 1033.2 10 "North (10°)" 25.3 NA "" "" "Scattered Clouds"
"1542" 2015-03-10 "4:30 AM" 2 -4 65 1033.2 10 "North (10°)" 25.3 NA "" "" "Partly Cloudy"
"1543" 2015-03-10 "5:00 AM" 2 -4 65 1033.2 NA "North (360°)" 25.3 NA "" "" "Clear"
"1544" 2015-03-10 "5:30 AM" 2 -5 60 1034.2 NA "North (10°)" 21.6 NA "" "" "Clear"
"1545" 2015-03-10 "6:00 AM" 1 -5 65 1034.2 10 "North (10°)" 25.3 NA "" "" "Partly Cloudy"
"1546" 2015-03-10 "6:30 AM" 1 -6 60 1034.2 NA "North (10°)" 21.6 NA "" "" "Clear"
"1547" 2015-03-10 "7:00 AM" 1 -5 65 1034.2 NA "North (360°)" 18 NA "" "" "Clear"
"1548" 2015-03-10 "7:30 AM" 2 -5 60 1034.2 NA "North (10°)" 21.6 NA "" "" "Clear"
"1549" 2015-03-10 "8:00 AM" 3 -5 56 1035.2 10 "North (360°)" 21.6 NA "" "" "Partly Cloudy"
"1550" 2015-03-10 "8:30 AM" 3 -6 52 1035.2 10 "North (10°)" 21.6 NA "" "" "Partly Cloudy"
"1551" 2015-03-10 "9:00 AM" 4 -5 52 1035.2 10 "NNE (20°)" 21.6 NA "" "" "Partly Cloudy"
"1552" 2015-03-10 "9:30 AM" 4 -5 52 1035.2 10 "North (10°)" 18 NA "" "" "Partly Cloudy"
"1553" 2015-03-10 "10:00 AM" 4 -6 49 1035.2 10 "NNE (30°)" 10.8 NA "" "" "Scattered Clouds"
"1554" 2015-03-10 "10:30 AM" 5 -5 49 1035.2 10 "NNE (20°)" 14.3 36 "" "" "Scattered Clouds"
"1555" 2015-03-10 "11:00 AM" 5 -5 49 1034.2 10 "NNW (340°)" 10.8 NA "" "" "Partly Cloudy"
"1556" 2015-03-10 "11:30 AM" 5 -6 45 1034.2 10 "NNW (330°)" 10.8 NA "" "" "Partly Cloudy"
"1557" 2015-03-10 "12:00 PM" 6 -5 46 1033.2 NA "North (350°)" 14.3 NA "" "" "Clear"
"1558" 2015-03-10 "12:30 PM" 6 -5 46 1033.2 NA "NNW (340°)" 14.3 NA "" "" "Clear"
"1559" 2015-03-10 "1:00 PM" 6 -6 42 1032.2 NA "North (350°)" 14.3 NA "" "" "Clear"
"1560" 2015-03-10 "1:30 PM" 7 -6 39 1031.2 NA "North (10°)" 14.3 NA "" "" "Clear"
"1561" 2015-03-10 "2:00 PM" 7 -6 39 1031.2 NA "North (360°)" 18 NA "" "" "Clear"
"1562" 2015-03-10 "2:30 PM" 7 -5 43 1031.2 NA "North (360°)" 18 NA "" "" "Clear"
"1563" 2015-03-10 "3:00 PM" 7 -6 39 1031.2 NA "NNE (30°)" 14.3 NA "" "" "Clear"
"1564" 2015-03-10 "3:30 PM" 7 -6 39 1031.2 NA "North (10°)" 14.3 NA "" "" "Clear"
"1565" 2015-03-10 "4:00 PM" 7 -6 39 1031.2 NA "North (350°)" 14.3 NA "" "" "Clear"
"1566" 2015-03-10 "4:30 PM" 6 -6 42 1031.2 NA "NNE (20°)" 10.8 NA "" "" "Clear"
"1567" 2015-03-10 "5:00 PM" 6 -7 39 1031.2 NA "NNW (330°)" 7.2 NA "" "" "Clear"
"1568" 2015-03-10 "5:30 PM" 6 -6 42 1031.2 NA "North (350°)" 10.8 NA "" "" "Clear"
"1569" 2015-03-10 "6:00 PM" 5 -6 45 1031.2 NA "North (10°)" 10.8 NA "" "" "Clear"
"1570" 2015-03-10 "6:30 PM" 5 -6 45 1031.2 NA "NNE (20°)" 10.8 NA "" "" "Clear"
"1571" 2015-03-10 "7:00 PM" 5 -6 45 1031.2 NA "NNE (30°)" 14.3 NA "" "" "Clear"
"1572" 2015-03-10 "7:30 PM" 5 -5 49 1031.2 NA "NNE (20°)" 10.8 NA "" "" "Clear"
"1573" 2015-03-10 "8:00 PM" 5 -5 49 1031.2 NA "North (10°)" 14.3 NA "" "" "Clear"
"1574" 2015-03-10 "8:30 PM" 4 -5 52 1031.2 NA "North (360°)" 10.8 NA "" "" "Clear"
"1575" 2015-03-10 "9:00 PM" 4 -5 52 1031.2 NA "North (360°)" 7.2 NA "" "" "Clear"
"1576" 2015-03-10 "9:30 PM" 5 -6 45 1031.2 NA "NE (40°)" 7.2 NA "" "" "Clear"
"1577" 2015-03-10 "10:00 PM" 4 -5 52 1031.2 NA "Variable" 3.5 NA "" "" "Clear"
"1578" 2015-03-10 "10:30 PM" 4 -5 52 1031.2 NA "Variable" 3.5 NA "" "" "Clear"
"1579" 2015-03-10 "11:00 PM" 4 -3 61 1031.2 NA "SSE (150°)" 10.8 NA "" "" "Clear"
"1580" 2015-03-10 "11:30 PM" 4 -3 61 1031.2 NA "SE (140°)" 10.8 NA "" "" "Clear"
"1581" 2015-03-09 "12:00 AM" 9 8 93 1019 4.5 "WNW (290°)" 21.6 NA "" "" "Overcast"
"1582" 2015-03-09 "12:30 AM" 9 9 100 1019 4 "NW (310°)" 21.6 NA "" "" "Overcast"
"1583" 2015-03-09 "1:00 AM" 9 9 100 1020 4 "NNW (340°)" 25.3 NA "" "Rain" "Light Rain"
"1584" 2015-03-09 "1:30 AM" 9 8 93 1021 4.5 "NNW (340°)" 21.6 NA "" "Rain" "Light Rain"
"1585" 2015-03-09 "2:00 AM" 9 8 93 1021 4 "North (350°)" 21.6 NA "" "" "Overcast"
"1586" 2015-03-09 "2:30 AM" 8 8 100 1021 4.5 "North (350°)" 21.6 NA "" "" "Overcast"
"1587" 2015-03-09 "3:30 AM" 8 7 93 1021 6 "North (10°)" 18 NA "" "" "Overcast"
"1588" 2015-03-09 "4:00 AM" 8 7 93 1021 6 "North (360°)" 14.3 NA "" "" "Overcast"
"1589" 2015-03-09 "4:30 AM" 8 7 93 1021 6 "NNE (20°)" 10.8 NA "" "" "Overcast"
"1590" 2015-03-09 "5:00 AM" 8 7 93 1021 6 "North (350°)" 10.8 NA "" "" "Overcast"
"1591" 2015-03-09 "5:30 AM" 8 7 93 1023 6 "North (360°)" 21.6 NA "" "" "Overcast"
"1592" 2015-03-09 "6:00 AM" 8 6 87 1023 6 "NNW (340°)" 18 NA "" "" "Mostly Cloudy"
"1593" 2015-03-09 "6:30 AM" 8 6 87 1024 8 "NNW (340°)" 18 NA "" "" "Mostly Cloudy"
"1594" 2015-03-09 "7:00 AM" 8 6 87 1024 8 "NNW (330°)" 14.3 NA "" "" "Mostly Cloudy"
"1595" 2015-03-09 "7:30 AM" 8 7 93 1025.1 10 "NW (310°)" 14.3 NA "" "" "Mostly Cloudy"
"1596" 2015-03-09 "8:00 AM" 8 6 87 1025.1 10 "NNW (330°)" 14.3 NA "" "" "Mostly Cloudy"
"1597" 2015-03-09 "8:30 AM" 9 6 82 1026.1 10 "NW (320°)" 18 NA "" "" "Mostly Cloudy"
"1598" 2015-03-09 "9:00 AM" 9 6 82 1027.1 10 "NW (320°)" 21.6 NA "" "" "Mostly Cloudy"
"1599" 2015-03-09 "9:30 AM" 9 6 82 1027.1 10 "NW (320°)" 21.6 NA "" "" "Overcast"
"1600" 2015-03-09 "10:00 AM" 9 6 82 1027.1 10 "NW (310°)" 21.6 NA "" "" "Overcast"
"1601" 2015-03-09 "10:30 AM" 8 6 87 1028.1 10 "NNW (330°)" 28.8 NA "" "" "Overcast"
"1602" 2015-03-09 "11:00 AM" 9 6 82 1027.1 10 "NNW (340°)" 28.8 NA "" "" "Overcast"
"1603" 2015-03-09 "11:30 AM" 11 7 76 1027.1 10 "NNW (330°)" 25.3 NA "" "" "Scattered Clouds"
"1604" 2015-03-09 "12:00 PM" 11 5 67 1027.1 10 "NW (310°)" 21.6 NA "" "" "Scattered Clouds"
"1605" 2015-03-09 "12:30 PM" 13 6 63 1027.1 10 "NNW (330°)" 21.6 39.6 "" "" "Partly Cloudy"
"1606" 2015-03-09 "1:00 PM" 12 5 62 1026.1 10 "North (350°)" 21.6 NA "" "" "Mostly Cloudy"
"1607" 2015-03-09 "1:30 PM" 13 4 54 1026.1 10 "NNW (340°)" 28.8 NA "" "" "Mostly Cloudy"
"1608" 2015-03-09 "2:00 PM" 12 4 58 1026.1 10 "North (350°)" 25.3 43.1 "" "" "Mostly Cloudy"
"1609" 2015-03-09 "2:30 PM" 11 5 67 1026.1 10 "North (10°)" 25.3 NA "" "" "Mostly Cloudy"
"1610" 2015-03-09 "3:00 PM" 11 5 67 1027.1 10 "North (10°)" 25.3 NA "" "" "Mostly Cloudy"
"1611" 2015-03-09 "3:30 PM" 10 4 66 1027.1 10 "North (10°)" 28.8 NA "" "" "Mostly Cloudy"
"1612" 2015-03-09 "4:00 PM" 10 4 66 1028.1 10 "NNE (20°)" 28.8 NA "" "" "Mostly Cloudy"
"1613" 2015-03-09 "4:30 PM" 9 4 71 1028.1 6 "NNE (20°)" 28.8 NA "" "" "Mostly Cloudy"
"1614" 2015-03-09 "5:00 PM" 9 3 66 1028.1 6 "NNE (30°)" 28.8 NA "" "" "Scattered Clouds"
"1615" 2015-03-09 "5:30 PM" 8 4 76 1029.1 5 "NNE (20°)" 25.3 NA "" "" "Scattered Clouds"
"1616" 2015-03-09 "6:00 PM" 7 4 81 1029.1 4 "North (10°)" 32.3 NA "" "" "Scattered Clouds"
"1617" 2015-03-09 "6:30 PM" 7 4 81 1030.1 6 "North (10°)" 28.8 NA "" "" "Scattered Clouds"
"1618" 2015-03-09 "7:00 PM" 7 3 76 1030.1 8 "North (10°)" 25.3 NA "" "" "Mostly Cloudy"
"1619" 2015-03-09 "7:30 PM" 7 2 71 1031.2 10 "NNE (20°)" 28.8 NA "" "" "Mostly Cloudy"
"1620" 2015-03-09 "8:00 PM" 7 1 66 1031.2 10 "NNE (20°)" 28.8 NA "" "" "Mostly Cloudy"
"1621" 2015-03-09 "8:30 PM" 6 0 66 1032.2 10 "NNE (30°)" 25.3 NA "" "" "Mostly Cloudy"
"1622" 2015-03-09 "9:00 PM" 6 1 70 1032.2 10 "NNE (30°)" 25.3 NA "" "" "Scattered Clouds"
"1623" 2015-03-09 "9:30 PM" 6 0 66 1032.2 10 "NNE (20°)" 28.8 NA "" "" "Scattered Clouds"
"1624" 2015-03-09 "10:00 PM" 6 0 66 1033.2 10 "North (10°)" 25.3 NA "" "" "Scattered Clouds"
"1625" 2015-03-09 "10:30 PM" 5 -1 65 1033.2 10 "North (10°)" 25.3 NA "" "" "Scattered Clouds"
"1626" 2015-03-09 "11:00 PM" 5 -1 65 1033.2 10 "North (10°)" 25.3 NA "" "" "Scattered Clouds"
"1627" 2015-03-09 "11:30 PM" 5 -1 65 1033.2 10 "North (10°)" 21.6 NA "" "" "Partly Cloudy"
"1628" 2015-03-08 "12:00 AM" 7 3 76 1023 NA "ESE (110°)" 10.8 NA "" "" "Clear"
"1629" 2015-03-08 "12:30 AM" 7 3 76 1023 NA "East (90°)" 7.2 NA "" "" "Clear"
"1630" 2015-03-08 "1:00 AM" 7 3 76 1023 NA "East (90°)" 10.8 NA "" "" "Clear"
"1631" 2015-03-08 "1:30 AM" 7 4 81 1023 NA "NE (50°)" 7.2 NA "" "" "Clear"
"1632" 2015-03-08 "2:00 AM" 8 4 76 1023 NA "ENE (60°)" 7.2 NA "" "" "Clear"
"1633" 2015-03-08 "2:30 AM" 8 4 76 1023 10 "Calm" NA NA "" "" "Mostly Cloudy"
"1634" 2015-03-08 "3:00 AM" 8 4 76 1022 10 "East (80°)" 7.2 NA "" "" "Overcast"
"1635" 2015-03-08 "3:30 AM" 8 4 76 1021 10 "East (90°)" 10.8 NA "" "" "Overcast"
"1636" 2015-03-08 "4:00 AM" 8 5 81 1021 10 "ESE (120°)" 10.8 NA "" "" "Overcast"
"1637" 2015-03-08 "4:30 AM" 8 5 81 1021 10 "East (100°)" 10.8 NA "" "" "Overcast"
"1638" 2015-03-08 "5:00 AM" 8 5 81 1021 10 "East (80°)" 10.8 NA "" "" "Overcast"
"1639" 2015-03-08 "5:30 AM" 9 5 76 1020 10 "East (90°)" 14.3 NA "" "" "Overcast"
"1640" 2015-03-08 "6:00 AM" 9 6 82 1020 10 "East (100°)" 14.3 NA "" "" "Mostly Cloudy"
"1641" 2015-03-08 "6:30 AM" 9 6 82 1020 10 "East (100°)" 18 NA "" "" "Mostly Cloudy"
"1642" 2015-03-08 "7:00 AM" 9 7 87 1020 10 "East (100°)" 18 NA "" "" "Mostly Cloudy"
"1643" 2015-03-08 "7:30 AM" 9 7 87 1020 10 "East (100°)" 18 NA "" "" "Overcast"
"1644" 2015-03-08 "8:00 AM" 10 7 82 1020 10 "East (90°)" 14.3 NA "" "" "Overcast"
"1645" 2015-03-08 "8:30 AM" 10 7 82 1020 10 "East (90°)" 18 NA "" "" "Overcast"
"1646" 2015-03-08 "9:00 AM" 10 7 82 1020 10 "East (100°)" 18 NA "" "" "Overcast"
"1647" 2015-03-08 "9:30 AM" 10 8 87 1020 10 "East (100°)" 18 NA "" "" "Overcast"
"1648" 2015-03-08 "10:00 AM" 10 8 87 1020 6.9 "ESE (110°)" 14.3 NA "" "" "Overcast"
"1649" 2015-03-08 "10:30 AM" 10 9 94 1020 4 "ESE (110°)" 14.3 NA "" "Rain" "Light Rain"
"1650" 2015-03-08 "11:00 AM" 10 9 94 1019 3.1 "SE (130°)" 7.2 NA "" "Rain" "Light Rain"
"1651" 2015-03-08 "11:30 AM" 10 9 94 1019 2.6 "ESE (120°)" 10.8 NA "" "Rain" "Light Rain"
"1652" 2015-03-08 "12:00 PM" 10 9 94 1017.9 2.6 "ESE (110°)" 14.3 NA "" "Rain" "Light Rain"
"1653" 2015-03-08 "12:30 PM" 10 9 94 1017.9 2.7 "SE (130°)" 14.3 NA "" "Rain" "Light Rain"
"1654" 2015-03-08 "1:00 PM" 10 9 94 1017.3 6 "ESE (120°)" 14.3 NA "" "Rain" "Light Rain"
"1655" 2015-03-08 "1:30 PM" 11 9 88 1016.3 6 "SE (130°)" 14.3 NA "" "Rain" "Light Rain"
"1656" 2015-03-08 "2:00 PM" 11 9 88 1016.3 6 "SE (140°)" 14.3 NA "" "Rain" "Light Rain"
"1657" 2015-03-08 "2:30 PM" 11 9 88 1016.3 6 "SSE (150°)" 18 NA "" "Rain" "Light Rain"
"1658" 2015-03-08 "3:00 PM" 10 9 94 1015.2 4 "SSE (150°)" 14.3 NA "" "Rain" "Light Rain"
"1659" 2015-03-08 "3:30 PM" 10 9 94 1015.2 4 "SSE (150°)" 10.8 NA "" "Rain" "Light Rain"
"1660" 2015-03-08 "4:00 PM" 10 9 94 1015.2 4 "SE (140°)" 10.8 NA "" "Rain" "Light Rain"
"1661" 2015-03-08 "4:30 PM" 10 9 94 1015.2 4 "South (170°)" 10.8 NA "" "Rain" "Light Rain"
"1662" 2015-03-08 "5:00 PM" 10 9 94 1015.2 4 "South (170°)" 10.8 NA "" "Rain" "Light Rain"
"1663" 2015-03-08 "5:30 PM" 10 9 94 1016.3 3.5 "SSW (200°)" 10.8 NA "" "Rain" "Light Rain"
"1664" 2015-03-08 "6:00 PM" 10 9 94 1015.2 4 "SSW (200°)" 10.8 NA "" "Rain" "Light Rain"
"1665" 2015-03-08 "6:30 PM" 10 9 94 1016.3 NA "WSW (240°)" 10.8 NA "" "Rain" "Light Rain"
"1666" 2015-03-08 "7:00 PM" 9 9 100 1016.3 NA "West (260°)" 10.8 NA "" "Rain" "Light Rain"
"1667" 2015-03-08 "7:30 PM" 9 9 100 1016.3 NA "West (270°)" 10.8 NA "" "Rain" "Light Rain"
"1668" 2015-03-08 "8:00 PM" 9 8 93 1017.3 NA "West (280°)" 14.3 NA "" "" "Overcast"
"1669" 2015-03-08 "8:30 PM" 9 8 93 1017.3 4.5 "West (270°)" 10.8 NA "" "" "Overcast"
"1670" 2015-03-08 "9:00 PM" 9 8 93 1017.3 4 "West (280°)" 18 NA "" "" "Overcast"
"1671" 2015-03-08 "9:30 PM" 9 8 93 1017.9 4.5 "West (280°)" 21.6 NA "" "" "Overcast"
"1672" 2015-03-08 "10:00 PM" 9 8 93 1017.9 4 "WNW (290°)" 18 NA "" "Rain" "Light Rain"
"1673" 2015-03-08 "10:30 PM" 9 8 93 1017.9 4.5 "West (280°)" 18 NA "" "" "Overcast"
"1674" 2015-03-08 "11:00 PM" 9 8 93 1019 4.5 "West (280°)" 21.6 NA "" "" "Overcast"
"1675" 2015-03-08 "11:30 PM" 9 8 93 1019 4.5 "WNW (290°)" 25.3 NA "" "" "Overcast"
"1676" 2015-03-07 "12:00 AM" 7 1 66 1024 NA "NE (40°)" 7.2 NA "" "" "Clear"
"1677" 2015-03-07 "12:30 AM" 7 1 66 1024 NA "East (80°)" 7.2 NA "" "" "Clear"
"1678" 2015-03-07 "1:00 AM" 6 1 70 1024 NA "Variable" 3.5 NA "" "" "Clear"
"1679" 2015-03-07 "1:30 AM" 6 1 70 1024 10 "SSE (160°)" 3.5 NA "" "" "Scattered Clouds"
"1680" 2015-03-07 "2:00 AM" 6 1 70 1024 10 "South (170°)" 3.5 NA "" "" "Mostly Cloudy"
"1681" 2015-03-07 "2:30 AM" 6 1 70 1023 10 "South (170°)" 3.5 NA "" "" "Mostly Cloudy"
"1682" 2015-03-07 "3:00 AM" 6 1 70 1023 10 "Calm" NA NA "" "" "Mostly Cloudy"
"1683" 2015-03-07 "3:30 AM" 6 1 70 1023 10 "South (190°)" 3.5 NA "" "" "Mostly Cloudy"
"1684" 2015-03-07 "4:00 AM" 6 1 70 1022 10 "Calm" NA NA "" "" "Mostly Cloudy"
"1685" 2015-03-07 "4:30 AM" 6 1 70 1022 10 "South (190°)" 3.5 NA "" "" "Scattered Clouds"
"1686" 2015-03-07 "5:00 AM" 6 1 70 1023 10 "Calm" NA NA "" "" "Partly Cloudy"
"1687" 2015-03-07 "5:30 AM" 6 2 76 1023 NA "SSE (160°)" 3.5 NA "" "" "Clear"
"1688" 2015-03-07 "6:00 AM" 6 2 76 1023 NA "Calm" NA NA "" "" "Clear"
"1689" 2015-03-07 "6:30 AM" 6 2 76 1024 NA "North (350°)" 7.2 NA "" "" "Clear"
"1690" 2015-03-07 "7:00 AM" 6 2 76 1024 NA "North (350°)" 3.5 NA "" "" "Clear"
"1691" 2015-03-07 "7:30 AM" 6 2 76 1024 NA "North (350°)" 3.5 NA "" "" "Clear"
"1692" 2015-03-07 "8:00 AM" 7 1 66 1024 10 "East (80°)" 3.5 NA "" "" "Overcast"
"1693" 2015-03-07 "8:30 AM" 7 1 66 1025.1 10 "North (360°)" 7.2 NA "" "" "Overcast"
"1694" 2015-03-07 "9:00 AM" 7 1 66 1025.1 10 "NNE (20°)" 7.2 NA "" "" "Overcast"
"1695" 2015-03-07 "9:30 AM" 8 1 62 1025.1 10 "NE (40°)" 7.2 NA "" "" "Overcast"
"1696" 2015-03-07 "10:00 AM" 8 1 62 1025.1 10 "NE (50°)" 7.2 NA "" "" "Overcast"
"1697" 2015-03-07 "10:30 AM" 9 0 54 1024 10 "NNE (20°)" 7.2 NA "" "" "Overcast"
"1698" 2015-03-07 "11:00 AM" 9 0 54 1024 10 "NNE (20°)" 10.8 NA "" "" "Mostly Cloudy"
"1699" 2015-03-07 "11:30 AM" 9 1 58 1024 10 "NE (40°)" 7.2 NA "" "" "Mostly Cloudy"
"1700" 2015-03-07 "12:00 PM" 12 2 51 1024 10 "Variable" 7.2 NA "" "" "Mostly Cloudy"
"1701" 2015-03-07 "12:30 PM" 10 1 54 1023 10 "North (350°)" 7.2 NA "" "" "Mostly Cloudy"
"1702" 2015-03-07 "1:00 PM" 11 1 50 1023 10 "WNW (300°)" 10.8 NA "" "" "Mostly Cloudy"
"1703" 2015-03-07 "1:30 PM" 11 0 47 1023 10 "Variable" 7.2 NA "" "" "Mostly Cloudy"
"1704" 2015-03-07 "2:00 PM" 11 0 47 1022 NA "Variable" 7.2 NA "" "" "Clear"
"1705" 2015-03-07 "2:30 PM" 11 0 47 1022 NA "Variable" 10.8 NA "" "" "Clear"
"1706" 2015-03-07 "3:00 PM" 12 0 44 1022 NA "NW (310°)" 10.8 NA "" "" "Clear"
"1707" 2015-03-07 "3:30 PM" 12 0 44 1022 NA "Variable" 7.2 NA "" "" "Clear"
"1708" 2015-03-07 "4:00 PM" 12 0 44 1022 NA "North (10°)" 10.8 NA "" "" "Clear"
"1709" 2015-03-07 "4:30 PM" 11 -1 44 1022 NA "East (100°)" 21.6 NA "" "" "Clear"
"1710" 2015-03-07 "5:00 PM" 10 -1 47 1022 NA "ESE (110°)" 14.3 36 "" "" "Clear"
"1711" 2015-03-07 "5:30 PM" 10 0 50 1022 NA "ENE (70°)" 14.3 NA "" "" "Clear"
"1712" 2015-03-07 "6:00 PM" 9 0 54 1022 NA "East (90°)" 14.3 32.3 "" "" "Clear"
"1713" 2015-03-07 "6:30 PM" 9 1 58 1023 NA "ESE (110°)" 14.3 NA "" "" "Clear"
"1714" 2015-03-07 "7:00 PM" 8 1 62 1023 NA "ESE (120°)" 18 NA "" "" "Clear"
"1715" 2015-03-07 "7:30 PM" 8 2 66 1023 NA "ESE (120°)" 14.3 NA "" "" "Clear"
"1716" 2015-03-07 "8:00 PM" 7 1 66 1024 NA "ESE (120°)" 14.3 NA "" "" "Clear"
"1717" 2015-03-07 "8:30 PM" 7 2 71 1024 NA "SE (130°)" 10.8 NA "" "" "Clear"
"1718" 2015-03-07 "9:00 PM" 7 3 76 1024 NA "ESE (120°)" 14.3 NA "" "" "Clear"
"1719" 2015-03-07 "9:30 PM" 7 3 76 1024 NA "East (90°)" 14.3 NA "" "" "Clear"
"1720" 2015-03-07 "10:00 PM" 7 3 76 1024 NA "ESE (120°)" 10.8 NA "" "" "Clear"
"1721" 2015-03-07 "10:30 PM" 7 3 76 1024 NA "East (80°)" 7.2 NA "" "" "Clear"
"1722" 2015-03-07 "11:00 PM" 6 3 81 1024 NA "Variable" 3.5 NA "" "" "Clear"
"1723" 2015-03-07 "11:30 PM" 7 3 76 1024 NA "East (100°)" 7.2 NA "" "" "Clear"
"1724" 2015-03-06 "12:00 AM" 4 1 81 1025.1 10 "NNE (30°)" 10.8 NA "" "" "Mostly Cloudy"
"1725" 2015-03-06 "12:30 AM" 4 2 87 1025.1 10 "North (360°)" 10.8 NA "" "" "Mostly Cloudy"
"1726" 2015-03-06 "1:00 AM" 4 1 81 1025.1 10 "North (350°)" 10.8 NA "" "" "Mostly Cloudy"
"1727" 2015-03-06 "1:30 AM" 4 1 81 1025.1 10 "North (360°)" 10.8 NA "" "" "Mostly Cloudy"
"1728" 2015-03-06 "2:00 AM" 4 2 87 1025.1 10 "North (360°)" 10.8 NA "" "" "Mostly Cloudy"
"1729" 2015-03-06 "2:30 AM" 4 2 87 1025.1 10 "North (360°)" 14.3 NA "" "" "Mostly Cloudy"
"1730" 2015-03-06 "3:00 AM" 4 2 87 1025.1 10 "North (10°)" 14.3 NA "" "" "Scattered Clouds"
"1731" 2015-03-06 "3:30 AM" 4 2 87 1024 NA "North (10°)" 14.3 NA "" "" "Clear"
"1732" 2015-03-06 "4:00 AM" 4 2 87 1024 NA "North (10°)" 10.8 NA "" "" "Clear"
"1733" 2015-03-06 "4:30 AM" 4 2 87 1024 NA "North (350°)" 7.2 NA "" "" "Clear"
"1734" 2015-03-06 "5:00 AM" 4 2 87 1024 NA "North (360°)" 7.2 NA "" "" "Clear"
"1735" 2015-03-06 "5:30 AM" 4 2 87 1024 NA "North (360°)" 10.8 NA "" "" "Clear"
"1736" 2015-03-06 "6:00 AM" 4 2 87 1025.1 NA "North (350°)" 7.2 NA "" "" "Clear"
"1737" 2015-03-06 "6:30 AM" 4 2 87 1025.1 NA "North (360°)" 7.2 NA "" "" "Clear"
"1738" 2015-03-06 "7:00 AM" 4 2 87 1025.1 NA "North (360°)" 10.8 NA "" "" "Clear"
"1739" 2015-03-06 "7:30 AM" 5 2 81 1025.1 NA "North (360°)" 10.8 NA "" "" "Clear"
"1740" 2015-03-06 "8:00 AM" 6 2 76 1025.1 NA "North (10°)" 10.8 NA "" "" "Clear"
"1741" 2015-03-06 "8:30 AM" 6 2 76 1026.1 NA "NNE (30°)" 10.8 NA "" "" "Clear"
"1742" 2015-03-06 "9:00 AM" 6 1 70 1025.1 NA "NNE (30°)" 10.8 NA "" "" "Clear"
"1743" 2015-03-06 "9:30 AM" 7 1 66 1025.1 NA "NE (40°)" 18 NA "" "" "Clear"
"1744" 2015-03-06 "10:00 AM" 7 1 66 1025.1 NA "NE (50°)" 10.8 NA "" "" "Clear"
"1745" 2015-03-06 "10:30 AM" 8 1 62 1025.1 10 "NE (40°)" 10.8 NA "" "" "Scattered Clouds"
"1746" 2015-03-06 "11:00 AM" 8 1 62 1025.1 10 "NNE (30°)" 10.8 NA "" "" "Scattered Clouds"
"1747" 2015-03-06 "11:30 AM" 8 0 57 1025.1 10 "Variable" 7.2 NA "" "" "Scattered Clouds"
"1748" 2015-03-06 "12:00 PM" 8 0 57 1024 10 "North (360°)" 10.8 NA "" "" "Scattered Clouds"
"1749" 2015-03-06 "12:30 PM" 9 1 58 1023 10 "Variable" 3.5 NA "" "" "Scattered Clouds"
"1750" 2015-03-06 "1:00 PM" 9 0 54 1023 10 "NNW (340°)" 7.2 NA "" "" "Mostly Cloudy"
"1751" 2015-03-06 "1:30 PM" 9 1 58 1023 10 "NNE (30°)" 7.2 NA "" "" "Mostly Cloudy"
"1752" 2015-03-06 "2:00 PM" 8 0 57 1022 10 "North (10°)" 10.8 NA "" "" "Mostly Cloudy"
"1753" 2015-03-06 "2:30 PM" 9 1 58 1022 10 "North (350°)" 10.8 NA "" "" "Mostly Cloudy"
"1754" 2015-03-06 "3:00 PM" 9 0 54 1022 10 "NNE (20°)" 10.8 NA "" "" "Mostly Cloudy"
"1755" 2015-03-06 "3:30 PM" 8 0 57 1022 10 "North (10°)" 7.2 NA "" "" "Mostly Cloudy"
"1756" 2015-03-06 "4:00 PM" 8 0 57 1022 10 "North (10°)" 7.2 NA "" "" "Overcast"
"1757" 2015-03-06 "4:30 PM" 8 0 57 1022 10 "NNE (30°)" 14.3 NA "" "" "Overcast"
"1758" 2015-03-06 "5:00 PM" 8 1 62 1022 10 "NNE (30°)" 10.8 NA "" "" "Overcast"
"1759" 2015-03-06 "5:30 PM" 8 0 57 1022 10 "NE (40°)" 10.8 NA "" "" "Overcast"
"1760" 2015-03-06 "6:00 PM" 8 1 62 1022 10 "NE (40°)" 10.8 NA "" "" "Overcast"
"1761" 2015-03-06 "6:30 PM" 8 1 62 1022 10 "NNE (30°)" 10.8 NA "" "" "Overcast"
"1762" 2015-03-06 "7:00 PM" 7 1 66 1023 10 "ESE (110°)" 10.8 NA "" "" "Overcast"
"1763" 2015-03-06 "7:30 PM" 7 1 66 1023 10 "ESE (120°)" 10.8 NA "" "" "Overcast"
"1764" 2015-03-06 "8:00 PM" 7 2 71 1023 10 "East (100°)" 14.3 NA "" "" "Mostly Cloudy"
"1765" 2015-03-06 "8:30 PM" 7 2 71 1023 10 "ENE (70°)" 10.8 NA "" "" "Mostly Cloudy"
"1766" 2015-03-06 "9:00 PM" 7 1 66 1023 10 "East (90°)" 7.2 NA "" "" "Mostly Cloudy"
"1767" 2015-03-06 "9:30 PM" 7 1 66 1023 10 "ENE (60°)" 7.2 NA "" "" "Mostly Cloudy"
"1768" 2015-03-06 "10:00 PM" 7 1 66 1023 10 "ENE (60°)" 7.2 NA "" "" "Scattered Clouds"
"1769" 2015-03-06 "10:30 PM" 7 1 66 1023 10 "ENE (60°)" 7.2 NA "" "" "Partly Cloudy"
"1770" 2015-03-06 "11:00 PM" 7 1 66 1023 10 "NE (50°)" 7.2 NA "" "" "Partly Cloudy"
"1771" 2015-03-06 "11:30 PM" 7 1 66 1024 NA "NE (40°)" 7.2 NA "" "" "Clear"
"1772" 2015-03-05 "12:00 AM" 4 -4 56 1028.1 NA "NNE (20°)" 14.3 NA "" "" "Clear"
"1773" 2015-03-05 "12:30 AM" 4 -3 61 1028.1 NA "NNE (30°)" 14.3 NA "" "" "Clear"
"1774" 2015-03-05 "1:00 AM" 4 -3 61 1027.1 NA "NE (50°)" 18 NA "" "" "Clear"
"1775" 2015-03-05 "1:30 AM" 4 -3 61 1028.1 NA "NE (50°)" 18 NA "" "" "Clear"
"1776" 2015-03-05 "2:00 AM" 4 -3 61 1028.1 NA "NE (50°)" 14.3 NA "" "" "Clear"
"1777" 2015-03-05 "2:30 AM" 4 -3 61 1028.1 NA "NE (40°)" 10.8 NA "" "" "Clear"
"1778" 2015-03-05 "3:00 AM" 4 -3 61 1027.1 NA "NNE (30°)" 14.3 NA "" "" "Clear"
"1779" 2015-03-05 "3:30 AM" 4 -3 61 1026.1 NA "NNE (30°)" 18 NA "" "" "Clear"
"1780" 2015-03-05 "4:00 AM" 4 -3 61 1027.1 NA "NE (50°)" 14.3 NA "" "" "Clear"
"1781" 2015-03-05 "4:30 AM" 4 -3 61 1026.1 NA "NE (50°)" 14.3 NA "" "" "Clear"
"1782" 2015-03-05 "5:00 AM" 4 -3 61 1027.1 NA "NE (50°)" 10.8 NA "" "" "Clear"
"1783" 2015-03-05 "6:00 AM" 4 -3 61 1026.1 NA "ENE (60°)" 14.3 NA "" "" "Clear"
"1784" 2015-03-05 "6:30 AM" 4 -2 65 1027.1 NA "NE (40°)" 14.3 NA "" "" "Clear"
"1785" 2015-03-05 "7:00 AM" 4 -2 65 1027.1 NA "NE (50°)" 10.8 NA "" "" "Clear"
"1786" 2015-03-05 "7:30 AM" 5 -2 61 1027.1 NA "ENE (70°)" 14.3 NA "" "" "Clear"
"1787" 2015-03-05 "8:00 AM" 5 -3 57 1027.1 NA "ENE (60°)" 18 NA "" "" "Clear"
"1788" 2015-03-05 "8:30 AM" 6 -2 57 1027.1 NA "ENE (60°)" 18 NA "" "" "Clear"
"1789" 2015-03-05 "9:00 AM" 6 -2 57 1028.1 10 "NE (50°)" 18 NA "" "" "Scattered Clouds"
"1790" 2015-03-05 "9:30 AM" 6 -2 57 1028.1 10 "ENE (70°)" 14.3 NA "" "" "Scattered Clouds"
"1791" 2015-03-05 "10:00 AM" 6 -2 57 1028.1 10 "NE (40°)" 10.8 NA "" "" "Scattered Clouds"
"1792" 2015-03-05 "10:30 AM" 5 -2 61 1028.1 10 "Variable" 7.2 NA "" "Rain" "Light Rain"
"1793" 2015-03-05 "11:00 AM" 4 0 75 1027.1 10 "East (80°)" 10.8 39.6 "" "Rain" "Light Rain"
"1794" 2015-03-05 "11:30 AM" 4 1 81 1027.1 10 "East (100°)" 7.2 NA "" "Rain" "Light Rain"
"1795" 2015-03-05 "12:00 PM" 4 1 81 1027.1 10 "Variable" 3.5 NA "" "Rain" "Light Rain"
"1796" 2015-03-05 "12:30 PM" 4 1 81 1026.1 10 "Variable" 3.5 NA "" "" "Scattered Clouds"
"1797" 2015-03-05 "1:00 PM" 4 1 81 1025.1 10 "Variable" 3.5 NA "" "" "Scattered Clouds"
"1798" 2015-03-05 "1:30 PM" 5 1 76 1025.1 10 "Variable" 3.5 NA "" "" "Scattered Clouds"
"1799" 2015-03-05 "2:00 PM" 5 1 76 1025.1 10 "Variable" 3.5 NA "" "Rain" "Light Rain"
"1800" 2015-03-05 "2:30 PM" 4 1 81 1025.1 10 "NNE (20°)" 10.8 NA "" "Rain" "Light Rain"
"1801" 2015-03-05 "3:00 PM" 4 2 87 1025.1 10 "NE (40°)" 14.3 NA "" "Rain" "Light Rain"
"1802" 2015-03-05 "3:30 PM" 5 2 81 1025.1 10 "NE (50°)" 14.3 NA "" "Rain" "Light Rain"
"1803" 2015-03-05 "4:00 PM" 4 1 81 1025.1 10 "NE (40°)" 14.3 NA "" "Rain" "Light Rain"
"1804" 2015-03-05 "4:30 PM" 4 1 81 1025.1 10 "NE (40°)" 14.3 NA "" "Rain" "Light Rain"
"1805" 2015-03-05 "5:00 PM" 4 1 81 1025.1 10 "NNE (30°)" 18 NA "" "Rain" "Light Rain"
"1806" 2015-03-05 "5:30 PM" 4 1 81 1025.1 10 "NNE (30°)" 18 NA "" "Rain" "Light Rain"
"1807" 2015-03-05 "6:00 PM" 4 0 75 1025.1 10 "NE (50°)" 18 NA "" "" "Mostly Cloudy"
"1808" 2015-03-05 "6:30 PM" 4 0 75 1025.1 10 "NE (50°)" 18 NA "" "" "Mostly Cloudy"
"1809" 2015-03-05 "7:00 PM" 4 0 75 1025.1 10 "NE (40°)" 14.3 NA "" "" "Partly Cloudy"
"1810" 2015-03-05 "7:30 PM" 4 0 75 1025.1 10 "NE (40°)" 14.3 NA "" "" "Partly Cloudy"
"1811" 2015-03-05 "8:00 PM" 4 1 81 1025.1 10 "NE (40°)" 18 NA "" "" "Scattered Clouds"
"1812" 2015-03-05 "8:30 PM" 4 1 81 1025.1 10 "NNE (30°)" 14.3 NA "" "" "Scattered Clouds"
"1813" 2015-03-05 "9:00 PM" 4 1 81 1026.1 10 "NE (40°)" 14.3 NA "" "" "Partly Cloudy"
"1814" 2015-03-05 "9:30 PM" 4 1 81 1026.1 10 "NNE (20°)" 10.8 NA "" "" "Partly Cloudy"
"1815" 2015-03-05 "10:00 PM" 4 1 81 1026.1 10 "NE (40°)" 10.8 NA "" "" "Partly Cloudy"
"1816" 2015-03-05 "10:30 PM" 4 1 81 1026.1 10 "NNE (30°)" 14.3 NA "" "" "Partly Cloudy"
"1817" 2015-03-05 "11:00 PM" 4 1 81 1025.1 10 "NNE (20°)" 10.8 NA "" "" "Partly Cloudy"
"1818" 2015-03-05 "11:30 PM" 4 1 81 1025.1 10 "NE (40°)" 10.8 NA "" "" "Scattered Clouds"
"1819" 2015-03-04 "12:00 AM" 6 -2 57 1024 NA "NNE (30°)" 21.6 NA "" "" "Clear"
"1820" 2015-03-04 "12:30 AM" 6 -2 57 1024 NA "NNE (30°)" 21.6 NA "" "" "Clear"
"1821" 2015-03-04 "1:00 AM" 6 -2 57 1024 NA "NNE (20°)" 18 NA "" "" "Clear"
"1822" 2015-03-04 "1:30 AM" 5 -2 61 1024 NA "NNE (20°)" 21.6 NA "" "" "Clear"
"1823" 2015-03-04 "2:00 AM" 5 -3 57 1024 NA "NNE (20°)" 18 NA "" "" "Clear"
"1824" 2015-03-04 "2:30 AM" 5 -3 57 1024 NA "NNE (30°)" 21.6 NA "" "" "Clear"
"1825" 2015-03-04 "3:00 AM" 5 -3 57 1023 NA "NNE (20°)" 21.6 NA "" "" "Clear"
"1826" 2015-03-04 "3:30 AM" 5 -3 57 1023 NA "NNE (30°)" 18 NA "" "" "Clear"
"1827" 2015-03-04 "4:00 AM" 4 -3 61 1024 NA "North (360°)" 14.3 NA "" "" "Clear"
"1828" 2015-03-04 "4:30 AM" 4 -3 61 1024 NA "North (10°)" 14.3 NA "" "" "Clear"
"1829" 2015-03-04 "5:00 AM" 4 -3 61 1024 NA "North (360°)" 18 NA "" "" "Clear"
"1830" 2015-03-04 "5:30 AM" 4 -3 61 1024 NA "North (10°)" 18 NA "" "" "Clear"
"1831" 2015-03-04 "6:00 AM" 4 -3 61 1025.1 NA "North (360°)" 18 NA "" "" "Clear"
"1832" 2015-03-04 "6:30 AM" 4 -4 56 1026.1 NA "North (360°)" 18 NA "" "" "Clear"
"1833" 2015-03-04 "7:00 AM" 3 -3 65 1026.1 NA "North (360°)" 10.8 NA "" "" "Clear"
"1834" 2015-03-04 "7:30 AM" 4 -4 56 1026.1 NA "North (360°)" 14.3 NA "" "" "Clear"
"1835" 2015-03-04 "8:00 AM" 5 -3 57 1027.1 NA "North (360°)" 14.3 NA "" "" "Clear"
"1836" 2015-03-04 "8:30 AM" 5 -3 57 1027.1 NA "North (360°)" 14.3 NA "" "" "Clear"
"1837" 2015-03-04 "9:00 AM" 6 -4 49 1028.1 NA "North (360°)" 14.3 NA "" "" "Clear"
"1838" 2015-03-04 "9:30 AM" 6 -4 49 1028.1 NA "North (350°)" 18 NA "" "" "Clear"
"1839" 2015-03-04 "10:00 AM" 6 -4 49 1028.1 10 "North (360°)" 18 NA "" "" "Partly Cloudy"
"1840" 2015-03-04 "10:30 AM" 7 -3 49 1028.1 10 "North (360°)" 14.3 NA "" "" "Scattered Clouds"
"1841" 2015-03-04 "11:00 AM" 6 -3 53 1028.1 10 "North (360°)" 18 NA "" "" "Scattered Clouds"
"1842" 2015-03-04 "11:30 AM" 6 -4 49 1028.1 10 "North (360°)" 14.3 NA "" "" "Partly Cloudy"
"1843" 2015-03-04 "12:00 PM" 7 -4 46 1027.1 10 "NNE (20°)" 18 NA "" "" "Partly Cloudy"
"1844" 2015-03-04 "12:30 PM" 7 -4 46 1026.1 NA "North (350°)" 18 NA "" "" "Clear"
"1845" 2015-03-04 "1:00 PM" 7 -4 46 1026.1 NA "North (360°)" 18 NA "" "" "Clear"
"1846" 2015-03-04 "1:30 PM" 7 -3 49 1026.1 NA "North (10°)" 18 NA "" "" "Clear"
"1847" 2015-03-04 "2:00 PM" 6 -4 49 1026.1 NA "North (10°)" 18 NA "" "" "Clear"
"1848" 2015-03-04 "2:30 PM" 6 -4 49 1026.1 NA "North (360°)" 18 NA "" "" "Clear"
"1849" 2015-03-04 "3:00 PM" 6 -5 46 1026.1 NA "North (350°)" 14.3 NA "" "" "Clear"
"1850" 2015-03-04 "3:30 PM" 6 -4 49 1026.1 NA "North (360°)" 18 NA "" "" "Clear"
"1851" 2015-03-04 "4:00 PM" 6 -4 49 1026.1 NA "North (10°)" 18 NA "" "" "Clear"
"1852" 2015-03-04 "4:30 PM" 6 -4 49 1026.1 NA "ENE (60°)" 14.3 36 "" "" "Clear"
"1853" 2015-03-04 "5:00 PM" 6 -5 46 1026.1 NA "NE (50°)" 18 NA "" "" "Clear"
"1854" 2015-03-04 "5:30 PM" 5 -5 49 1026.1 NA "NE (40°)" 18 NA "" "" "Clear"
"1855" 2015-03-04 "6:00 PM" 5 -4 53 1027.1 NA "NNE (30°)" 18 NA "" "" "Clear"
"1856" 2015-03-04 "6:30 PM" 5 -4 53 1027.1 NA "NNE (30°)" 18 NA "" "" "Clear"
"1857" 2015-03-04 "7:00 PM" 5 -4 53 1027.1 NA "NNE (30°)" 21.6 NA "" "" "Clear"
"1858" 2015-03-04 "7:30 PM" 5 -4 53 1028.1 NA "NNE (20°)" 18 NA "" "" "Clear"
"1859" 2015-03-04 "8:00 PM" 5 -4 53 1028.1 NA "NNE (30°)" 18 NA "" "" "Clear"
"1860" 2015-03-04 "8:30 PM" 4 -4 56 1028.1 NA "NNE (20°)" 18 NA "" "" "Clear"
"1861" 2015-03-04 "9:00 PM" 5 -4 53 1028.1 NA "NE (50°)" 18 NA "" "" "Clear"
"1862" 2015-03-04 "9:30 PM" 4 -4 56 1028.1 NA "NE (40°)" 18 NA "" "" "Clear"
"1863" 2015-03-04 "10:00 PM" 5 -4 53 1028.1 NA "ENE (60°)" 14.3 NA "" "" "Clear"
"1864" 2015-03-04 "10:30 PM" 4 -4 56 1028.1 NA "NE (40°)" 14.3 NA "" "" "Clear"
"1865" 2015-03-04 "11:00 PM" 4 -4 56 1028.1 NA "NE (50°)" 14.3 NA "" "" "Clear"
"1866" 2015-03-04 "11:30 PM" 4 -4 56 1029.1 NA "NE (50°)" 10.8 NA "" "" "Clear"
"1867" 2015-03-03 "12:00 AM" 8 7 93 1014.2 5 "South (170°)" 14.3 NA "" "Rain" "Light Rain"
"1868" 2015-03-03 "12:30 AM" 8 7 93 1014.2 5 "SSE (160°)" 10.8 NA "" "Rain" "Light Rain"
"1869" 2015-03-03 "1:00 AM" 8 7 93 1014.2 4 "South (170°)" 10.8 NA "" "Rain" "Light Rain"
"1870" 2015-03-03 "1:30 AM" 8 7 93 1014.2 4 "South (190°)" 10.8 NA "" "Rain" "Light Rain"
"1871" 2015-03-03 "2:00 AM" 8 7 93 1014.2 4 "South (170°)" 10.8 NA "" "Rain" "Light Rain"
"1872" 2015-03-03 "2:30 AM" 8 7 93 1014.2 3.1 "SW (230°)" 7.2 NA "" "Rain" "Light Rain"
"1873" 2015-03-03 "3:00 AM" 8 7 93 1013.2 3.1 "WSW (240°)" 3.5 NA "" "Rain" "Light Rain"
"1874" 2015-03-03 "3:30 AM" 8 7 93 1013.2 3.1 "NW (310°)" 7.2 NA "" "Rain" "Light Rain"
"1875" 2015-03-03 "4:00 AM" 8 7 93 1013.2 3.1 "South (180°)" 7.2 NA "" "" "Overcast"
"1876" 2015-03-03 "4:30 AM" 8 7 93 1013.2 2.7 "South (180°)" 7.2 NA "" "Rain" "Light Rain"
"1877" 2015-03-03 "5:00 AM" 8 7 93 1013.2 3.1 "SSW (200°)" 7.2 NA "" "" "Partly Cloudy"
"1878" 2015-03-03 "5:30 AM" 8 7 93 1013.2 2.7 "Variable" 3.5 NA "" "" "Mist"
"1879" 2015-03-03 "6:00 AM" 8 7 93 1013.2 2.7 "West (260°)" 7.2 NA "" "" "Partly Cloudy"
"1880" 2015-03-03 "6:30 AM" 8 8 100 1013.2 2.3 "West (270°)" 7.2 NA "" "" "Mist"
"1881" 2015-03-03 "7:00 AM" 8 8 100 1014.2 1.8 "WSW (250°)" 14.3 NA "" "" "Mist"
"1882" 2015-03-03 "7:30 AM" 8 8 100 1014.2 1.6 "WSW (250°)" 14.3 NA "" "" "Mist"
"1883" 2015-03-03 "8:00 AM" 9 8 93 1014.2 1.8 "WSW (250°)" 10.8 NA "" "" "Mist"
"1884" 2015-03-03 "8:30 AM" 9 8 93 1014.2 2.3 "West (260°)" 10.8 NA "" "" "Mist"
"1885" 2015-03-03 "9:00 AM" 10 8 87 1014.2 2.6 "West (270°)" 14.3 NA "" "" "Mist"
"1886" 2015-03-03 "9:30 AM" 11 7 76 1014.2 3.5 "West (270°)" 18 NA "" "" "Mist"
"1887" 2015-03-03 "10:00 AM" 12 8 77 1014.2 4 "West (270°)" 18 NA "" "" "Mist"
"1888" 2015-03-03 "10:30 AM" 13 8 72 1015.2 5 "West (260°)" 21.6 NA "" "" "Mist"
"1889" 2015-03-03 "11:00 AM" 13 7 67 1014.2 6 "West (270°)" 21.6 NA "" "" ""
"1890" 2015-03-03 "11:30 AM" 13 6 63 1014.2 6.9 "West (270°)" 25.3 NA "" "" ""
"1891" 2015-03-03 "12:00 PM" 13 7 67 1014.2 8 "West (270°)" 25.3 NA "" "" "Scattered Clouds"
"1892" 2015-03-03 "12:30 PM" 14 7 63 1014.2 8 "West (280°)" 21.6 39.6 "" "" "Mostly Cloudy"
"1893" 2015-03-03 "1:00 PM" 14 6 59 1014.2 8 "WNW (290°)" 28.8 NA "" "" "Mostly Cloudy"
"1894" 2015-03-03 "1:30 PM" 14 5 55 1014.2 8 "WNW (300°)" 25.3 NA "" "" "Scattered Clouds"
"1895" 2015-03-03 "2:00 PM" 13 5 58 1014.2 8 "NW (310°)" 28.8 46.8 "" "" "Partly Cloudy"
"1896" 2015-03-03 "2:30 PM" 14 5 55 1014.2 8 "NW (310°)" 25.3 43.1 "" "" "Partly Cloudy"
"1897" 2015-03-03 "3:00 PM" 14 4 51 1014.2 8 "NW (320°)" 28.8 NA "" "" "Partly Cloudy"
"1898" 2015-03-03 "3:30 PM" 14 4 51 1014.2 8 "NW (310°)" 28.8 NA "" "" ""
"1899" 2015-03-03 "4:00 PM" 13 4 54 1015.2 8 "NW (310°)" 28.8 NA "" "" ""
"1900" 2015-03-03 "4:30 PM" 13 5 58 1015.2 8 "NW (310°)" 25.3 NA "" "" "Scattered Clouds"
"1901" 2015-03-03 "5:00 PM" 13 4 54 1016.3 8 "NNW (330°)" 25.3 NA "" "" "Partly Cloudy"
"1902" 2015-03-03 "5:30 PM" 8 4 76 1017.3 2.6 "North (10°)" 43.1 NA "" "" "Scattered Clouds"
"1903" 2015-03-03 "6:00 PM" 8 3 71 1017.9 2.6 "North (10°)" 39.6 NA "" "" "Scattered Clouds"
"1904" 2015-03-03 "6:30 PM" 7 2 71 1019 5 "North (360°)" 39.6 NA "" "" "Haze"
"1905" 2015-03-03 "7:00 PM" 7 1 66 1020 10 "North (360°)" 36 NA "" "" "Partly Cloudy"
"1906" 2015-03-03 "7:30 PM" 7 1 66 1020 10 "North (360°)" 36 NA "" "" "Partly Cloudy"
"1907" 2015-03-03 "8:00 PM" 6 0 66 1021 NA "North (360°)" 32.3 NA "" "" "Clear"
"1908" 2015-03-03 "8:30 PM" 6 0 66 1022 NA "North (360°)" 28.8 NA "" "" "Clear"
"1909" 2015-03-03 "9:00 PM" 6 0 66 1022 NA "North (10°)" 28.8 NA "" "" "Clear"
"1910" 2015-03-03 "9:30 PM" 6 0 66 1023 NA "North (10°)" 25.3 NA "" "" "Clear"
"1911" 2015-03-03 "10:00 PM" 6 -1 61 1023 NA "North (10°)" 25.3 NA "" "" "Clear"
"1912" 2015-03-03 "10:30 PM" 6 -1 61 1023 NA "North (10°)" 25.3 NA "" "" "Clear"
"1913" 2015-03-03 "11:00 PM" 5 0 70 1023 NA "North (10°)" 18 NA "" "" "Clear"
"1914" 2015-03-03 "11:30 PM" 5 -1 65 1023 NA "North (10°)" 10.8 NA "" "" "Clear"
"1915" 2015-03-02 "12:00 AM" 6 2 76 1024 6.9 "Variable" 3.5 NA "" "" ""
"1916" 2015-03-02 "12:30 AM" 5 2 81 1025.1 6.9 "SSW (210°)" 3.5 NA "" "" ""
"1917" 2015-03-02 "1:00 AM" 6 2 76 1024 6.9 "Variable" 3.5 NA "" "" ""
"1918" 2015-03-02 "1:30 AM" 6 2 76 1024 6.9 "Variable" 3.5 NA "" "" ""
"1919" 2015-03-02 "2:00 AM" 5 2 81 1024 6.9 "Variable" 3.5 NA "" "" ""
"1920" 2015-03-02 "2:30 AM" 4 2 87 1023 6.9 "South (180°)" 3.5 NA "" "" ""
"1921" 2015-03-02 "3:00 AM" 4 2 87 1023 6 "SSE (160°)" 3.5 NA "" "" ""
"1922" 2015-03-02 "3:30 AM" 4 2 87 1023 6 "SSW (210°)" 3.5 NA "" "" ""
"1923" 2015-03-02 "4:00 AM" 3 2 93 1023 6 "SW (230°)" 7.2 NA "" "" ""
"1924" 2015-03-02 "4:30 AM" 3 1 87 1022 6 "SW (230°)" 3.5 NA "" "" ""
"1925" 2015-03-02 "5:00 AM" 3 1 87 1023 6 "WSW (240°)" 7.2 NA "" "" ""
"1926" 2015-03-02 "5:30 AM" 3 2 93 1023 6 "South (180°)" 3.5 NA "" "" ""
"1927" 2015-03-02 "6:00 AM" 3 1 87 1022 5 "SSE (160°)" 3.5 NA "" "" "Mist"
"1928" 2015-03-02 "6:30 AM" 3 1 87 1022 3.5 "SSE (150°)" 3.5 NA "" "" "Mist"
"1929" 2015-03-02 "7:00 AM" 3 1 87 1023 3.5 "South (190°)" 7.2 NA "" "" "Mist"
"1930" 2015-03-02 "7:30 AM" 5 3 87 1023 3.5 "South (190°)" 3.5 NA "" "" "Mist"
"1931" 2015-03-02 "8:00 AM" 6 3 81 1023 3.5 "SSE (160°)" 7.2 NA "" "" "Mist"
"1932" 2015-03-02 "8:30 AM" 7 3 76 1023 4 "South (180°)" 7.2 NA "" "" "Mist"
"1933" 2015-03-02 "9:00 AM" 7 2 71 1022 4 "South (170°)" 14.3 NA "" "" "Haze"
"1934" 2015-03-02 "9:30 AM" 9 2 62 1023 5 "South (180°)" 14.3 NA "" "" "Haze"
"1935" 2015-03-02 "10:00 AM" 9 2 62 1022 5 "SSE (160°)" 10.8 NA "" "" "Haze"
"1936" 2015-03-02 "10:30 AM" 10 1 54 1021 6 "South (170°)" 18 NA "" "" ""
"1937" 2015-03-02 "11:00 AM" 11 0 47 1021 6.9 "South (170°)" 21.6 NA "" "" ""
"1938" 2015-03-02 "11:30 AM" 12 -1 41 1021 6.9 "South (170°)" 18 NA "" "" ""
"1939" 2015-03-02 "12:00 PM" 11 -2 41 1020 6.9 "SSE (150°)" 18 NA "" "" ""
"1940" 2015-03-02 "12:30 PM" 12 -1 41 1019 6.9 "SE (130°)" 21.6 NA "" "" ""
"1941" 2015-03-02 "1:00 PM" 11 -2 41 1017.9 6.9 "SE (140°)" 21.6 NA "" "" ""
"1942" 2015-03-02 "1:30 PM" 11 -1 44 1017.9 6.9 "SSE (150°)" 25.3 NA "" "" ""
"1943" 2015-03-02 "2:00 PM" 12 -1 41 1017.3 6.9 "SE (140°)" 21.6 39.6 "" "" ""
"1944" 2015-03-02 "2:30 PM" 11 0 47 1016.3 6.9 "SE (140°)" 25.3 NA "" "" ""
"1945" 2015-03-02 "3:00 PM" 11 1 50 1016.3 6 "SSE (150°)" 21.6 NA "" "" ""
"1946" 2015-03-02 "3:30 PM" 11 2 54 1016.3 6 "SSE (150°)" 25.3 NA "" "" ""
"1947" 2015-03-02 "4:00 PM" 11 2 54 1015.2 6 "SSE (150°)" 21.6 NA "" "" ""
"1948" 2015-03-02 "4:30 PM" 11 2 54 1015.2 6 "SE (140°)" 25.3 NA "" "" ""
"1949" 2015-03-02 "5:00 PM" 11 3 58 1015.2 5 "SSE (150°)" 21.6 NA "" "" "Haze"
"1950" 2015-03-02 "5:30 PM" 10 3 62 1014.2 5 "SE (140°)" 18 NA "" "" "Haze"
"1951" 2015-03-02 "6:00 PM" 10 3 62 1013.2 5 "SE (130°)" 25.3 NA "" "" "Haze"
"1952" 2015-03-02 "6:30 PM" 10 4 66 1014.2 6 "SE (140°)" 21.6 NA "" "" ""
"1953" 2015-03-02 "7:00 PM" 9 4 71 1014.2 6 "SE (140°)" 18 NA "" "" ""
"1954" 2015-03-02 "7:30 PM" 10 4 66 1014.2 6 "SE (140°)" 21.6 NA "" "" ""
"1955" 2015-03-02 "8:00 PM" 10 4 66 1014.2 6 "SE (140°)" 18 36 "" "" ""
"1956" 2015-03-02 "8:30 PM" 10 4 66 1014.2 6.9 "SE (140°)" 21.6 NA "" "" ""
"1957" 2015-03-02 "9:00 PM" 10 4 66 1014.2 8 "SE (140°)" 21.6 NA "" "" ""
"1958" 2015-03-02 "9:30 PM" 10 4 66 1014.2 8 "SSE (150°)" 18 NA "" "Rain" "Light Rain"
"1959" 2015-03-02 "10:00 PM" 9 5 76 1014.2 6.9 "SE (140°)" 18 NA "" "Rain" "Light Rain"
"1960" 2015-03-02 "10:30 PM" 9 6 82 1014.2 6.9 "SE (140°)" 18 NA "" "Rain" "Light Rain"
"1961" 2015-03-02 "11:00 PM" 9 6 82 1014.2 6 "SSE (150°)" 14.3 NA "" "Rain" "Light Rain"
"1962" 2015-03-02 "11:30 PM" 9 6 82 1014.2 6 "SSE (160°)" 14.3 NA "" "Rain" "Light Rain"
"1963" 2015-03-01 "12:00 AM" 4 2 87 1026.1 10 "NW (310°)" 21.6 39.6 "" "" "Overcast"
"1964" 2015-03-01 "12:30 AM" 4 2 87 1026.1 10 "NNW (330°)" 25.3 NA "" "" "Overcast"
"1965" 2015-03-01 "1:00 AM" 4 1 81 1026.1 10 "NW (320°)" 25.3 NA "" "" "Overcast"
"1966" 2015-03-01 "1:30 AM" 4 2 87 1026.1 10 "NW (320°)" 21.6 NA "" "" "Overcast"
"1967" 2015-03-01 "2:00 AM" 4 2 87 1026.1 10 "NW (320°)" 21.6 NA "" "" "Overcast"
"1968" 2015-03-01 "2:30 AM" 4 1 81 1026.1 10 "NW (320°)" 25.3 NA "" "" "Mostly Cloudy"
"1969" 2015-03-01 "3:00 AM" 3 1 87 1025.1 10 "NW (320°)" 21.6 NA "" "" "Mostly Cloudy"
"1970" 2015-03-01 "3:30 AM" 3 1 87 1025.1 10 "NW (310°)" 18 NA "" "" "Overcast"
"1971" 2015-03-01 "4:00 AM" 3 1 87 1026.1 10 "NW (320°)" 21.6 NA "" "" "Overcast"
"1972" 2015-03-01 "4:30 AM" 3 0 81 1026.1 10 "WNW (300°)" 21.6 NA "" "" "Overcast"
"1973" 2015-03-01 "5:00 AM" 3 0 81 1026.1 10 "NW (320°)" 21.6 NA "" "" "Overcast"
"1974" 2015-03-01 "5:30 AM" 3 0 81 1026.1 10 "NW (310°)" 18 NA "" "" "Scattered Clouds"
"1975" 2015-03-01 "6:00 AM" 3 0 81 1027.1 10 "NW (320°)" 21.6 NA "" "" "Scattered Clouds"
"1976" 2015-03-01 "6:30 AM" 3 0 81 1027.1 10 "NNW (330°)" 18 NA "" "" "Scattered Clouds"
"1977" 2015-03-01 "7:00 AM" 3 1 87 1028.1 6 "NW (320°)" 18 NA "" "" ""
"1978" 2015-03-01 "7:30 AM" 3 0 81 1028.1 6 "NW (320°)" 18 NA "" "" ""
"1979" 2015-03-01 "8:00 AM" 4 0 75 1028.1 6 "WNW (300°)" 21.6 NA "" "" ""
"1980" 2015-03-01 "8:30 AM" 4 1 81 1028.1 6 "NNW (330°)" 21.6 NA "" "" ""
"1981" 2015-03-01 "9:00 AM" 5 0 70 1028.1 6.9 "NW (320°)" 21.6 NA "" "" ""
"1982" 2015-03-01 "9:30 AM" 6 0 66 1027.1 6.9 "NW (320°)" 21.6 NA "" "" ""
"1983" 2015-03-01 "10:00 AM" 6 0 66 1028.1 6.9 "NW (320°)" 25.3 NA "" "" ""
"1984" 2015-03-01 "10:30 AM" 7 0 61 1028.1 6.9 "NNW (330°)" 28.8 NA "" "" ""
"1985" 2015-03-01 "11:00 AM" 7 1 66 1027.1 6.9 "NNW (330°)" 21.6 39.6 "" "" ""
"1986" 2015-03-01 "11:30 AM" 8 0 57 1027.1 6.9 "NNW (330°)" 21.6 NA "" "" "Partly Cloudy"
"1987" 2015-03-01 "12:00 PM" 8 0 57 1027.1 6.9 "NW (310°)" 21.6 NA "" "" "Scattered Clouds"
"1988" 2015-03-01 "12:30 PM" 9 1 58 1027.1 6.9 "NW (320°)" 25.3 NA "" "" "Scattered Clouds"
"1989" 2015-03-01 "1:00 PM" 9 1 58 1026.1 6.9 "NW (320°)" 18 NA "" "" "Partly Cloudy"
"1990" 2015-03-01 "1:30 PM" 10 1 54 1025.1 6.9 "NNW (340°)" 18 NA "" "" "Partly Cloudy"
"1991" 2015-03-01 "2:00 PM" 10 0 50 1025.1 6 "NW (320°)" 14.3 32.3 "" "" "Partly Cloudy"
"1992" 2015-03-01 "2:30 PM" 9 0 54 1026.1 6 "NW (320°)" 18 NA "" "" "Partly Cloudy"
"1993" 2015-03-01 "3:00 PM" 9 0 54 1025.1 6 "WNW (300°)" 18 NA "" "" "Partly Cloudy"
"1994" 2015-03-01 "3:30 PM" 9 0 54 1025.1 6 "WNW (290°)" 14.3 NA "" "" "Partly Cloudy"
"1995" 2015-03-01 "4:00 PM" 9 0 54 1025.1 6 "WNW (300°)" 14.3 NA "" "" "Partly Cloudy"
"1996" 2015-03-01 "4:30 PM" 9 0 54 1025.1 6 "West (270°)" 14.3 NA "" "" "Partly Cloudy"
"1997" 2015-03-01 "5:00 PM" 9 0 54 1025.1 6 "West (270°)" 14.3 NA "" "" ""
"1998" 2015-03-01 "5:30 PM" 8 2 66 1025.1 6 "West (260°)" 14.3 NA "" "" ""
"1999" 2015-03-01 "6:00 PM" 8 2 66 1025.1 6 "WSW (250°)" 14.3 NA "" "" ""
"2000" 2015-03-01 "6:30 PM" 7 2 71 1025.1 6.9 "WSW (250°)" 10.8 NA "" "" ""
"2001" 2015-03-01 "7:00 PM" 7 1 66 1026.1 6.9 "West (260°)" 14.3 NA "" "" ""
"2002" 2015-03-01 "7:30 PM" 7 2 71 1026.1 6.9 "SW (230°)" 10.8 NA "" "" ""
"2003" 2015-03-01 "8:00 PM" 7 2 71 1025.1 6.9 "SW (230°)" 7.2 NA "" "" ""
"2004" 2015-03-01 "8:30 PM" 7 2 71 1026.1 6.9 "West (270°)" 10.8 NA "" "" ""
"2005" 2015-03-01 "9:00 PM" 7 2 71 1025.1 6.9 "WSW (240°)" 7.2 NA "" "" ""
"2006" 2015-03-01 "9:30 PM" 7 2 71 1025.1 6.9 "West (260°)" 7.2 NA "" "" ""
"2007" 2015-03-01 "10:00 PM" 6 2 76 1025.1 6.9 "WSW (250°)" 7.2 NA "" "" ""
"2008" 2015-03-01 "10:30 PM" 6 2 76 1025.1 6.9 "WSW (240°)" 7.2 NA "" "" ""
"2009" 2015-03-01 "11:00 PM" 6 2 76 1025.1 6.9 "Calm" NA NA "" "" ""
"2010" 2015-03-01 "11:30 PM" 6 2 76 1025.1 6.9 "Variable" 3.5 NA "" "" ""
"2011" 2015-02-28 "12:00 AM" 5 3 87 1026.1 10 "East (90°)" 7.2 NA "" "Rain" "Light Rain"
"2012" 2015-02-28 "12:30 AM" 5 3 87 1026.1 10 "Variable" 3.5 NA "" "Rain" "Light Rain"
"2013" 2015-02-28 "1:00 AM" 5 3 87 1025.1 10 "ENE (60°)" 7.2 NA "" "Rain" "Light Rain"
"2014" 2015-02-28 "1:30 AM" 5 3 87 1025.1 10 "Variable" 3.5 NA "" "Rain" "Light Rain"
"2015" 2015-02-28 "2:00 AM" 5 4 93 1025.1 10 "NNE (20°)" 7.2 NA "" "Rain" "Light Rain"
"2016" 2015-02-28 "2:30 AM" 5 4 93 1025.1 10 "NNE (20°)" 7.2 NA "" "Rain" "Light Rain"
"2017" 2015-02-28 "3:00 AM" 5 4 93 1025.1 10 "NE (50°)" 10.8 NA "" "Rain" "Light Rain"
"2018" 2015-02-28 "3:30 AM" 5 4 93 1024 10 "ENE (60°)" 10.8 NA "" "Rain" "Light Rain"
"2019" 2015-02-28 "4:00 AM" 5 4 93 1024 10 "ENE (60°)" 14.3 NA "" "Rain" "Light Rain"
"2020" 2015-02-28 "4:30 AM" 5 3 87 1024 10 "ENE (60°)" 14.3 NA "" "Rain" "Light Rain"
"2021" 2015-02-28 "5:00 AM" 5 4 93 1024 10 "NE (50°)" 10.8 NA "" "Rain" "Light Rain"
"2022" 2015-02-28 "5:30 AM" 5 4 93 1024 10 "NE (50°)" 18 NA "" "Rain" "Light Rain"
"2023" 2015-02-28 "6:00 AM" 5 3 87 1024 10 "ENE (60°)" 18 NA "" "Rain" "Light Rain"
"2024" 2015-02-28 "6:30 AM" 5 3 87 1024 10 "ENE (60°)" 18 NA "" "Rain" "Light Rain"
"2025" 2015-02-28 "7:00 AM" 5 4 93 1024 10 "ENE (60°)" 14.3 NA "" "Rain" "Light Rain"
"2026" 2015-02-28 "7:30 AM" 5 3 87 1024 10 "ENE (60°)" 14.3 NA "" "Rain" "Light Rain"
"2027" 2015-02-28 "8:00 AM" 5 3 87 1024 8 "ENE (60°)" 18 NA "" "Rain" "Light Rain"
"2028" 2015-02-28 "8:30 AM" 5 3 87 1024 10 "ENE (60°)" 14.3 NA "" "Rain" "Light Rain"
"2029" 2015-02-28 "9:00 AM" 5 3 87 1023 10 "ENE (70°)" 18 NA "" "" "Overcast"
"2030" 2015-02-28 "9:30 AM" 5 4 93 1023 10 "ENE (60°)" 14.3 NA "" "Rain" "Light Rain"
"2031" 2015-02-28 "10:00 AM" 5 4 93 1024 10 "ENE (60°)" 14.3 NA "" "Rain" "Light Rain"
"2032" 2015-02-28 "10:30 AM" 5 4 93 1023 10 "ENE (60°)" 14.3 NA "" "Rain" "Light Rain"
"2033" 2015-02-28 "11:00 AM" 6 4 87 1023 10 "NE (40°)" 14.3 NA "" "Rain" "Light Rain"
"2034" 2015-02-28 "11:30 AM" 5 4 93 1023 10 "NE (40°)" 18 NA "" "Rain" "Light Rain"
"2035" 2015-02-28 "12:00 PM" 6 5 93 1022 6 "NE (40°)" 10.8 NA "" "Rain" "Rain"
"2036" 2015-02-28 "12:30 PM" 6 5 93 1023 6.9 "North (10°)" 10.8 NA "" "Rain" "Light Rain"
"2037" 2015-02-28 "1:00 PM" 5 4 93 1021 6 "NNE (30°)" 14.3 NA "" "Rain" "Light Rain"
"2038" 2015-02-28 "1:30 PM" 5 5 100 1021 6 "North (10°)" 14.3 NA "" "Rain" "Light Rain"
"2039" 2015-02-28 "2:00 PM" 5 5 100 1021 6 "NNE (20°)" 14.3 NA "" "Rain" "Light Rain"
"2040" 2015-02-28 "2:30 PM" 5 4 93 1021 6.9 "North (10°)" 18 NA "" "Rain" "Light Rain"
"2041" 2015-02-28 "3:00 PM" 5 5 100 1021 10 "North (350°)" 18 NA "" "Rain" "Light Rain"
"2042" 2015-02-28 "3:30 PM" 5 4 93 1021 10 "North (360°)" 21.6 NA "" "Rain" "Light Rain"
"2043" 2015-02-28 "4:00 PM" 5 4 93 1022 6.9 "North (350°)" 21.6 NA "" "Rain" "Light Rain"
"2044" 2015-02-28 "4:30 PM" 5 4 93 1022 6 "North (360°)" 21.6 NA "" "Rain" "Light Rain"
"2045" 2015-02-28 "5:00 PM" 4 3 93 1022 6 "North (360°)" 21.6 NA "" "Rain" "Light Rain"
"2046" 2015-02-28 "5:30 PM" 4 3 93 1022 6 "North (350°)" 18 NA "" "Rain" "Light Rain"
"2047" 2015-02-28 "6:00 PM" 4 3 93 1023 6 "North (360°)" 18 NA "" "" "Overcast"
"2048" 2015-02-28 "6:30 PM" 4 3 93 1023 10 "North (360°)" 21.6 NA "" "" "Overcast"
"2049" 2015-02-28 "7:00 PM" 4 3 93 1023 10 "North (350°)" 18 NA "" "" "Overcast"
"2050" 2015-02-28 "7:30 PM" 4 3 93 1024 10 "NNW (340°)" 21.6 NA "" "" "Overcast"
"2051" 2015-02-28 "8:00 PM" 4 3 93 1024 10 "NNW (340°)" 18 NA "" "" "Overcast"
"2052" 2015-02-28 "8:30 PM" 4 3 93 1024 10 "NNW (340°)" 21.6 NA "" "" "Overcast"
"2053" 2015-02-28 "9:00 PM" 4 3 93 1024 10 "NNW (330°)" 25.3 NA "" "" "Overcast"
"2054" 2015-02-28 "9:30 PM" 4 3 93 1025.1 10 "NNW (340°)" 25.3 NA "" "" "Overcast"
"2055" 2015-02-28 "10:00 PM" 4 3 93 1025.1 10 "NNW (340°)" 21.6 NA "" "" "Overcast"
"2056" 2015-02-28 "10:30 PM" 4 3 93 1025.1 10 "NNW (340°)" 21.6 NA "" "" "Overcast"
"2057" 2015-02-28 "11:00 PM" 4 2 87 1026.1 10 "NNW (340°)" 25.3 NA "" "" "Overcast"
"2058" 2015-02-28 "11:30 PM" 4 3 93 1026.1 10 "NW (320°)" 21.6 NA "" "" "Overcast"
"2059" 2015-02-27 "12:00 AM" 8 2 66 1025.1 NA "ENE (70°)" 14.3 NA "" "" "Clear"
"2060" 2015-02-27 "12:30 AM" 8 2 66 1026.1 NA "ENE (70°)" 14.3 32.3 "" "" "Clear"
"2061" 2015-02-27 "1:00 AM" 8 2 66 1026.1 NA "East (90°)" 14.3 NA "" "" "Clear"
"2062" 2015-02-27 "1:30 AM" 8 2 66 1026.1 NA "East (80°)" 14.3 32.3 "" "" "Clear"
"2063" 2015-02-27 "2:00 AM" 8 2 66 1026.1 NA "East (90°)" 14.3 NA "" "" "Clear"
"2064" 2015-02-27 "2:30 AM" 8 1 62 1025.1 NA "East (90°)" 18 NA "" "" "Clear"
"2065" 2015-02-27 "3:00 AM" 8 1 62 1025.1 NA "East (90°)" 18 NA "" "" "Clear"
"2066" 2015-02-27 "3:30 AM" 8 2 66 1025.1 NA "East (80°)" 14.3 NA "" "" "Clear"
"2067" 2015-02-27 "4:00 AM" 8 2 66 1025.1 NA "East (90°)" 18 NA "" "" "Clear"
"2068" 2015-02-27 "4:30 AM" 8 1 62 1025.1 NA "East (100°)" 14.3 NA "" "" "Clear"
"2069" 2015-02-27 "5:00 AM" 8 1 62 1025.1 NA "East (80°)" 14.3 NA "" "" "Clear"
"2070" 2015-02-27 "5:30 AM" 8 1 62 1026.1 NA "East (90°)" 10.8 NA "" "" "Clear"
"2071" 2015-02-27 "6:00 AM" 8 1 62 1026.1 10 "East (80°)" 14.3 NA "" "Rain" "Light Rain"
"2072" 2015-02-27 "6:30 AM" 8 1 62 1026.1 10 "East (80°)" 14.3 NA "" "Rain" "Light Rain"
"2073" 2015-02-27 "7:00 AM" 8 0 57 1026.1 NA "East (80°)" 18 NA "" "" "Clear"
"2074" 2015-02-27 "7:30 AM" 7 1 66 1027.1 10 "East (80°)" 21.6 NA "" "Rain" "Light Rain"
"2075" 2015-02-27 "8:00 AM" 7 1 66 1027.1 10 "East (80°)" 21.6 NA "" "Rain" "Light Rain"
"2076" 2015-02-27 "8:30 AM" 7 2 71 1027.1 10 "East (80°)" 18 NA "" "Rain" "Light Rain"
"2077" 2015-02-27 "9:00 AM" 7 1 66 1027.1 10 "East (80°)" 21.6 NA "" "Rain" "Light Rain"
"2078" 2015-02-27 "9:30 AM" 7 2 71 1027.1 10 "ENE (70°)" 21.6 NA "" "Rain" "Light Rain"
"2079" 2015-02-27 "10:00 AM" 7 1 66 1027.1 10 "East (80°)" 18 NA "" "Rain" "Light Rain"
"2080" 2015-02-27 "10:30 AM" 7 2 71 1027.1 10 "ENE (70°)" 21.6 NA "" "Rain" "Light Rain"
"2081" 2015-02-27 "11:00 AM" 7 1 66 1027.1 10 "East (80°)" 21.6 NA "" "Rain" "Light Rain"
"2082" 2015-02-27 "11:30 AM" 7 1 66 1027.1 10 "East (80°)" 25.3 NA "" "" "Scattered Clouds"
"2083" 2015-02-27 "12:00 PM" 7 1 66 1026.1 10 "East (90°)" 25.3 NA "" "" "Scattered Clouds"
"2084" 2015-02-27 "12:30 PM" 7 1 66 1027.1 10 "ENE (70°)" 18 36 "" "Rain" "Light Rain"
"2085" 2015-02-27 "1:00 PM" 6 2 76 1027.1 10 "East (80°)" 14.3 36 "" "Rain" "Light Rain"
"2086" 2015-02-27 "1:30 PM" 5 3 87 1026.1 8 "ENE (60°)" 14.3 NA "" "Rain" "Rain"
"2087" 2015-02-27 "2:00 PM" 4 2 87 1026.1 8 "ENE (70°)" 14.3 NA "" "Rain" "Heavy Rain"
"2088" 2015-02-27 "2:30 PM" 4 2 87 1026.1 8 "ENE (70°)" 10.8 NA "" "Rain" "Rain"
"2089" 2015-02-27 "3:00 PM" 4 2 87 1026.1 6.9 "ENE (70°)" 14.3 NA "" "Rain" "Light Rain"
"2090" 2015-02-27 "3:30 PM" 4 2 87 1026.1 6.9 "ENE (60°)" 18 36 "" "Rain" "Rain"
"2091" 2015-02-27 "4:00 PM" 4 2 87 1026.1 6.9 "ENE (60°)" 14.3 NA "" "Rain" "Rain"
"2092" 2015-02-27 "4:30 PM" 4 2 87 1026.1 6.9 "ENE (70°)" 18 NA "" "Rain" "Rain"
"2093" 2015-02-27 "5:00 PM" 4 2 87 1027.1 8 "ENE (60°)" 14.3 NA "" "Rain" "Light Rain"
"2094" 2015-02-27 "5:30 PM" 4 2 87 1026.1 10 "ENE (60°)" 14.3 NA "" "Rain" "Light Rain"
"2095" 2015-02-27 "6:00 PM" 4 2 87 1027.1 10 "ENE (70°)" 18 NA "" "Rain" "Light Rain"
"2096" 2015-02-27 "6:30 PM" 4 2 87 1027.1 10 "ENE (70°)" 18 NA "" "Rain" "Light Rain"
"2097" 2015-02-27 "7:00 PM" 4 2 87 1027.1 10 "ENE (60°)" 21.6 NA "" "" "Mostly Cloudy"
"2098" 2015-02-27 "7:30 PM" 5 2 81 1027.1 10 "ENE (60°)" 18 NA "" "" "Mostly Cloudy"
"2099" 2015-02-27 "8:00 PM" 5 2 81 1027.1 10 "ENE (60°)" 21.6 43.1 "" "Rain" "Light Rain"
"2100" 2015-02-27 "8:30 PM" 5 2 81 1027.1 10 "ENE (60°)" 18 36 "" "Rain" "Light Rain"
"2101" 2015-02-27 "9:00 PM" 5 3 87 1027.1 10 "ENE (60°)" 10.8 NA "" "Rain" "Light Rain"
"2102" 2015-02-27 "9:30 PM" 5 3 87 1027.1 10 "ENE (60°)" 14.3 NA "" "Rain" "Light Rain"
"2103" 2015-02-27 "10:00 PM" 5 3 87 1027.1 10 "East (80°)" 14.3 NA "" "Rain" "Light Rain"
"2104" 2015-02-27 "10:30 PM" 5 3 87 1027.1 10 "East (80°)" 10.8 NA "" "Rain" "Light Rain"
"2105" 2015-02-27 "11:00 PM" 5 3 87 1026.1 10 "East (80°)" 10.8 NA "" "" "Mostly Cloudy"
"2106" 2015-02-27 "11:30 PM" 5 3 87 1026.1 10 "East (80°)" 10.8 NA "" "Rain" "Light Rain"
"2107" 2015-02-26 "12:00 AM" 9 8 93 1017.9 6 "North (350°)" 14.3 NA "" "Rain" "Light Rain"
"2108" 2015-02-26 "12:30 AM" 9 8 93 1019 6 "NNW (330°)" 18 NA "" "Rain" "Light Rain"
"2109" 2015-02-26 "1:00 AM" 9 8 93 1019 6 "North (360°)" 14.3 NA "" "Rain" "Rain"
"2110" 2015-02-26 "1:30 AM" 9 8 93 1019 6 "North (350°)" 14.3 NA "" "Rain" "Rain"
"2111" 2015-02-26 "2:00 AM" 9 8 93 1017.9 6 "NNE (30°)" 14.3 NA "" "Rain" "Light Rain"
"2112" 2015-02-26 "2:30 AM" 9 8 93 1017.9 6 "NNE (30°)" 7.2 NA "" "Rain" "Light Rain"
"2113" 2015-02-26 "3:00 AM" 9 8 93 1017.9 6 "North (360°)" 3.5 NA "" "Rain" "Light Rain"
"2114" 2015-02-26 "3:30 AM" 9 8 93 1017.9 6 "NNW (340°)" 14.3 NA "" "Rain" "Light Rain"
"2115" 2015-02-26 "4:00 AM" 8 8 100 1017.9 6 "North (350°)" 7.2 NA "" "Rain" "Light Rain"
"2116" 2015-02-26 "4:30 AM" 8 8 100 1019 6 "North (360°)" 7.2 NA "" "Rain" "Light Rain"
"2117" 2015-02-26 "5:00 AM" 8 8 100 1019 6 "North (10°)" 10.8 NA "" "Rain" "Light Rain"
"2118" 2015-02-26 "5:30 AM" 8 8 100 1019 6 "North (350°)" 7.2 NA "" "Rain" "Light Rain"
"2119" 2015-02-26 "6:00 AM" 8 8 100 1019 6.9 "North (10°)" 14.3 NA "" "Rain" "Light Rain"
"2120" 2015-02-26 "6:30 AM" 8 8 100 1019 6.9 "North (360°)" 14.3 NA "" "" "Partly Cloudy"
"2121" 2015-02-26 "7:00 AM" 9 8 93 1020 6.9 "NNE (20°)" 18 NA "" "" "Partly Cloudy"
"2122" 2015-02-26 "7:30 AM" 9 7 87 1020 6.9 "NNE (30°)" 21.6 NA "" "" "Scattered Clouds"
"2123" 2015-02-26 "8:00 AM" 9 7 87 1020 6.9 "NE (40°)" 18 NA "" "" ""
"2124" 2015-02-26 "8:30 AM" 10 7 82 1021 6.9 "ENE (60°)" 14.3 NA "" "" "Mostly Cloudy"
"2125" 2015-02-26 "9:00 AM" 9 7 87 1021 4.5 "NNE (20°)" 25.3 NA "" "" "Mostly Cloudy"
"2126" 2015-02-26 "9:30 AM" 9 7 87 1021 4.5 "NNE (30°)" 25.3 NA "" "" "Mostly Cloudy"
"2127" 2015-02-26 "10:00 AM" 9 7 87 1021 4 "NNE (30°)" 21.6 NA "" "" "Mostly Cloudy"
"2128" 2015-02-26 "10:30 AM" 9 7 87 1021 4 "NNE (30°)" 25.3 NA "" "" "Mostly Cloudy"
"2129" 2015-02-26 "11:00 AM" 9 7 87 1022 4 "NNE (30°)" 21.6 NA "" "" "Mostly Cloudy"
"2130" 2015-02-26 "11:30 AM" 9 7 87 1022 3.5 "NE (40°)" 18 NA "" "" "Mostly Cloudy"
"2131" 2015-02-26 "12:00 PM" 9 7 87 1021 3.5 "NE (40°)" 18 NA "" "" "Mostly Cloudy"
"2132" 2015-02-26 "12:30 PM" 9 7 87 1022 3.5 "NNE (20°)" 21.6 NA "" "" "Mostly Cloudy"
"2133" 2015-02-26 "1:00 PM" 10 6 76 1022 3.1 "NNE (30°)" 21.6 NA "" "" "Mostly Cloudy"
"2134" 2015-02-26 "1:30 PM" 10 6 76 1021 3.1 "NE (40°)" 21.6 NA "" "" "Mostly Cloudy"
"2135" 2015-02-26 "2:00 PM" 10 6 76 1021 3.1 "NNE (30°)" 21.6 NA "" "" "Mostly Cloudy"
"2136" 2015-02-26 "2:30 PM" 9 6 82 1022 3.1 "NE (40°)" 21.6 NA "" "" "Mostly Cloudy"
"2137" 2015-02-26 "3:00 PM" 9 5 76 1022 4 "NE (50°)" 18 NA "" "" "Mostly Cloudy"
"2138" 2015-02-26 "3:30 PM" 9 5 76 1021 4.5 "NE (50°)" 21.6 NA "" "" "Mostly Cloudy"
"2139" 2015-02-26 "4:00 PM" 9 4 71 1021 8 "NE (40°)" 25.3 NA "" "" "Mostly Cloudy"
"2140" 2015-02-26 "4:30 PM" 9 3 66 1021 10 "ENE (60°)" 25.3 NA "" "" "Partly Cloudy"
"2141" 2015-02-26 "5:00 PM" 9 2 62 1022 NA "NE (50°)" 18 NA "" "" "Clear"
"2142" 2015-02-26 "5:30 PM" 8 3 71 1023 NA "NE (50°)" 18 NA "" "" "Clear"
"2143" 2015-02-26 "6:00 PM" 8 2 66 1023 NA "ENE (60°)" 18 NA "" "" "Clear"
"2144" 2015-02-26 "6:30 PM" 8 2 66 1023 NA "ENE (60°)" 18 NA "" "" "Clear"
"2145" 2015-02-26 "7:00 PM" 8 3 71 1023 NA "NE (50°)" 18 NA "" "" "Clear"
"2146" 2015-02-26 "7:30 PM" 8 2 66 1023 NA "ENE (60°)" 21.6 NA "" "" "Clear"
"2147" 2015-02-26 "8:00 PM" 8 1 62 1024 NA "ENE (70°)" 21.6 NA "" "" "Clear"
"2148" 2015-02-26 "8:30 PM" 8 2 66 1025.1 NA "NE (50°)" 21.6 NA "" "" "Clear"
"2149" 2015-02-26 "9:00 PM" 8 2 66 1025.1 NA "ENE (60°)" 14.3 NA "" "" "Clear"
"2150" 2015-02-26 "9:30 PM" 8 2 66 1025.1 NA "ENE (70°)" 18 NA "" "" "Clear"
"2151" 2015-02-26 "10:00 PM" 8 3 71 1025.1 NA "ENE (70°)" 14.3 NA "" "" "Clear"
"2152" 2015-02-26 "10:30 PM" 8 3 71 1026.1 NA "ENE (60°)" 10.8 NA "" "" "Clear"
"2153" 2015-02-26 "11:00 PM" 8 3 71 1025.1 NA "ENE (70°)" 10.8 NA "" "" "Clear"
"2154" 2015-02-26 "11:30 PM" 8 3 71 1026.1 NA "East (80°)" 14.3 NA "" "" "Clear"
"2155" 2015-02-25 "12:00 AM" 8 6 87 1017.9 10 "ESE (120°)" 10.8 NA "" "Rain" "Light Rain Showers"
"2156" 2015-02-25 "12:30 AM" 8 6 87 1017.9 10 "East (90°)" 10.8 NA "" "Rain" "Light Rain"
"2157" 2015-02-25 "1:00 AM" 8 6 87 1017.9 10 "ESE (110°)" 14.3 NA "" "" "Partly Cloudy"
"2158" 2015-02-25 "1:30 AM" 8 6 87 1017.9 10 "East (90°)" 10.8 NA "" "Rain" "Light Rain"
"2159" 2015-02-25 "2:00 AM" 8 7 93 1017.9 10 "East (100°)" 14.3 NA "" "Rain" "Light Rain"
"2160" 2015-02-25 "2:30 AM" 8 7 93 1017.9 8 "East (100°)" 10.8 NA "" "Rain" "Light Rain"
"2161" 2015-02-25 "3:00 AM" 8 7 93 1017.3 8 "ESE (110°)" 10.8 NA "" "Rain" "Light Rain"
"2162" 2015-02-25 "3:30 AM" 8 7 93 1017.3 10 "ESE (110°)" 14.3 NA "" "Rain" "Light Rain"
"2163" 2015-02-25 "4:00 AM" 8 7 93 1017.3 10 "SE (130°)" 14.3 NA "" "" "Overcast"
"2164" 2015-02-25 "4:30 AM" 8 7 93 1017.3 10 "East (90°)" 10.8 NA "" "" "Overcast"
"2165" 2015-02-25 "5:00 AM" 8 7 93 1017.3 10 "ENE (70°)" 10.8 NA "" "" "Overcast"
"2166" 2015-02-25 "5:30 AM" 8 7 93 1017.3 10 "East (90°)" 10.8 NA "" "" "Overcast"
"2167" 2015-02-25 "6:00 AM" 8 7 93 1016.3 10 "ENE (70°)" 14.3 NA "" "" "Overcast"
"2168" 2015-02-25 "6:30 AM" 8 7 93 1017.3 10 "East (90°)" 10.8 NA "" "" "Overcast"
"2169" 2015-02-25 "7:00 AM" 8 7 93 1016.3 10 "East (100°)" 14.3 NA "" "" "Overcast"
"2170" 2015-02-25 "7:30 AM" 8 7 93 1017.3 10 "East (80°)" 14.3 NA "" "" "Overcast"
"2171" 2015-02-25 "8:00 AM" 8 7 93 1017.3 10 "East (90°)" 18 NA "" "" "Overcast"
"2172" 2015-02-25 "8:30 AM" 8 7 93 1017.9 10 "East (90°)" 10.8 NA "" "" "Overcast"
"2173" 2015-02-25 "9:00 AM" 8 7 93 1017.3 10 "ESE (110°)" 14.3 NA "" "Rain" "Light Rain"
"2174" 2015-02-25 "9:30 AM" 8 7 93 1017.9 10 "East (80°)" 10.8 NA "" "Rain" "Light Rain"
"2175" 2015-02-25 "10:00 AM" 8 7 93 1017.9 10 "East (100°)" 10.8 NA "" "" "Overcast"
"2176" 2015-02-25 "10:30 AM" 8 7 93 1017.9 6.9 "ENE (70°)" 14.3 NA "" "Rain" "Light Rain"
"2177" 2015-02-25 "11:00 AM" 9 7 87 1017.3 6.9 "ENE (70°)" 10.8 NA "" "Rain" "Light Rain"
"2178" 2015-02-25 "11:30 AM" 9 8 93 1017.3 10 "East (100°)" 14.3 NA "" "Rain" "Light Rain"
"2179" 2015-02-25 "12:00 PM" 9 8 93 1016.3 10 "SE (130°)" 25.3 NA "" "" "Overcast"
"2180" 2015-02-25 "12:30 PM" 10 8 87 1015.2 10 "ESE (120°)" 21.6 NA "" "" "Overcast"
"2181" 2015-02-25 "1:00 PM" 10 8 87 1014.2 10 "ESE (120°)" 18 NA "" "" "Overcast"
"2182" 2015-02-25 "1:30 PM" 10 8 87 1014.2 10 "SE (130°)" 14.3 NA "" "" "Scattered Clouds"
"2183" 2015-02-25 "2:00 PM" 10 8 87 1015.2 10 "East (90°)" 10.8 NA "" "Rain" "Light Rain"
"2184" 2015-02-25 "2:30 PM" 10 8 87 1016.3 10 "NNE (20°)" 14.3 NA "" "Rain" "Light Rain"
"2185" 2015-02-25 "3:00 PM" 10 8 87 1016.3 8 "North (360°)" 18 NA "" "Rain" "Rain"
"2186" 2015-02-25 "3:30 PM" 9 9 100 1016.3 6.9 "NE (50°)" 10.8 NA "" "Rain" "Light Rain"
"2187" 2015-02-25 "4:00 PM" 10 9 94 1015.2 5 "ENE (70°)" 7.2 25.3 "" "Rain" "Light Rain"
"2188" 2015-02-25 "4:30 PM" 10 9 94 1016.3 6 "NE (40°)" 7.2 NA "" "Rain" "Light Rain"
"2189" 2015-02-25 "5:00 PM" 9 9 100 1016.3 6 "East (80°)" 10.8 NA "" "Rain" "Light Rain"
"2190" 2015-02-25 "5:30 PM" 9 9 100 1017.3 6 "Variable" 3.5 NA "" "Rain" "Light Rain"
"2191" 2015-02-25 "6:00 PM" 9 8 93 1016.3 8 "ENE (60°)" 10.8 NA "" "Rain" "Light Rain"
"2192" 2015-02-25 "6:30 PM" 9 8 93 1016.3 10 "ENE (60°)" 7.2 NA "" "Rain" "Light Rain"
"2193" 2015-02-25 "7:00 PM" 9 8 93 1017.3 10 "Variable" 3.5 NA "" "Rain" "Light Rain"
"2194" 2015-02-25 "7:30 PM" 9 8 93 1016.3 10 "SE (140°)" 7.2 NA "" "Rain" "Light Rain"
"2195" 2015-02-25 "8:00 PM" 9 8 93 1017.3 10 "North (350°)" 7.2 NA "" "Rain" "Light Rain"
"2196" 2015-02-25 "8:30 PM" 9 8 93 1017.3 10 "North (10°)" 10.8 NA "" "Rain" "Light Rain"
"2197" 2015-02-25 "9:00 PM" 9 8 93 1017.3 10 "North (10°)" 10.8 NA "" "Rain" "Light Rain"
"2198" 2015-02-25 "9:30 PM" 9 8 93 1017.9 6.9 "NNW (340°)" 10.8 NA "" "Rain" "Light Rain"
"2199" 2015-02-25 "10:00 PM" 9 8 93 1017.9 6 "North (360°)" 10.8 NA "" "Rain" "Light Rain"
"2200" 2015-02-25 "10:30 PM" 9 8 93 1017.9 6 "North (360°)" 14.3 NA "" "Rain" "Light Rain"
"2201" 2015-02-25 "11:00 PM" 9 8 93 1017.9 6 "NNE (20°)" 18 NA "" "Rain" "Light Rain"
"2202" 2015-02-25 "11:30 PM" 9 8 93 1017.9 6 "NNE (20°)" 14.3 NA "" "Rain" "Light Rain"
"2203" 2015-02-24 "12:00 AM" 8 4 76 1019 NA "ENE (70°)" 7.2 NA "" "" "Clear"
"2204" 2015-02-24 "12:30 AM" 8 5 81 1020 10 "Variable" 3.5 NA "" "" "Scattered Clouds"
"2205" 2015-02-24 "1:00 AM" 7 5 87 1020 10 "East (80°)" 7.2 NA "" "Rain" "Light Rain"
"2206" 2015-02-24 "1:30 AM" 7 5 87 1020 10 "ENE (70°)" 7.2 NA "" "Rain" "Light Rain"
"2207" 2015-02-24 "2:00 AM" 7 5 87 1019 10 "ENE (70°)" 7.2 NA "" "Rain" "Light Rain"
"2208" 2015-02-24 "2:30 AM" 7 5 87 1019 10 "NNE (30°)" 10.8 NA "" "Rain" "Light Rain"
"2209" 2015-02-24 "3:00 AM" 7 5 87 1019 6.9 "NNE (20°)" 14.3 NA "" "Rain" "Light Rain"
"2210" 2015-02-24 "3:30 AM" 6 5 93 1019 6 "NNE (30°)" 10.8 NA "" "Rain" "Light Rain"
"2211" 2015-02-24 "4:00 AM" 6 5 93 1019 6 "NNE (30°)" 7.2 NA "" "" "Overcast"
"2212" 2015-02-24 "4:30 AM" 6 5 93 1017.9 6.9 "ENE (70°)" 10.8 NA "" "" "Overcast"
"2213" 2015-02-24 "5:00 AM" 7 5 87 1019 6.9 "ENE (60°)" 7.2 NA "" "" "Overcast"
"2214" 2015-02-24 "5:30 AM" 7 5 87 1019 6.9 "NE (50°)" 10.8 NA "" "" "Overcast"
"2215" 2015-02-24 "6:00 AM" 7 5 87 1019 6.9 "East (80°)" 7.2 NA "" "" "Overcast"
"2216" 2015-02-24 "6:30 AM" 7 5 87 1019 8 "East (90°)" 14.3 NA "" "" "Overcast"
"2217" 2015-02-24 "7:00 AM" 7 5 87 1019 10 "ENE (60°)" 10.8 NA "" "" "Overcast"
"2218" 2015-02-24 "7:30 AM" 7 5 87 1020 10 "NNE (20°)" 14.3 NA "" "" "Overcast"
"2219" 2015-02-24 "8:00 AM" 7 5 87 1021 6.9 "NE (40°)" 10.8 NA "" "Rain" "Light Rain"
"2220" 2015-02-24 "8:30 AM" 7 6 93 1021 6 "East (90°)" 7.2 NA "" "Rain" "Light Rain"
"2221" 2015-02-24 "9:00 AM" 7 6 93 1021 6.9 "ESE (120°)" 7.2 NA "" "" "Overcast"
"2222" 2015-02-24 "9:30 AM" 8 5 81 1021 10 "ESE (120°)" 10.8 NA "" "" "Overcast"
"2223" 2015-02-24 "10:00 AM" 8 6 87 1020 10 "ESE (120°)" 10.8 NA "" "" "Overcast"
"2224" 2015-02-24 "10:30 AM" 8 6 87 1020 10 "ESE (110°)" 10.8 NA "" "" "Overcast"
"2225" 2015-02-24 "11:00 AM" 9 6 82 1020 10 "ESE (120°)" 10.8 NA "" "" "Overcast"
"2226" 2015-02-24 "11:30 AM" 9 5 76 1020 10 "ESE (120°)" 10.8 NA "" "" "Overcast"
"2227" 2015-02-24 "12:00 PM" 9 5 76 1019 10 "SE (130°)" 10.8 NA "" "" "Overcast"
"2228" 2015-02-24 "12:30 PM" 9 6 82 1017.9 10 "SE (140°)" 7.2 NA "" "" "Overcast"
"2229" 2015-02-24 "1:00 PM" 10 6 76 1017.9 10 "SE (140°)" 10.8 NA "" "" "Overcast"
"2230" 2015-02-24 "1:30 PM" 10 5 71 1017.3 10 "ESE (120°)" 10.8 NA "" "" "Overcast"
"2231" 2015-02-24 "2:00 PM" 10 5 71 1017.3 10 "ESE (110°)" 10.8 NA "" "" "Overcast"
"2232" 2015-02-24 "2:30 PM" 10 6 76 1017.3 10 "ESE (120°)" 10.8 NA "" "" "Overcast"
"2233" 2015-02-24 "3:00 PM" 10 6 76 1017.3 10 "SE (140°)" 10.8 NA "" "" "Overcast"
"2234" 2015-02-24 "3:30 PM" 10 5 71 1017.3 10 "SE (140°)" 14.3 NA "" "" "Overcast"
"2235" 2015-02-24 "4:00 PM" 10 5 71 1017.3 10 "ESE (110°)" 14.3 NA "" "" "Overcast"
"2236" 2015-02-24 "4:30 PM" 9 5 76 1017.3 10 "East (90°)" 18 NA "" "" "Overcast"
"2237" 2015-02-24 "5:00 PM" 9 5 76 1017.3 10 "ESE (110°)" 14.3 NA "" "" "Overcast"
"2238" 2015-02-24 "5:30 PM" 9 5 76 1017.9 10 "ESE (120°)" 14.3 NA "" "" "Overcast"
"2239" 2015-02-24 "6:00 PM" 9 4 71 1017.9 10 "ESE (110°)" 14.3 NA "" "" "Overcast"
"2240" 2015-02-24 "6:30 PM" 9 4 71 1017.9 10 "ESE (110°)" 14.3 NA "" "" "Overcast"
"2241" 2015-02-24 "7:00 PM" 9 4 71 1017.9 10 "East (100°)" 14.3 NA "" "" "Overcast"
"2242" 2015-02-24 "7:30 PM" 9 4 71 1017.9 10 "East (100°)" 14.3 NA "" "" "Overcast"
"2243" 2015-02-24 "8:00 PM" 9 4 71 1017.9 10 "ESE (120°)" 14.3 NA "" "" "Overcast"
"2244" 2015-02-24 "8:30 PM" 9 4 71 1017.9 10 "ESE (110°)" 10.8 NA "" "" "Overcast"
"2245" 2015-02-24 "9:00 PM" 9 4 71 1017.9 10 "SE (140°)" 10.8 NA "" "" "Overcast"
"2246" 2015-02-24 "9:30 PM" 9 5 76 1017.9 10 "SE (130°)" 14.3 NA "" "Rain" "Light Rain"
"2247" 2015-02-24 "10:00 PM" 9 5 76 1017.9 10 "ESE (120°)" 10.8 NA "" "Rain" "Light Rain"
"2248" 2015-02-24 "10:30 PM" 8 6 87 1017.9 10 "SE (130°)" 14.3 NA "" "Rain-Thunderstorm" "Light Thunderstorms and Rain"
"2249" 2015-02-24 "11:00 PM" 8 6 87 1019 10 "SE (130°)" 7.2 NA "" "Rain" "Light Rain Showers"
"2250" 2015-02-24 "11:30 PM" 8 6 87 1020 10 "North (10°)" 10.8 NA "" "Rain" "Light Rain Showers"
"2251" 2015-02-23 "12:00 AM" 7 3 76 1024 10 "North (360°)" 14.3 NA "" "" "Overcast"
"2252" 2015-02-23 "12:30 AM" 6 3 81 1023 10 "NNE (20°)" 18 NA "" "" "Overcast"
"2253" 2015-02-23 "1:00 AM" 6 2 76 1023 10 "NNE (30°)" 18 NA "" "" "Scattered Clouds"
"2254" 2015-02-23 "1:30 AM" 6 3 81 1023 8 "NNE (20°)" 21.6 NA "" "Rain" "Light Rain"
"2255" 2015-02-23 "2:00 AM" 5 3 87 1023 8 "North (10°)" 14.3 NA "" "Rain" "Light Rain"
"2256" 2015-02-23 "2:30 AM" 6 3 81 1022 10 "NNE (30°)" 14.3 NA "" "Rain" "Light Rain"
"2257" 2015-02-23 "3:00 AM" 4 0 75 1022 10 "NNE (30°)" 25.3 NA "" "Rain" "Light Rain"
"2258" 2015-02-23 "3:30 AM" 4 0 75 1022 10 "NE (40°)" 14.3 NA "" "Rain" "Light Rain"
"2259" 2015-02-23 "4:00 AM" 3 1 87 1022 10 "NNE (20°)" 21.6 NA "" "Rain" "Light Rain"
"2260" 2015-02-23 "4:30 AM" 3 0 81 1022 10 "ENE (60°)" 18 NA "" "Rain" "Light Rain"
"2261" 2015-02-23 "5:00 AM" 3 1 87 1022 10 "East (90°)" 10.8 NA "" "Rain" "Light Rain"
"2262" 2015-02-23 "5:30 AM" 4 0 75 1022 NA "ENE (60°)" 10.8 NA "" "" "Clear"
"2263" 2015-02-23 "6:00 AM" 4 0 75 1023 NA "ENE (70°)" 7.2 NA "" "" "Clear"
"2264" 2015-02-23 "6:30 AM" 4 1 81 1023 NA "Variable" 3.5 NA "" "" "Clear"
"2265" 2015-02-23 "7:00 AM" 4 1 81 1023 10 "NE (50°)" 7.2 NA "" "Rain" "Light Rain"
"2266" 2015-02-23 "7:30 AM" 5 1 76 1023 10 "ENE (70°)" 10.8 NA "" "" "Overcast"
"2267" 2015-02-23 "8:00 AM" 5 2 81 1023 10 "ENE (60°)" 10.8 NA "" "" "Overcast"
"2268" 2015-02-23 "8:30 AM" 6 2 76 1022 NA "ESE (110°)" 10.8 NA "" "" "Clear"
"2269" 2015-02-23 "9:00 AM" 6 3 81 1022 NA "ESE (120°)" 14.3 NA "" "" "Clear"
"2270" 2015-02-23 "9:30 AM" 7 3 76 1023 10 "East (80°)" 10.8 NA "" "" "Partly Cloudy"
"2271" 2015-02-23 "10:00 AM" 7 3 76 1023 10 "ESE (110°)" 10.8 NA "" "" "Scattered Clouds"
"2272" 2015-02-23 "10:30 AM" 8 4 76 1023 10 "Variable" 3.5 NA "" "" "Mostly Cloudy"
"2273" 2015-02-23 "11:00 AM" 8 3 71 1023 10 "ENE (60°)" 7.2 NA "" "" "Mostly Cloudy"
"2274" 2015-02-23 "11:30 AM" 8 3 71 1023 10 "East (100°)" 7.2 NA "" "" "Mostly Cloudy"
"2275" 2015-02-23 "12:00 PM" 8 3 71 1023 10 "NE (40°)" 7.2 NA "" "" "Mostly Cloudy"
"2276" 2015-02-23 "12:30 PM" 8 3 71 1022 10 "ENE (60°)" 7.2 25.3 "" "" "Mostly Cloudy"
"2277" 2015-02-23 "1:00 PM" 8 4 76 1022 10 "East (90°)" 7.2 NA "" "" "Mostly Cloudy"
"2278" 2015-02-23 "1:30 PM" 9 3 66 1021 10 "ENE (60°)" 10.8 NA "" "" "Mostly Cloudy"
"2279" 2015-02-23 "2:00 PM" 9 2 62 1020 10 "East (80°)" 14.3 NA "" "" "Mostly Cloudy"
"2280" 2015-02-23 "2:30 PM" 9 3 66 1020 10 "East (100°)" 10.8 NA "" "" "Mostly Cloudy"
"2281" 2015-02-23 "3:00 PM" 9 2 62 1020 10 "ESE (110°)" 10.8 NA "" "" "Mostly Cloudy"
"2282" 2015-02-23 "3:30 PM" 9 2 62 1019 10 "ESE (110°)" 14.3 NA "" "" "Mostly Cloudy"
"2283" 2015-02-23 "4:00 PM" 9 2 62 1019 10 "East (90°)" 18 NA "" "" "Scattered Clouds"
"2284" 2015-02-23 "4:30 PM" 9 2 62 1019 10 "ESE (120°)" 14.3 NA "" "" "Scattered Clouds"
"2285" 2015-02-23 "5:00 PM" 8 3 71 1019 10 "ESE (110°)" 14.3 NA "" "" "Partly Cloudy"
"2286" 2015-02-23 "5:30 PM" 8 3 71 1020 10 "ESE (110°)" 10.8 NA "" "" "Partly Cloudy"
"2287" 2015-02-23 "6:00 PM" 8 3 71 1020 10 "SE (130°)" 10.8 NA "" "" "Scattered Clouds"
"2288" 2015-02-23 "6:30 PM" 8 3 71 1020 10 "SE (140°)" 14.3 NA "" "" "Scattered Clouds"
"2289" 2015-02-23 "7:00 PM" 8 3 71 1020 NA "ESE (120°)" 14.3 NA "" "" "Clear"
"2290" 2015-02-23 "7:30 PM" 8 3 71 1020 NA "East (100°)" 10.8 NA "" "" "Clear"
"2291" 2015-02-23 "8:00 PM" 8 3 71 1020 NA "East (100°)" 10.8 NA "" "" "Clear"
"2292" 2015-02-23 "8:30 PM" 8 3 71 1020 NA "East (100°)" 14.3 NA "" "" "Clear"
"2293" 2015-02-23 "9:00 PM" 8 3 71 1020 NA "ESE (120°)" 10.8 NA "" "" "Clear"
"2294" 2015-02-23 "9:30 PM" 8 3 71 1021 NA "East (100°)" 7.2 NA "" "" "Clear"
"2295" 2015-02-23 "10:00 PM" 8 3 71 1020 NA "ESE (110°)" 14.3 NA "" "" "Clear"
"2296" 2015-02-23 "10:30 PM" 8 3 71 1021 NA "East (80°)" 7.2 NA "" "" "Clear"
"2297" 2015-02-23 "11:00 PM" 8 4 76 1021 NA "East (90°)" 7.2 NA "" "" "Clear"
"2298" 2015-02-23 "11:30 PM" 8 4 76 1020 NA "ENE (60°)" 7.2 NA "" "" "Clear"
"2299" 2015-02-22 "12:00 AM" 9 6 82 1020 5 "NNW (340°)" 10.8 NA "" "" "Scattered Clouds"
"2300" 2015-02-22 "12:30 AM" 9 6 82 1020 5 "NW (310°)" 7.2 NA "" "" "Partly Cloudy"
"2301" 2015-02-22 "1:00 AM" 9 6 82 1020 5 "WNW (290°)" 7.2 NA "" "" "Partly Cloudy"
"2302" 2015-02-22 "1:30 AM" 9 6 82 1020 5 "WNW (300°)" 10.8 NA "" "" "Scattered Clouds"
"2303" 2015-02-22 "2:00 AM" 9 6 82 1020 5 "WNW (290°)" 10.8 NA "" "" "Scattered Clouds"
"2304" 2015-02-22 "2:30 AM" 9 6 82 1020 5 "West (280°)" 10.8 NA "" "" "Scattered Clouds"
"2305" 2015-02-22 "3:00 AM" 8 6 87 1020 5 "WNW (290°)" 14.3 NA "" "" "Mostly Cloudy"
"2306" 2015-02-22 "3:30 AM" 8 6 87 1020 5 "NNW (330°)" 14.3 NA "" "" "Mostly Cloudy"
"2307" 2015-02-22 "4:00 AM" 8 6 87 1020 5 "NNW (330°)" 14.3 NA "" "" "Mostly Cloudy"
"2308" 2015-02-22 "4:30 AM" 8 6 87 1020 5 "NW (320°)" 14.3 NA "" "" "Mostly Cloudy"
"2309" 2015-02-22 "5:00 AM" 8 6 87 1021 5 "NW (320°)" 18 NA "" "" "Mostly Cloudy"
"2310" 2015-02-22 "5:30 AM" 8 5 81 1021 5 "NW (310°)" 18 NA "" "" "Mostly Cloudy"
"2311" 2015-02-22 "6:00 AM" 8 5 81 1021 5 "NW (320°)" 14.3 NA "" "" "Mostly Cloudy"
"2312" 2015-02-22 "6:30 AM" 8 5 81 1021 5 "NW (320°)" 14.3 NA "" "" "Mostly Cloudy"
"2313" 2015-02-22 "7:00 AM" 8 5 81 1021 5 "NNW (330°)" 18 NA "" "" "Mostly Cloudy"
"2314" 2015-02-22 "7:30 AM" 7 5 87 1021 5 "NNW (340°)" 21.6 NA "" "" "Mostly Cloudy"
"2315" 2015-02-22 "8:00 AM" 7 4 81 1022 6 "NW (310°)" 18 NA "" "" "Mostly Cloudy"
"2316" 2015-02-22 "8:30 AM" 8 5 81 1022 6 "NW (320°)" 18 NA "" "" "Mostly Cloudy"
"2317" 2015-02-22 "9:00 AM" 7 5 87 1023 4 "NW (320°)" 18 NA "" "Rain" "Light Rain"
"2318" 2015-02-22 "9:30 AM" 7 4 81 1023 5 "NNW (330°)" 21.6 NA "" "" "Mostly Cloudy"
"2319" 2015-02-22 "10:00 AM" 7 4 81 1023 4 "NW (320°)" 18 NA "" "" "Mostly Cloudy"
"2320" 2015-02-22 "10:30 AM" 7 3 76 1023 4 "NNW (340°)" 18 NA "" "" "Mostly Cloudy"
"2321" 2015-02-22 "11:00 AM" 8 3 71 1023 4 "North (10°)" 14.3 NA "" "" "Haze"
"2322" 2015-02-22 "11:30 AM" 8 3 71 1023 4 "North (360°)" 14.3 NA "" "" "Haze"
"2323" 2015-02-22 "12:00 PM" 8 3 71 1023 5 "North (350°)" 14.3 NA "" "" "Haze"
"2324" 2015-02-22 "12:30 PM" 9 4 71 1022 5 "NNW (340°)" 14.3 NA "" "" "Haze"
"2325" 2015-02-22 "1:00 PM" 9 3 66 1022 4.5 "North (360°)" 14.3 NA "" "" "Haze"
"2326" 2015-02-22 "1:30 PM" 9 4 71 1022 4 "North (360°)" 14.3 NA "" "" "Haze"
"2327" 2015-02-22 "2:00 PM" 9 4 71 1022 4 "North (360°)" 18 NA "" "" "Haze"
"2328" 2015-02-22 "2:30 PM" 9 4 71 1021 4 "North (360°)" 14.3 NA "" "" "Haze"
"2329" 2015-02-22 "3:00 PM" 9 4 71 1021 3.5 "North (360°)" 14.3 NA "" "" "Haze"
"2330" 2015-02-22 "3:30 PM" 9 4 71 1021 3.1 "North (360°)" 14.3 NA "" "" "Haze"
"2331" 2015-02-22 "4:00 PM" 8 4 76 1021 3.1 "North (10°)" 14.3 NA "" "" "Haze"
"2332" 2015-02-22 "4:30 PM" 9 4 71 1022 2.7 "North (360°)" 10.8 NA "" "" "Haze"
"2333" 2015-02-22 "5:00 PM" 9 4 71 1022 2.7 "North (360°)" 10.8 NA "" "" "Haze"
"2334" 2015-02-22 "5:30 PM" 8 4 76 1022 2.6 "North (360°)" 10.8 NA "" "" "Haze"
"2335" 2015-02-22 "6:00 PM" 8 4 76 1022 2.6 "North (360°)" 14.3 NA "" "" "Mist"
"2336" 2015-02-22 "6:30 PM" 8 4 76 1022 2.6 "North (360°)" 10.8 NA "" "" "Mist"
"2337" 2015-02-22 "7:00 PM" 8 4 76 1023 2.7 "North (350°)" 14.3 NA "" "" "Mist"
"2338" 2015-02-22 "7:30 PM" 8 5 81 1022 2.7 "North (10°)" 14.3 NA "" "" "Partly Cloudy"
"2339" 2015-02-22 "8:00 PM" 8 5 81 1023 3.1 "North (10°)" 10.8 NA "" "" "Scattered Clouds"
"2340" 2015-02-22 "8:30 PM" 8 5 81 1023 3.5 "NNE (20°)" 18 NA "" "" "Mostly Cloudy"
"2341" 2015-02-22 "9:00 PM" 7 4 81 1023 4 "NE (40°)" 21.6 NA "" "" "Mostly Cloudy"
"2342" 2015-02-22 "9:30 PM" 7 3 76 1023 5 "NE (50°)" 14.3 NA "" "" "Mostly Cloudy"
"2343" 2015-02-22 "10:00 PM" 7 3 76 1022 5 "ENE (60°)" 14.3 NA "" "" "Mostly Cloudy"
"2344" 2015-02-22 "10:30 PM" 7 3 76 1022 5 "NNE (30°)" 10.8 NA "" "" "Scattered Clouds"
"2345" 2015-02-22 "11:00 PM" 7 3 76 1023 6.9 "NNE (20°)" 14.3 NA "" "" "Scattered Clouds"
"2346" 2015-02-22 "11:30 PM" 7 3 76 1023 8 "North (10°)" 14.3 NA "" "" "Scattered Clouds"
"2347" 2015-02-21 "12:00 AM" 12 11 94 1015.2 10 "SSE (160°)" 14.3 NA "" "" "Overcast"
"2348" 2015-02-21 "12:30 AM" 12 11 94 1015.2 10 "SSE (160°)" 10.8 NA "" "" "Overcast"
"2349" 2015-02-21 "1:00 AM" 12 11 94 1015.2 10 "SSE (150°)" 7.2 NA "" "Rain" "Light Rain"
"2350" 2015-02-21 "1:30 AM" 12 11 94 1014.2 6 "South (170°)" 7.2 NA "" "Rain" "Light Rain"
"2351" 2015-02-21 "2:00 AM" 12 11 94 1014.2 4.5 "South (180°)" 3.5 NA "" "Rain" "Light Rain"
"2352" 2015-02-21 "2:30 AM" 11 11 100 1014.2 4 "SW (220°)" 3.5 NA "" "Rain" "Light Rain"
"2353" 2015-02-21 "3:00 AM" 11 11 100 1013.2 3.5 "South (180°)" 7.2 NA "" "Rain" "Light Rain"
"2354" 2015-02-21 "3:30 AM" 11 11 100 1013.2 3.5 "SW (220°)" 7.2 NA "" "Rain" "Light Rain"
"2355" 2015-02-21 "4:00 AM" 11 11 100 1013.2 3.5 "WNW (300°)" 7.2 NA "" "" "Overcast"
"2356" 2015-02-21 "4:30 AM" 11 11 100 1013.2 3.5 "West (280°)" 10.8 NA "" "" "Overcast"
"2357" 2015-02-21 "5:00 AM" 11 11 100 1014.2 4 "WNW (300°)" 18 NA "" "" "Overcast"
"2358" 2015-02-21 "5:30 AM" 11 10 94 1013.2 4 "NW (310°)" 14.3 NA "" "" "Overcast"
"2359" 2015-02-21 "6:00 AM" 10 10 100 1014.2 4 "NW (320°)" 18 NA "" "" "Overcast"
"2360" 2015-02-21 "6:30 AM" 10 9 94 1014.2 4.5 "NW (320°)" 14.3 NA "" "" "Overcast"
"2361" 2015-02-21 "7:00 AM" 10 9 94 1014.2 3.1 "NW (320°)" 18 NA "" "" "Overcast"
"2362" 2015-02-21 "7:30 AM" 10 9 94 1015.2 3.1 "NW (320°)" 14.3 NA "" "" "Overcast"
"2363" 2015-02-21 "8:00 AM" 10 9 94 1015.2 3.1 "NW (310°)" 14.3 NA "" "Rain" "Light Rain"
"2364" 2015-02-21 "8:30 AM" 10 8 87 1016.3 3.1 "WNW (300°)" 18 NA "" "Rain" "Light Rain"
"2365" 2015-02-21 "9:00 AM" 10 8 87 1016.3 2.7 "WNW (300°)" 14.3 NA "" "Rain" "Light Rain"
"2366" 2015-02-21 "9:30 AM" 9 8 93 1017.3 3.1 "NW (310°)" 21.6 NA "" "Rain" "Light Rain"
"2367" 2015-02-21 "10:00 AM" 10 8 87 1017.3 3.5 "NW (320°)" 21.6 NA "" "" "Overcast"
"2368" 2015-02-21 "10:30 AM" 9 8 93 1017.3 2.6 "NW (310°)" 18 NA "" "Rain" "Light Rain"
"2369" 2015-02-21 "11:00 AM" 9 8 93 1017.3 3.1 "NW (310°)" 18 NA "" "Rain" "Light Rain"
"2370" 2015-02-21 "11:30 AM" 9 8 93 1017.3 3.1 "NW (310°)" 21.6 NA "" "Rain" "Light Rain"
"2371" 2015-02-21 "12:00 PM" 9 8 93 1017.3 3.1 "NW (320°)" 21.6 NA "" "" "Overcast"
"2372" 2015-02-21 "12:30 PM" 9 7 87 1017.3 4.5 "NW (310°)" 18 NA "" "" "Overcast"
"2373" 2015-02-21 "1:00 PM" 9 7 87 1016.3 4.5 "NW (310°)" 21.6 NA "" "" "Overcast"
"2374" 2015-02-21 "1:30 PM" 10 7 82 1016.3 5 "NW (310°)" 14.3 NA "" "" "Overcast"
"2375" 2015-02-21 "2:00 PM" 10 8 87 1016.3 5 "WNW (290°)" 14.3 NA "" "" "Overcast"
"2376" 2015-02-21 "2:30 PM" 10 8 87 1016.3 5 "West (280°)" 14.3 NA "" "" "Overcast"
"2377" 2015-02-21 "3:00 PM" 11 7 76 1016.3 5 "WNW (290°)" 14.3 NA "" "" "Mostly Cloudy"
"2378" 2015-02-21 "3:30 PM" 11 7 76 1016.3 5 "WNW (300°)" 14.3 NA "" "" "Mostly Cloudy"
"2379" 2015-02-21 "4:00 PM" 10 7 82 1016.3 5 "WNW (290°)" 18 NA "" "" "Mostly Cloudy"
"2380" 2015-02-21 "4:30 PM" 10 7 82 1017.3 4.5 "WNW (300°)" 18 NA "" "" "Mostly Cloudy"
"2381" 2015-02-21 "5:00 PM" 10 7 82 1017.3 4.5 "WNW (290°)" 14.3 NA "" "" "Overcast"
"2382" 2015-02-21 "5:30 PM" 10 7 82 1017.3 5 "NNW (330°)" 14.3 NA "" "" "Overcast"
"2383" 2015-02-21 "6:00 PM" 10 6 76 1017.3 5 "NNW (340°)" 10.8 NA "" "" "Overcast"
"2384" 2015-02-21 "6:30 PM" 10 7 82 1017.9 5 "NW (310°)" 10.8 NA "" "" "Overcast"
"2385" 2015-02-21 "7:00 PM" 9 6 82 1017.9 6 "NNW (330°)" 10.8 NA "" "" "Overcast"
"2386" 2015-02-21 "7:30 PM" 9 6 82 1017.9 6 "NNW (340°)" 14.3 NA "" "" "Overcast"
"2387" 2015-02-21 "8:00 PM" 9 7 87 1019 6 "NNW (340°)" 14.3 NA "" "" "Overcast"
"2388" 2015-02-21 "8:30 PM" 9 6 82 1019 6 "NNW (330°)" 14.3 NA "" "" "Overcast"
"2389" 2015-02-21 "9:00 PM" 9 6 82 1019 6 "NNW (330°)" 14.3 NA "" "" "Overcast"
"2390" 2015-02-21 "9:30 PM" 9 6 82 1019 6 "NNW (330°)" 10.8 NA "" "" ""
"2391" 2015-02-21 "10:00 PM" 9 6 82 1019 5 "NNW (330°)" 14.3 NA "" "Rain" "Light Rain"
"2392" 2015-02-21 "10:30 PM" 9 6 82 1019 5 "NW (320°)" 10.8 NA "" "" "Partly Cloudy"
"2393" 2015-02-21 "11:00 PM" 9 6 82 1020 5 "WNW (300°)" 7.2 NA "" "" "Partly Cloudy"
"2394" 2015-02-21 "11:30 PM" 9 6 82 1020 5 "NW (310°)" 10.8 NA "" "" "Scattered Clouds"
"2395" 2015-02-20 "12:00 AM" 6 2 76 1025.1 NA "ESE (120°)" 18 NA "" "" "Clear"
"2396" 2015-02-20 "12:30 AM" 6 2 76 1025.1 NA "SE (130°)" 18 NA "" "" "Clear"
"2397" 2015-02-20 "1:00 AM" 6 2 76 1024 NA "ESE (120°)" 21.6 NA "" "" "Clear"
"2398" 2015-02-20 "1:30 AM" 6 2 76 1024 NA "SE (130°)" 18 NA "" "" "Clear"
"2399" 2015-02-20 "2:00 AM" 6 2 76 1024 NA "SE (130°)" 18 NA "" "" "Clear"
"2400" 2015-02-20 "2:30 AM" 7 2 71 1023 NA "ESE (120°)" 21.6 NA "" "" "Clear"
"2401" 2015-02-20 "3:00 AM" 7 3 76 1022 NA "SE (130°)" 21.6 NA "" "" "Clear"
"2402" 2015-02-20 "3:30 AM" 7 3 76 1022 NA "SE (140°)" 18 NA "" "" "Clear"
"2403" 2015-02-20 "4:00 AM" 7 3 76 1022 NA "SE (130°)" 18 NA "" "" "Clear"
"2404" 2015-02-20 "4:30 AM" 7 3 76 1022 NA "SE (130°)" 21.6 NA "" "" "Clear"
"2405" 2015-02-20 "5:00 AM" 7 3 76 1022 NA "SE (130°)" 21.6 NA "" "" "Clear"
"2406" 2015-02-20 "5:30 AM" 7 4 81 1021 NA "SE (130°)" 21.6 NA "" "" "Clear"
"2407" 2015-02-20 "6:00 AM" 7 4 81 1021 10 "ESE (120°)" 21.6 NA "" "Rain" "Light Rain"
"2408" 2015-02-20 "6:30 AM" 8 5 81 1021 NA "SE (130°)" 21.6 NA "" "" "Clear"
"2409" 2015-02-20 "7:00 AM" 8 5 81 1021 NA "SE (130°)" 21.6 NA "" "" "Clear"
"2410" 2015-02-20 "7:30 AM" 9 5 76 1021 NA "SE (130°)" 21.6 NA "" "" "Clear"
"2411" 2015-02-20 "8:00 AM" 9 5 76 1021 NA "SE (140°)" 21.6 NA "" "" "Clear"
"2412" 2015-02-20 "8:30 AM" 9 5 76 1021 NA "SE (140°)" 25.3 NA "" "" "Clear"
"2413" 2015-02-20 "9:00 AM" 10 5 71 1021 NA "SE (140°)" 25.3 NA "" "" "Clear"
"2414" 2015-02-20 "9:30 AM" 11 5 67 1021 NA "SE (140°)" 25.3 NA "" "" "Clear"
"2415" 2015-02-20 "10:00 AM" 10 5 71 1021 NA "SE (140°)" 28.8 NA "" "" "Clear"
"2416" 2015-02-20 "10:30 AM" 11 5 67 1020 NA "SSE (150°)" 28.8 NA "" "" "Clear"
"2417" 2015-02-20 "11:00 AM" 11 5 67 1020 NA "SE (140°)" 32.3 NA "" "" "Clear"
"2418" 2015-02-20 "11:30 AM" 11 5 67 1020 10 "SSE (160°)" 32.3 NA "" "" "Partly Cloudy"
"2419" 2015-02-20 "12:00 PM" 11 5 67 1019 10 "SSE (150°)" 32.3 NA "" "" "Partly Cloudy"
"2420" 2015-02-20 "12:30 PM" 12 6 67 1017.9 10 "SE (140°)" 32.3 NA "" "" "Partly Cloudy"
"2421" 2015-02-20 "1:00 PM" 12 5 62 1017.9 10 "SSE (150°)" 32.3 NA "" "" "Partly Cloudy"
"2422" 2015-02-20 "1:30 PM" 12 6 67 1017.3 10 "SE (140°)" 28.8 NA "" "" "Partly Cloudy"
"2423" 2015-02-20 "2:00 PM" 12 6 67 1017.3 10 "SSE (150°)" 25.3 NA "" "Rain" "Light Rain"
"2424" 2015-02-20 "2:30 PM" 12 7 72 1016.3 10 "SSE (150°)" 25.3 NA "" "Rain" "Light Rain"
"2425" 2015-02-20 "3:00 PM" 10 8 87 1016.3 10 "SE (140°)" 21.6 NA "" "Rain" "Light Rain"
"2426" 2015-02-20 "3:30 PM" 10 8 87 1016.3 10 "SE (140°)" 18 NA "" "Rain" "Light Rain"
"2427" 2015-02-20 "4:00 PM" 10 8 87 1016.3 10 "SE (140°)" 21.6 NA "" "Rain" "Light Rain"
"2428" 2015-02-20 "4:30 PM" 10 9 94 1016.3 10 "SE (140°)" 21.6 NA "" "Rain" "Light Rain"
"2429" 2015-02-20 "5:00 PM" 10 9 94 1015.2 6.9 "SE (140°)" 21.6 NA "" "Rain" "Light Rain"
"2430" 2015-02-20 "5:30 PM" 10 9 94 1015.2 6.9 "SSE (150°)" 21.6 NA "" "Rain" "Light Rain"
"2431" 2015-02-20 "6:00 PM" 10 9 94 1015.2 10 "SSE (150°)" 21.6 NA "" "" "Overcast"
"2432" 2015-02-20 "6:30 PM" 11 9 88 1015.2 10 "SSE (150°)" 21.6 NA "" "" "Overcast"
"2433" 2015-02-20 "7:00 PM" 11 9 88 1015.2 6 "SSE (150°)" 18 NA "" "Rain" "Light Rain"
"2434" 2015-02-20 "7:30 PM" 11 9 88 1015.2 8 "SSE (150°)" 18 NA "" "Rain" "Light Rain"
"2435" 2015-02-20 "8:00 PM" 11 10 94 1015.2 10 "SSE (150°)" 18 NA "" "Rain" "Light Rain"
"2436" 2015-02-20 "8:30 PM" 11 10 94 1015.2 10 "SSE (150°)" 18 NA "" "" "Overcast"
"2437" 2015-02-20 "9:00 PM" 11 10 94 1015.2 10 "SSE (150°)" 18 NA "" "" "Overcast"
"2438" 2015-02-20 "9:30 PM" 11 10 94 1015.2 10 "SSE (150°)" 14.3 NA "" "" "Overcast"
"2439" 2015-02-20 "10:00 PM" 11 10 94 1015.2 10 "SSE (160°)" 14.3 NA "" "Rain" "Light Rain"
"2440" 2015-02-20 "10:30 PM" 11 10 94 1015.2 10 "SSE (160°)" 14.3 NA "" "Rain" "Light Rain"
"2441" 2015-02-20 "11:00 PM" 12 10 88 1015.2 10 "SSE (150°)" 14.3 NA "" "" "Overcast"
"2442" 2015-02-20 "11:30 PM" 12 11 94 1015.2 10 "SSE (150°)" 14.3 NA "" "" "Overcast"
"2443" 2015-02-19 "12:00 AM" 4 -1 70 1029.1 NA "NNE (30°)" 18 NA "" "" "Clear"
"2444" 2015-02-19 "12:30 AM" 4 -1 70 1029.1 NA "NNE (30°)" 18 NA "" "" "Clear"
"2445" 2015-02-19 "1:00 AM" 4 -1 70 1029.1 NA "NNE (30°)" 14.3 NA "" "" "Clear"
"2446" 2015-02-19 "1:30 AM" 4 -1 70 1029.1 NA "NE (40°)" 14.3 NA "" "" "Clear"
"2447" 2015-02-19 "2:00 AM" 4 -1 70 1029.1 NA "NNE (30°)" 14.3 NA "" "" "Clear"
"2448" 2015-02-19 "2:30 AM" 3 -2 70 1029.1 NA "NNE (30°)" 10.8 NA "" "" "Clear"
"2449" 2015-02-19 "3:00 AM" 3 -2 70 1029.1 NA "NNE (30°)" 10.8 NA "" "" "Clear"
"2450" 2015-02-19 "3:30 AM" 3 -2 70 1029.1 NA "NNE (30°)" 14.3 NA "" "" "Clear"
"2451" 2015-02-19 "4:00 AM" 1 -2 81 1029.1 NA "North (10°)" 10.8 NA "" "" "Clear"
"2452" 2015-02-19 "4:30 AM" 2 -2 75 1029.1 NA "North (360°)" 10.8 NA "" "" "Clear"
"2453" 2015-02-19 "5:00 AM" 2 -2 75 1029.1 NA "NNE (20°)" 10.8 NA "" "" "Clear"
"2454" 2015-02-19 "5:30 AM" 2 -3 70 1028.1 NA "NNE (30°)" 10.8 NA "" "" "Clear"
"2455" 2015-02-19 "6:00 AM" 2 -3 70 1029.1 NA "NNE (30°)" 7.2 NA "" "" "Clear"
"2456" 2015-02-19 "6:30 AM" 2 -3 70 1029.1 NA "Calm" NA NA "" "" "Clear"
"2457" 2015-02-19 "7:00 AM" 4 -3 61 1029.1 NA "NE (50°)" 10.8 NA "" "" "Clear"
"2458" 2015-02-19 "7:30 AM" 5 -2 61 1030.1 NA "ENE (70°)" 14.3 NA "" "" "Clear"
"2459" 2015-02-19 "8:00 AM" 5 -3 57 1030.1 NA "ENE (70°)" 14.3 NA "" "" "Clear"
"2460" 2015-02-19 "8:30 AM" 6 -2 57 1030.1 NA "NE (50°)" 10.8 NA "" "" "Clear"
"2461" 2015-02-19 "9:00 AM" 7 -3 49 1030.1 NA "Variable" 3.5 NA "" "" "Clear"
"2462" 2015-02-19 "9:30 AM" 8 -2 50 1030.1 NA "Variable" 7.2 NA "" "" "Clear"
"2463" 2015-02-19 "10:00 AM" 8 -2 50 1030.1 NA "ESE (120°)" 7.2 NA "" "" "Clear"
"2464" 2015-02-19 "10:30 AM" 8 -2 50 1030.1 NA "Variable" 7.2 NA "" "" "Clear"
"2465" 2015-02-19 "11:00 AM" 9 -2 46 1029.1 NA "SE (130°)" 7.2 NA "" "" "Clear"
"2466" 2015-02-19 "11:30 AM" 10 -2 43 1029.1 NA "Variable" 7.2 NA "" "" "Clear"
"2467" 2015-02-19 "12:00 PM" 11 -2 41 1029.1 NA "Variable" 7.2 NA "" "" "Clear"
"2468" 2015-02-19 "12:30 PM" 10 -3 40 1028.1 NA "East (100°)" 14.3 NA "" "" "Clear"
"2469" 2015-02-19 "1:00 PM" 11 -3 38 1027.1 NA "SE (130°)" 10.8 28.8 "" "" "Clear"
"2470" 2015-02-19 "1:30 PM" 11 -4 35 1027.1 NA "SE (140°)" 14.3 NA "" "" "Clear"
"2471" 2015-02-19 "2:00 PM" 12 -3 35 1027.1 NA "ESE (110°)" 14.3 NA "" "" "Clear"
"2472" 2015-02-19 "2:30 PM" 12 -4 33 1027.1 NA "SE (130°)" 14.3 NA "" "" "Clear"
"2473" 2015-02-19 "3:00 PM" 12 -3 35 1026.1 NA "ESE (120°)" 10.8 NA "" "" "Clear"
"2474" 2015-02-19 "3:30 PM" 11 -3 38 1026.1 NA "SE (130°)" 14.3 NA "" "" "Clear"
"2475" 2015-02-19 "4:00 PM" 11 -4 35 1026.1 NA "ESE (110°)" 10.8 NA "" "" "Clear"
"2476" 2015-02-19 "4:30 PM" 11 -4 35 1026.1 NA "East (100°)" 18 NA "" "" "Clear"
"2477" 2015-02-19 "5:00 PM" 10 -3 40 1026.1 NA "ESE (110°)" 18 NA "" "" "Clear"
"2478" 2015-02-19 "5:30 PM" 9 -2 46 1026.1 NA "East (100°)" 18 NA "" "" "Clear"
"2479" 2015-02-19 "6:00 PM" 8 -1 53 1026.1 NA "ESE (110°)" 18 36 "" "" "Clear"
"2480" 2015-02-19 "6:30 PM" 8 0 57 1026.1 NA "East (100°)" 21.6 NA "" "" "Clear"
"2481" 2015-02-19 "7:00 PM" 7 1 66 1026.1 NA "ESE (120°)" 18 NA "" "" "Clear"
"2482" 2015-02-19 "7:30 PM" 7 1 66 1026.1 NA "ESE (110°)" 18 NA "" "" "Clear"
"2483" 2015-02-19 "8:00 PM" 7 1 66 1026.1 NA "ESE (110°)" 21.6 NA "" "" "Clear"
"2484" 2015-02-19 "8:30 PM" 7 1 66 1026.1 NA "East (100°)" 21.6 NA "" "" "Clear"
"2485" 2015-02-19 "9:00 PM" 7 1 66 1026.1 NA "East (100°)" 18 NA "" "" "Clear"
"2486" 2015-02-19 "9:30 PM" 7 1 66 1026.1 NA "East (100°)" 18 NA "" "" "Clear"
"2487" 2015-02-19 "10:00 PM" 6 1 70 1026.1 NA "ESE (120°)" 14.3 NA "" "" "Clear"
"2488" 2015-02-19 "10:30 PM" 6 1 70 1026.1 NA "ESE (110°)" 14.3 NA "" "" "Clear"
"2489" 2015-02-19 "11:00 PM" 6 1 70 1025.1 NA "ESE (120°)" 14.3 NA "" "" "Clear"
"2490" 2015-02-19 "11:30 PM" 6 1 70 1025.1 NA "ESE (120°)" 18 NA "" "" "Clear"
"2491" 2015-02-18 "12:00 AM" 7 -3 49 1025.1 NA "SE (140°)" 7.2 NA "" "" "Clear"
"2492" 2015-02-18 "12:30 AM" 7 -2 53 1024 NA "SE (130°)" 7.2 NA "" "" "Clear"
"2493" 2015-02-18 "1:00 AM" 7 -2 53 1024 NA "ESE (120°)" 7.2 NA "" "" "Clear"
"2494" 2015-02-18 "1:30 AM" 6 -2 57 1025.1 NA "South (180°)" 7.2 NA "" "" "Clear"
"2495" 2015-02-18 "2:00 AM" 5 -1 65 1025.1 NA "South (180°)" 7.2 NA "" "" "Clear"
"2496" 2015-02-18 "2:30 AM" 5 0 70 1025.1 NA "SSW (210°)" 7.2 NA "" "" "Clear"
"2497" 2015-02-18 "3:00 AM" 5 0 70 1025.1 NA "SSW (210°)" 3.5 NA "" "" "Clear"
"2498" 2015-02-18 "3:30 AM" 5 0 70 1025.1 NA "Calm" NA NA "" "" "Clear"
"2499" 2015-02-18 "4:00 AM" 5 0 70 1025.1 NA "Calm" NA NA "" "" "Clear"
"2500" 2015-02-18 "4:30 AM" 5 0 70 1025.1 NA "NNW (330°)" 3.5 NA "" "" "Clear"
"2501" 2015-02-18 "5:00 AM" 4 0 75 1025.1 NA "North (360°)" 7.2 NA "" "" "Clear"
"2502" 2015-02-18 "5:30 AM" 4 0 75 1025.1 NA "North (350°)" 7.2 NA "" "" "Clear"
"2503" 2015-02-18 "6:00 AM" 4 0 75 1025.1 NA "North (350°)" 3.5 NA "" "" "Clear"
"2504" 2015-02-18 "6:30 AM" 3 0 81 1026.1 6.9 "Variable" 3.5 NA "" "" ""
"2505" 2015-02-18 "7:00 AM" 4 0 75 1026.1 6.9 "Calm" NA NA "" "" ""
"2506" 2015-02-18 "7:30 AM" 4 1 81 1026.1 6.9 "North (350°)" 3.5 NA "" "" ""
"2507" 2015-02-18 "8:00 AM" 7 2 71 1027.1 6.9 "Variable" 3.5 NA "" "" ""
"2508" 2015-02-18 "8:30 AM" 7 0 61 1027.1 6.9 "North (360°)" 10.8 NA "" "" ""
"2509" 2015-02-18 "9:00 AM" 9 -2 46 1027.1 6.9 "NNE (20°)" 14.3 NA "" "" ""
"2510" 2015-02-18 "9:30 AM" 10 -2 43 1027.1 NA "NE (50°)" 14.3 NA "" "" "Clear"
"2511" 2015-02-18 "10:00 AM" 10 -1 47 1027.1 NA "NNE (20°)" 14.3 NA "" "" "Clear"
"2512" 2015-02-18 "10:30 AM" 10 1 54 1027.1 NA "ENE (60°)" 14.3 NA "" "" "Clear"
"2513" 2015-02-18 "11:00 AM" 11 1 50 1027.1 NA "NNE (30°)" 14.3 NA "" "" "Clear"
"2514" 2015-02-18 "11:30 AM" 11 1 50 1027.1 NA "NNE (20°)" 18 NA "" "" "Clear"
"2515" 2015-02-18 "12:00 PM" 11 1 50 1027.1 NA "North (10°)" 18 NA "" "" "Clear"
"2516" 2015-02-18 "12:30 PM" 12 1 47 1026.1 NA "NNE (30°)" 21.6 NA "" "" "Clear"
"2517" 2015-02-18 "1:00 PM" 12 1 47 1026.1 NA "NNE (20°)" 18 NA "" "" "Clear"
"2518" 2015-02-18 "1:30 PM" 12 0 44 1026.1 NA "NNE (20°)" 21.6 39.6 "" "" "Clear"
"2519" 2015-02-18 "2:00 PM" 12 0 44 1026.1 NA "NE (40°)" 21.6 NA "" "" "Clear"
"2520" 2015-02-18 "2:30 PM" 12 0 44 1026.1 NA "NNE (20°)" 21.6 NA "" "" "Clear"
"2521" 2015-02-18 "3:00 PM" 11 -1 44 1026.1 NA "North (360°)" 25.3 NA "" "" "Clear"
"2522" 2015-02-18 "3:30 PM" 11 -2 41 1026.1 NA "North (10°)" 25.3 NA "" "" "Clear"
"2523" 2015-02-18 "4:00 PM" 10 -2 43 1027.1 NA "NNE (20°)" 25.3 NA "" "" "Clear"
"2524" 2015-02-18 "4:30 PM" 9 -1 50 1027.1 NA "North (10°)" 25.3 NA "" "" "Clear"
"2525" 2015-02-18 "5:00 PM" 9 0 54 1027.1 NA "NNE (30°)" 21.6 NA "" "" "Clear"
"2526" 2015-02-18 "5:30 PM" 8 0 57 1027.1 NA "North (10°)" 18 NA "" "" "Clear"
"2527" 2015-02-18 "6:00 PM" 7 0 61 1028.1 NA "NNE (20°)" 21.6 NA "" "" "Clear"
"2528" 2015-02-18 "6:30 PM" 7 0 61 1028.1 NA "North (10°)" 21.6 NA "" "" "Clear"
"2529" 2015-02-18 "7:00 PM" 6 -1 61 1028.1 NA "North (360°)" 21.6 NA "" "" "Clear"
"2530" 2015-02-18 "7:30 PM" 6 0 66 1028.1 NA "NNE (30°)" 18 NA "" "" "Clear"
"2531" 2015-02-18 "8:00 PM" 6 0 66 1028.1 NA "NE (40°)" 21.6 NA "" "" "Clear"
"2532" 2015-02-18 "8:30 PM" 5 0 70 1029.1 NA "NNE (20°)" 21.6 NA "" "" "Clear"
"2533" 2015-02-18 "9:00 PM" 5 0 70 1029.1 NA "NNE (30°)" 25.3 NA "" "" "Clear"
"2534" 2015-02-18 "9:30 PM" 5 0 70 1029.1 NA "NNE (30°)" 18 NA "" "" "Clear"
"2535" 2015-02-18 "10:00 PM" 5 -1 65 1029.1 NA "NNE (30°)" 21.6 NA "" "" "Clear"
"2536" 2015-02-18 "10:30 PM" 5 -1 65 1029.1 NA "NNE (30°)" 25.3 NA "" "" "Clear"
"2537" 2015-02-18 "11:00 PM" 5 -1 65 1029.1 NA "NE (40°)" 18 NA "" "" "Clear"
"2538" 2015-02-18 "11:30 PM" 4 -1 70 1029.1 NA "NNE (30°)" 18 NA "" "" "Clear"
"2539" 2015-02-17 "12:00 AM" 9 6 82 1020 3.5 "North (360°)" 7.2 NA "" "" "Mist"
"2540" 2015-02-17 "12:30 AM" 7 6 93 1020 3.5 "North (350°)" 7.2 NA "" "" "Mist"
"2541" 2015-02-17 "1:00 AM" 8 6 87 1020 3.5 "North (350°)" 10.8 NA "" "" "Mist"
"2542" 2015-02-17 "1:30 AM" 8 6 87 1020 3.5 "North (350°)" 7.2 NA "" "" "Mist"
"2543" 2015-02-17 "2:00 AM" 7 5 87 1020 3.5 "North (350°)" 7.2 NA "" "" "Mist"
"2544" 2015-02-17 "2:30 AM" 8 7 93 1020 1.9 "NNE (30°)" 14.3 NA "" "" "Partly Cloudy"
"2545" 2015-02-17 "3:00 AM" 8 7 93 1020 1.9 "NE (40°)" 14.3 NA "" "" "Mostly Cloudy"
"2546" 2015-02-17 "3:30 AM" 8 7 93 1020 1.9 "NE (40°)" 14.3 NA "" "" "Mostly Cloudy"
"2547" 2015-02-17 "4:00 AM" 8 6 87 1020 2.6 "NNE (20°)" 14.3 NA "" "" "Mostly Cloudy"
"2548" 2015-02-17 "4:30 AM" 7 6 93 1020 3.1 "NNE (30°)" 14.3 NA "" "" "Partly Cloudy"
"2549" 2015-02-17 "5:00 AM" 7 5 87 1020 3.1 "NE (50°)" 10.8 NA "" "" "Mist"
"2550" 2015-02-17 "5:30 AM" 7 5 87 1020 3.1 "ENE (60°)" 10.8 NA "" "" "Mist"
"2551" 2015-02-17 "6:00 AM" 8 5 81 1020 3.1 "ENE (70°)" 7.2 NA "" "" "Mist"
"2552" 2015-02-17 "6:30 AM" 7 5 87 1021 3.1 "ENE (60°)" 7.2 NA "" "" "Mist"
"2553" 2015-02-17 "7:00 AM" 8 5 81 1021 3.1 "NE (50°)" 18 NA "" "" "Mist"
"2554" 2015-02-17 "7:30 AM" 8 5 81 1021 2.6 "NE (40°)" 10.8 NA "" "" "Mist"
"2555" 2015-02-17 "8:00 AM" 8 5 81 1022 2.6 "NE (50°)" 7.2 NA "" "" "Mist"
"2556" 2015-02-17 "9:00 AM" 9 4 71 1022 3.1 "SSE (150°)" 10.8 NA "" "" "Mist"
"2557" 2015-02-17 "9:30 AM" 9 4 71 1023 3.1 "South (170°)" 7.2 NA "" "" "Haze"
"2558" 2015-02-17 "10:00 AM" 10 5 71 1022 3.1 "SSE (160°)" 7.2 NA "" "" "Haze"
"2559" 2015-02-17 "10:30 AM" 11 4 62 1023 3.1 "South (180°)" 10.8 NA "" "" "Haze"
"2560" 2015-02-17 "11:00 AM" 11 3 58 1022 3.5 "Variable" 7.2 NA "" "" "Haze"
"2561" 2015-02-17 "11:30 AM" 12 3 54 1022 3.5 "SW (220°)" 7.2 NA "" "" "Haze"
"2562" 2015-02-17 "12:00 PM" 12 3 54 1022 4 "West (270°)" 10.8 NA "" "" "Haze"
"2563" 2015-02-17 "12:30 PM" 12 3 54 1021 4 "Variable" 7.2 NA "" "" "Haze"
"2564" 2015-02-17 "1:00 PM" 14 2 44 1021 5 "Variable" 3.5 NA "" "" "Haze"
"2565" 2015-02-17 "1:30 PM" 14 1 41 1021 6 "Variable" 7.2 NA "" "" ""
"2566" 2015-02-17 "2:00 PM" 14 0 38 1021 6.9 "WNW (300°)" 10.8 NA "" "" ""
"2567" 2015-02-17 "2:30 PM" 14 -1 36 1021 8 "Variable" 7.2 NA "" "" ""
"2568" 2015-02-17 "3:00 PM" 14 -4 29 1021 NA "North (360°)" 14.3 NA "" "" "Clear"
"2569" 2015-02-17 "3:30 PM" 14 -4 29 1021 NA "North (360°)" 14.3 NA "" "" "Clear"
"2570" 2015-02-17 "4:00 PM" 14 -3 31 1021 NA "NE (50°)" 14.3 NA "" "" "Clear"
"2571" 2015-02-17 "4:30 PM" 13 -3 33 1021 NA "North (10°)" 14.3 NA "" "" "Clear"
"2572" 2015-02-17 "5:00 PM" 12 -2 38 1021 NA "NNE (20°)" 18 NA "" "" "Clear"
"2573" 2015-02-17 "5:30 PM" 12 -2 38 1022 NA "NE (40°)" 18 NA "" "" "Clear"
"2574" 2015-02-17 "6:00 PM" 12 -2 38 1022 NA "ENE (60°)" 14.3 NA "" "" "Clear"
"2575" 2015-02-17 "6:30 PM" 11 -4 35 1022 NA "East (80°)" 14.3 NA "" "" "Clear"
"2576" 2015-02-17 "7:00 PM" 10 -3 40 1023 NA "East (90°)" 10.8 NA "" "" "Clear"
"2577" 2015-02-17 "7:30 PM" 10 -3 40 1023 NA "East (80°)" 10.8 NA "" "" "Clear"
"2578" 2015-02-17 "8:00 PM" 9 -4 40 1023 NA "ENE (70°)" 10.8 NA "" "" "Clear"
"2579" 2015-02-17 "8:30 PM" 9 -4 40 1024 NA "East (90°)" 7.2 NA "" "" "Clear"
"2580" 2015-02-17 "9:00 PM" 9 -5 37 1024 NA "Variable" 3.5 NA "" "" "Clear"
"2581" 2015-02-17 "9:30 PM" 9 -6 34 1024 NA "East (80°)" 7.2 NA "" "" "Clear"
"2582" 2015-02-17 "10:00 PM" 9 -6 34 1024 NA "East (100°)" 7.2 NA "" "" "Clear"
"2583" 2015-02-17 "10:30 PM" 8 -5 40 1024 NA "ESE (120°)" 7.2 NA "" "" "Clear"
"2584" 2015-02-17 "11:00 PM" 8 -6 37 1024 NA "SSE (150°)" 7.2 NA "" "" "Clear"
"2585" 2015-02-17 "11:30 PM" 8 -4 43 1024 NA "SE (140°)" 7.2 NA "" "" "Clear"
"2586" 2015-02-16 "12:00 AM" 15 13 88 1016.3 6 "West (280°)" 7.2 NA "" "" ""
"2587" 2015-02-16 "12:30 AM" 14 13 94 1016.3 6 "West (280°)" 10.8 NA "" "" ""
"2588" 2015-02-16 "1:00 AM" 14 13 94 1016.3 6 "WNW (290°)" 7.2 NA "" "" "Partly Cloudy"
"2589" 2015-02-16 "1:30 AM" 14 13 94 1016.3 6 "West (280°)" 10.8 NA "" "" "Partly Cloudy"
"2590" 2015-02-16 "2:00 AM" 14 12 88 1016.3 6 "West (280°)" 14.3 NA "" "" "Partly Cloudy"
"2591" 2015-02-16 "2:30 AM" 14 12 88 1016.3 6 "WNW (300°)" 14.3 NA "" "" "Scattered Clouds"
"2592" 2015-02-16 "3:00 AM" 14 12 88 1016.3 6 "NW (320°)" 14.3 NA "" "" "Mostly Cloudy"
"2593" 2015-02-16 "3:30 AM" 14 11 82 1016.3 6 "NW (310°)" 18 NA "" "" "Mostly Cloudy"
"2594" 2015-02-16 "4:00 AM" 13 11 88 1016.3 6 "NW (310°)" 14.3 NA "" "" "Mostly Cloudy"
"2595" 2015-02-16 "4:30 AM" 13 11 88 1016.3 6 "WNW (290°)" 10.8 NA "" "" "Mostly Cloudy"
"2596" 2015-02-16 "5:00 AM" 13 11 88 1016.3 5 "West (280°)" 18 NA "" "" "Mostly Cloudy"
"2597" 2015-02-16 "5:30 AM" 13 10 82 1017.3 5 "WNW (290°)" 18 NA "" "" "Scattered Clouds"
"2598" 2015-02-16 "6:00 AM" 13 10 82 1017.3 6 "WNW (290°)" 14.3 NA "" "" "Scattered Clouds"
"2599" 2015-02-16 "6:30 AM" 13 10 82 1017.3 6 "WNW (290°)" 14.3 NA "" "" "Mostly Cloudy"
"2600" 2015-02-16 "7:00 AM" 13 10 82 1017.9 5 "WNW (300°)" 14.3 NA "" "" "Mostly Cloudy"
"2601" 2015-02-16 "7:30 AM" 13 9 77 1017.9 5 "WNW (300°)" 21.6 NA "" "" "Mostly Cloudy"
"2602" 2015-02-16 "8:00 AM" 12 9 82 1019 4.5 "NW (320°)" 32.3 NA "" "" "Scattered Clouds"
"2603" 2015-02-16 "8:30 AM" 13 8 72 1019 4 "NW (310°)" 28.8 NA "" "" "Scattered Clouds"
"2604" 2015-02-16 "9:00 AM" 12 8 77 1019 3.5 "NW (320°)" 21.6 NA "" "" "Scattered Clouds"
"2605" 2015-02-16 "9:30 AM" 12 8 77 1019 3.5 "WNW (300°)" 25.3 NA "" "" "Mostly Cloudy"
"2606" 2015-02-16 "10:00 AM" 12 8 77 1019 3.5 "NW (310°)" 21.6 NA "" "" "Scattered Clouds"
"2607" 2015-02-16 "10:30 AM" 12 8 77 1019 3.5 "NW (320°)" 21.6 NA "" "" "Mostly Cloudy"
"2608" 2015-02-16 "11:00 AM" 12 8 77 1019 3.1 "NW (320°)" 21.6 NA "" "" "Mostly Cloudy"
"2609" 2015-02-16 "11:30 AM" 12 8 77 1019 3.1 "NW (320°)" 25.3 NA "" "" "Mostly Cloudy"
"2610" 2015-02-16 "12:00 PM" 13 8 72 1019 4 "NW (310°)" 18 NA "" "" "Scattered Clouds"
"2611" 2015-02-16 "12:30 PM" 13 8 72 1017.9 4 "NW (310°)" 21.6 NA "" "" "Haze"
"2612" 2015-02-16 "1:00 PM" 13 8 72 1017.9 4 "NW (320°)" 21.6 NA "" "" "Haze"
"2613" 2015-02-16 "1:30 PM" 13 9 77 1017.9 4 "NNW (330°)" 21.6 NA "" "" "Haze"
"2614" 2015-02-16 "2:00 PM" 14 9 72 1017.3 4 "NW (320°)" 18 NA "" "" "Haze"
"2615" 2015-02-16 "2:30 PM" 15 9 67 1017.3 4 "NNW (330°)" 14.3 NA "" "" "Haze"
"2616" 2015-02-16 "3:00 PM" 15 8 63 1017.3 4 "NW (320°)" 18 NA "" "" "Haze"
"2617" 2015-02-16 "3:30 PM" 14 8 67 1017.3 5 "NNW (330°)" 21.6 NA "" "" "Haze"
"2618" 2015-02-16 "4:00 PM" 15 8 63 1017.3 6 "NW (320°)" 21.6 NA "" "" "Partly Cloudy"
"2619" 2015-02-16 "4:30 PM" 15 7 59 1017.3 6.9 "NW (320°)" 18 NA "" "" "Partly Cloudy"
"2620" 2015-02-16 "5:00 PM" 14 7 63 1017.9 6.9 "NW (310°)" 18 NA "" "" "Partly Cloudy"
"2621" 2015-02-16 "5:30 PM" 13 7 67 1017.9 6 "NNW (330°)" 14.3 NA "" "" ""
"2622" 2015-02-16 "6:00 PM" 13 7 67 1017.9 6 "NNW (330°)" 14.3 NA "" "" ""
"2623" 2015-02-16 "6:30 PM" 13 7 67 1017.9 6 "Variable" 14.3 NA "" "" ""
"2624" 2015-02-16 "7:00 PM" 13 8 72 1019 6 "NNW (330°)" 14.3 NA "" "" ""
"2625" 2015-02-16 "7:30 PM" 11 8 82 1019 5 "NNE (20°)" 10.8 NA "" "" "Mist"
"2626" 2015-02-16 "8:00 PM" 10 7 82 1019 5 "North (10°)" 10.8 NA "" "" "Mist"
"2627" 2015-02-16 "8:30 PM" 10 7 82 1020 4 "North (10°)" 10.8 NA "" "" "Mist"
"2628" 2015-02-16 "9:00 PM" 9 7 87 1020 4 "North (360°)" 7.2 NA "" "" "Mist"
"2629" 2015-02-16 "9:30 PM" 9 7 87 1020 4 "North (360°)" 7.2 NA "" "" "Mist"
"2630" 2015-02-16 "10:00 PM" 9 7 87 1020 4 "North (360°)" 7.2 NA "" "" "Mist"
"2631" 2015-02-16 "10:30 PM" 9 7 87 1020 4 "North (10°)" 10.8 NA "" "" "Mist"
"2632" 2015-02-16 "11:00 PM" 9 7 87 1020 4 "North (10°)" 7.2 NA "" "" "Mist"
"2633" 2015-02-16 "11:30 PM" 9 6 82 1020 4 "North (360°)" 7.2 NA "" "" "Mist"
"2634" 2015-02-15 "12:00 AM" 16 10 68 1017.3 NA "South (170°)" 21.6 NA "" "" "Clear"
"2635" 2015-02-15 "12:30 AM" 16 10 68 1017.3 NA "South (180°)" 18 NA "" "" "Clear"
"2636" 2015-02-15 "1:00 AM" 16 10 68 1017.3 10 "South (190°)" 18 NA "" "Rain" "Light Rain"
"2637" 2015-02-15 "1:30 AM" 14 11 82 1017.3 10 "South (180°)" 7.2 NA "" "Rain" "Light Rain"
"2638" 2015-02-15 "2:00 AM" 15 11 77 1017.3 10 "ESE (120°)" 7.2 NA "" "Rain" "Light Rain"
"2639" 2015-02-15 "2:30 AM" 14 11 82 1017.3 NA "Variable" 3.5 NA "" "" "Clear"
"2640" 2015-02-15 "3:00 AM" 13 11 88 1016.3 NA "South (170°)" 3.5 NA "" "" "Clear"
"2641" 2015-02-15 "3:30 AM" 14 11 82 1016.3 10 "SE (140°)" 7.2 NA "" "Rain" "Light Rain"
"2642" 2015-02-15 "4:00 AM" 14 11 82 1016.3 10 "SSE (160°)" 10.8 NA "" "Rain" "Light Rain"
"2643" 2015-02-15 "4:30 AM" 14 11 82 1015.2 NA "SE (140°)" 10.8 NA "" "" "Clear"
"2644" 2015-02-15 "5:00 AM" 14 11 82 1015.2 10 "East (90°)" 10.8 NA "" "Rain" "Light Rain"
"2645" 2015-02-15 "5:30 AM" 14 11 82 1015.2 10 "ENE (70°)" 7.2 NA "" "Rain" "Light Rain"
"2646" 2015-02-15 "6:00 AM" 14 11 82 1015.2 10 "Calm" NA NA "" "Rain" "Light Rain"
"2647" 2015-02-15 "6:30 AM" 13 12 94 1015.2 6.9 "SE (130°)" 10.8 NA "" "Rain" "Light Rain"
"2648" 2015-02-15 "7:00 AM" 13 12 94 1016.3 3.5 "SE (140°)" 14.3 NA "" "Rain" "Light Rain"
"2649" 2015-02-15 "7:30 AM" 13 12 94 1015.2 3.5 "SE (140°)" 10.8 NA "" "Rain" "Light Rain"
"2650" 2015-02-15 "8:00 AM" 13 12 94 1016.3 3.1 "SSE (150°)" 10.8 NA "" "Rain" "Light Rain"
"2651" 2015-02-15 "8:30 AM" 13 13 100 1016.3 2.6 "SSE (150°)" 14.3 NA "" "Rain" "Light Rain"
"2652" 2015-02-15 "9:00 AM" 14 13 94 1016.3 3.1 "SSE (160°)" 10.8 NA "" "Rain" "Light Rain"
"2653" 2015-02-15 "9:30 AM" 14 13 94 1016.3 3.1 "SSE (160°)" 10.8 NA "" "Rain" "Light Rain"
"2654" 2015-02-15 "10:00 AM" 14 13 94 1016.3 2.7 "SSE (160°)" 10.8 NA "" "Rain" "Light Rain"
"2655" 2015-02-15 "10:30 AM" 15 14 94 1015.2 3.5 "South (180°)" 10.8 NA "" "Rain" "Light Rain"
"2656" 2015-02-15 "11:00 AM" 15 14 94 1015.2 5 "South (180°)" 14.3 NA "" "" "Mist"
"2657" 2015-02-15 "11:30 AM" 16 14 88 1015.2 5 "South (180°)" 14.3 NA "" "Rain" "Light Rain"
"2658" 2015-02-15 "12:00 PM" 16 14 88 1014.2 6 "South (190°)" 10.8 NA "" "" ""
"2659" 2015-02-15 "12:30 PM" 17 15 88 1014.2 6.9 "SSW (200°)" 14.3 NA "" "" ""
"2660" 2015-02-15 "1:00 PM" 18 14 77 1013.2 8 "SSW (210°)" 14.3 NA "" "" ""
"2661" 2015-02-15 "1:30 PM" 18 14 77 1013.2 10 "SSW (210°)" 18 NA "" "" "Mostly Cloudy"
"2662" 2015-02-15 "2:00 PM" 18 13 73 1013.2 10 "SW (220°)" 14.3 NA "" "Rain" "Light Rain"
"2663" 2015-02-15 "2:30 PM" 18 13 73 1013.2 10 "SW (220°)" 10.8 NA "" "" "Overcast"
"2664" 2015-02-15 "3:00 PM" 18 13 73 1013.2 NA "SW (230°)" 14.3 NA "" "" "Clear"
"2665" 2015-02-15 "3:30 PM" 18 13 73 1012.2 10 "SW (220°)" 10.8 NA "" "Rain" "Light Rain"
"2666" 2015-02-15 "4:00 PM" 19 13 68 1013.2 10 "SW (230°)" 10.8 NA "" "" "Partly Cloudy"
"2667" 2015-02-15 "4:30 PM" 18 13 73 1013.2 10 "Variable" 10.8 NA "" "" "Partly Cloudy"
"2668" 2015-02-15 "5:00 PM" 18 13 73 1013.2 NA "WSW (240°)" 10.8 NA "" "" "Clear"
"2669" 2015-02-15 "5:30 PM" 17 13 77 1013.2 NA "SW (230°)" 7.2 NA "" "" "Clear"
"2670" 2015-02-15 "6:00 PM" 17 13 77 1013.2 NA "West (260°)" 10.8 NA "" "" "Clear"
"2671" 2015-02-15 "6:30 PM" 17 13 77 1013.2 NA "WNW (290°)" 7.2 NA "" "" "Clear"
"2672" 2015-02-15 "7:00 PM" 16 13 82 1014.2 NA "WNW (300°)" 10.8 NA "" "" "Clear"
"2673" 2015-02-15 "7:30 PM" 16 13 82 1014.2 NA "West (270°)" 7.2 NA "" "" "Clear"
"2674" 2015-02-15 "8:00 PM" 16 13 82 1015.2 NA "WNW (290°)" 10.8 NA "" "" "Clear"
"2675" 2015-02-15 "8:30 PM" 16 13 82 1015.2 NA "West (270°)" 7.2 NA "" "" "Clear"
"2676" 2015-02-15 "9:00 PM" 16 13 82 1015.2 NA "West (260°)" 7.2 NA "" "" "Clear"
"2677" 2015-02-15 "9:30 PM" 16 12 77 1015.2 NA "WNW (290°)" 10.8 NA "" "" "Clear"
"2678" 2015-02-15 "10:00 PM" 15 12 82 1016.3 8 "WNW (290°)" 10.8 NA "" "" ""
"2679" 2015-02-15 "10:30 PM" 15 13 88 1015.2 6.9 "WNW (290°)" 7.2 NA "" "" ""
"2680" 2015-02-15 "11:00 PM" 15 13 88 1016.3 6.9 "WNW (290°)" 10.8 NA "" "" ""
"2681" 2015-02-15 "11:30 PM" 15 13 88 1016.3 6.9 "West (270°)" 10.8 NA "" "" ""
"2682" 2015-02-14 "12:00 AM" 8 4 76 1021 NA "ESE (120°)" 14.3 NA "" "" "Clear"
"2683" 2015-02-14 "12:30 AM" 8 3 71 1022 NA "ESE (120°)" 10.8 NA "" "" "Clear"
"2684" 2015-02-14 "1:00 AM" 8 4 76 1021 NA "SE (130°)" 18 NA "" "" "Clear"
"2685" 2015-02-14 "1:30 AM" 8 4 76 1021 NA "ESE (120°)" 14.3 NA "" "" "Clear"
"2686" 2015-02-14 "2:00 AM" 8 4 76 1021 NA "SE (130°)" 14.3 NA "" "" "Clear"
"2687" 2015-02-14 "2:30 AM" 8 4 76 1021 NA "SE (130°)" 14.3 NA "" "" "Clear"
"2688" 2015-02-14 "3:00 AM" 7 4 81 1020 NA "SE (130°)" 10.8 NA "" "" "Clear"
"2689" 2015-02-14 "3:30 AM" 7 5 87 1020 NA "SE (130°)" 14.3 NA "" "" "Clear"
"2690" 2015-02-14 "4:00 AM" 7 5 87 1020 NA "SE (130°)" 10.8 NA "" "" "Clear"
"2691" 2015-02-14 "4:30 AM" 7 5 87 1020 NA "SE (130°)" 14.3 NA "" "" "Clear"
"2692" 2015-02-14 "5:00 AM" 8 6 87 1020 NA "SE (130°)" 14.3 NA "" "" "Clear"
"2693" 2015-02-14 "5:30 AM" 7 6 93 1020 NA "SE (140°)" 10.8 NA "" "" "Clear"
"2694" 2015-02-14 "6:00 AM" 7 6 93 1020 NA "SE (130°)" 10.8 NA "" "" "Clear"
"2695" 2015-02-14 "6:30 AM" 7 6 93 1020 6 "SE (130°)" 10.8 NA "" "" ""
"2696" 2015-02-14 "7:00 AM" 8 6 87 1020 6 "SE (130°)" 14.3 NA "" "" ""
"2697" 2015-02-14 "7:30 AM" 8 7 93 1020 4 "SE (130°)" 14.3 NA "" "" "Mist"
"2698" 2015-02-14 "8:00 AM" 9 7 87 1020 4 "SE (130°)" 14.3 NA "" "" "Mist"
"2699" 2015-02-14 "8:30 AM" 9 8 93 1020 3.5 "SE (130°)" 14.3 NA "" "" "Scattered Clouds"
"2700" 2015-02-14 "9:00 AM" 10 9 94 1020 3.5 "SSE (150°)" 14.3 NA "" "" "Scattered Clouds"
"2701" 2015-02-14 "9:30 AM" 12 9 82 1020 3.5 "SE (140°)" 14.3 NA "" "" "Partly Cloudy"
"2702" 2015-02-14 "10:00 AM" 13 9 77 1020 4 "SE (140°)" 21.6 NA "" "" "Mist"
"2703" 2015-02-14 "10:30 AM" 14 10 77 1020 4 "SE (140°)" 18 NA "" "" "Mist"
"2704" 2015-02-14 "11:00 AM" 15 10 72 1020 5 "SSE (160°)" 21.6 NA "" "" "Haze"
"2705" 2015-02-14 "11:30 AM" 16 10 68 1019 5 "SSE (160°)" 21.6 NA "" "" "Haze"
"2706" 2015-02-14 "12:00 PM" 16 9 63 1019 6 "SSE (150°)" 18 NA "" "" ""
"2707" 2015-02-14 "12:30 PM" 17 9 59 1017.9 6 "South (170°)" 21.6 NA "" "" ""
"2708" 2015-02-14 "1:00 PM" 17 9 59 1017.9 6 "SSE (150°)" 21.6 NA "" "" ""
"2709" 2015-02-14 "1:30 PM" 17 9 59 1017.3 6 "SSE (150°)" 21.6 NA "" "" ""
"2710" 2015-02-14 "2:00 PM" 18 9 56 1017.3 6.9 "SSE (160°)" 18 NA "" "" ""
"2711" 2015-02-14 "2:30 PM" 18 9 56 1017.3 6.9 "SSE (160°)" 14.3 NA "" "" ""
"2712" 2015-02-14 "3:00 PM" 18 9 56 1017.3 6.9 "SSE (160°)" 18 NA "" "" ""
"2713" 2015-02-14 "3:30 PM" 18 8 52 1016.3 6.9 "SE (140°)" 14.3 NA "" "" ""
"2714" 2015-02-14 "4:00 PM" 18 9 56 1016.3 6.9 "SSE (150°)" 18 NA "" "" ""
"2715" 2015-02-14 "4:30 PM" 18 9 56 1016.3 8 "SSE (150°)" 18 NA "" "" ""
"2716" 2015-02-14 "5:00 PM" 17 9 59 1016.3 8 "SE (140°)" 14.3 NA "" "" ""
"2717" 2015-02-14 "5:30 PM" 16 9 63 1016.3 8 "SE (140°)" 18 NA "" "" ""
"2718" 2015-02-14 "6:00 PM" 16 9 63 1017.3 NA "SSE (150°)" 21.6 NA "" "" "Clear"
"2719" 2015-02-14 "6:30 PM" 16 9 63 1017.3 NA "SSE (150°)" 18 NA "" "" "Clear"
"2720" 2015-02-14 "7:00 PM" 15 9 67 1017.3 NA "SSE (150°)" 18 NA "" "" "Clear"
"2721" 2015-02-14 "7:30 PM" 15 9 67 1017.3 NA "SSE (150°)" 14.3 NA "" "" "Clear"
"2722" 2015-02-14 "8:00 PM" 15 9 67 1017.3 NA "SSE (150°)" 18 NA "" "" "Clear"
"2723" 2015-02-14 "8:30 PM" 16 9 63 1017.3 NA "SSE (160°)" 18 NA "" "" "Clear"
"2724" 2015-02-14 "9:00 PM" 16 9 63 1017.3 NA "SSE (160°)" 21.6 NA "" "" "Clear"
"2725" 2015-02-14 "9:30 PM" 16 9 63 1017.3 NA "South (170°)" 21.6 NA "" "" "Clear"
"2726" 2015-02-14 "10:00 PM" 16 9 63 1017.3 NA "SSE (160°)" 21.6 NA "" "" "Clear"
"2727" 2015-02-14 "10:30 PM" 16 10 68 1017.3 NA "SSE (160°)" 21.6 NA "" "" "Clear"
"2728" 2015-02-14 "11:00 PM" 16 10 68 1017.3 NA "SSE (160°)" 21.6 NA "" "" "Clear"
"2729" 2015-02-14 "11:30 PM" 16 10 68 1017.3 NA "SSE (160°)" 21.6 NA "" "" "Clear"
"2730" 2015-02-13 "12:00 AM" 6 2 76 1020 NA "East (90°)" 10.8 NA "" "" "Clear"
"2731" 2015-02-13 "12:30 AM" 6 2 76 1020 NA "East (90°)" 7.2 NA "" "" "Clear"
"2732" 2015-02-13 "1:00 AM" 6 2 76 1020 NA "East (100°)" 7.2 NA "" "" "Clear"
"2733" 2015-02-13 "1:30 AM" 6 2 76 1019 NA "East (90°)" 14.3 NA "" "" "Clear"
"2734" 2015-02-13 "2:00 AM" 6 2 76 1019 NA "East (100°)" 14.3 NA "" "" "Clear"
"2735" 2015-02-13 "2:30 AM" 6 2 76 1019 NA "ESE (120°)" 10.8 NA "" "" "Clear"
"2736" 2015-02-13 "3:00 AM" 6 2 76 1020 NA "ESE (120°)" 10.8 NA "" "" "Clear"
"2737" 2015-02-13 "3:30 AM" 6 2 76 1019 NA "SE (130°)" 10.8 NA "" "" "Clear"
"2738" 2015-02-13 "4:00 AM" 6 2 76 1019 NA "ESE (110°)" 10.8 NA "" "" "Clear"
"2739" 2015-02-13 "4:30 AM" 6 2 76 1019 NA "East (100°)" 7.2 NA "" "" "Clear"
"2740" 2015-02-13 "5:00 AM" 6 2 76 1019 NA "ESE (110°)" 7.2 NA "" "" "Clear"
"2741" 2015-02-13 "5:30 AM" 6 2 76 1020 NA "East (80°)" 10.8 NA "" "" "Clear"
"2742" 2015-02-13 "6:00 AM" 6 2 76 1020 NA "East (90°)" 7.2 NA "" "" "Clear"
"2743" 2015-02-13 "6:30 AM" 6 2 76 1020 NA "East (90°)" 7.2 NA "" "" "Clear"
"2744" 2015-02-13 "7:00 AM" 6 2 76 1020 NA "East (90°)" 14.3 NA "" "" "Clear"
"2745" 2015-02-13 "7:30 AM" 7 2 71 1021 NA "ESE (110°)" 14.3 NA "" "" "Clear"
"2746" 2015-02-13 "8:00 AM" 7 3 76 1021 NA "East (100°)" 14.3 NA "" "" "Clear"
"2747" 2015-02-13 "8:30 AM" 8 2 66 1021 NA "ESE (110°)" 18 NA "" "" "Clear"
"2748" 2015-02-13 "9:00 AM" 8 2 66 1021 NA "ESE (110°)" 14.3 NA "" "" "Clear"
"2749" 2015-02-13 "9:30 AM" 9 1 58 1021 NA "ESE (110°)" 14.3 NA "" "" "Clear"
"2750" 2015-02-13 "10:00 AM" 10 1 54 1021 NA "SE (130°)" 18 NA "" "" "Clear"
"2751" 2015-02-13 "10:30 AM" 11 -2 41 1021 NA "ESE (120°)" 21.6 NA "" "" "Clear"
"2752" 2015-02-13 "11:00 AM" 12 -2 38 1021 NA "SE (130°)" 18 NA "" "" "Clear"
"2753" 2015-02-13 "11:30 AM" 12 -2 38 1021 NA "SE (130°)" 18 NA "" "" "Clear"
"2754" 2015-02-13 "12:00 PM" 12 -1 41 1020 NA "SE (140°)" 18 NA "" "" "Clear"
"2755" 2015-02-13 "12:30 PM" 13 1 44 1020 NA "SSE (160°)" 18 NA "" "" "Clear"
"2756" 2015-02-13 "1:00 PM" 13 2 47 1020 NA "SE (130°)" 18 NA "" "" "Clear"
"2757" 2015-02-13 "1:30 PM" 13 2 47 1019 NA "SE (140°)" 14.3 NA "" "" "Clear"
"2758" 2015-02-13 "2:00 PM" 13 3 51 1019 NA "SE (130°)" 14.3 NA "" "" "Clear"
"2759" 2015-02-13 "2:30 PM" 13 3 51 1019 NA "ESE (120°)" 14.3 NA "" "" "Clear"
"2760" 2015-02-13 "3:00 PM" 13 3 51 1019 NA "ESE (120°)" 14.3 NA "" "" "Clear"
"2761" 2015-02-13 "3:30 PM" 13 3 51 1019 NA "SE (130°)" 10.8 NA "" "" "Clear"
"2762" 2015-02-13 "4:00 PM" 13 3 51 1019 NA "SE (130°)" 14.3 NA "" "" "Clear"
"2763" 2015-02-13 "4:30 PM" 12 3 54 1020 NA "SSE (150°)" 14.3 NA "" "" "Clear"
"2764" 2015-02-13 "5:00 PM" 12 3 54 1020 NA "SE (140°)" 18 NA "" "" "Clear"
"2765" 2015-02-13 "5:30 PM" 11 3 58 1021 NA "SE (130°)" 18 NA "" "" "Clear"
"2766" 2015-02-13 "6:00 PM" 10 3 62 1021 NA "ESE (120°)" 18 NA "" "" "Clear"
"2767" 2015-02-13 "6:30 PM" 10 2 58 1021 NA "ESE (120°)" 18 NA "" "" "Clear"
"2768" 2015-02-13 "7:00 PM" 10 2 58 1022 NA "ESE (110°)" 14.3 NA "" "" "Clear"
"2769" 2015-02-13 "7:30 PM" 9 2 62 1022 NA "ESE (120°)" 10.8 NA "" "" "Clear"
"2770" 2015-02-13 "8:00 PM" 9 2 62 1022 NA "ESE (110°)" 14.3 NA "" "" "Clear"
"2771" 2015-02-13 "8:30 PM" 9 3 66 1022 NA "ESE (110°)" 14.3 NA "" "" "Clear"
"2772" 2015-02-13 "9:00 PM" 8 3 71 1022 NA "ESE (120°)" 10.8 NA "" "" "Clear"
"2773" 2015-02-13 "9:30 PM" 8 3 71 1022 NA "ESE (120°)" 14.3 NA "" "" "Clear"
"2774" 2015-02-13 "10:00 PM" 8 3 71 1022 NA "ESE (120°)" 10.8 NA "" "" "Clear"
"2775" 2015-02-13 "10:30 PM" 8 3 71 1022 NA "ESE (120°)" 14.3 NA "" "" "Clear"
"2776" 2015-02-13 "11:00 PM" 8 3 71 1022 NA "SE (130°)" 18 NA "" "" "Clear"
"2777" 2015-02-13 "11:30 PM" 8 3 71 1022 NA "SE (130°)" 18 NA "" "" "Clear"
"2778" 2015-02-12 "12:00 AM" 9 1 58 1016.3 NA "West (260°)" 14.3 NA "" "" "Clear"
"2779" 2015-02-12 "12:30 AM" 8 1 62 1016.3 NA "West (270°)" 10.8 NA "" "" "Clear"
"2780" 2015-02-12 "1:00 AM" 8 1 62 1016.3 NA "West (260°)" 10.8 NA "" "" "Clear"
"2781" 2015-02-12 "1:30 AM" 7 1 66 1016.3 NA "SW (230°)" 7.2 NA "" "" "Clear"
"2782" 2015-02-12 "2:00 AM" 8 1 62 1016.3 NA "West (260°)" 10.8 NA "" "" "Clear"
"2783" 2015-02-12 "2:30 AM" 9 1 58 1016.3 NA "WNW (290°)" 14.3 NA "" "" "Clear"
"2784" 2015-02-12 "3:00 AM" 8 -1 53 1016.3 NA "WNW (290°)" 18 NA "" "" "Clear"
"2785" 2015-02-12 "3:30 AM" 8 -1 53 1016.3 NA "WNW (290°)" 18 NA "" "" "Clear"
"2786" 2015-02-12 "4:00 AM" 7 -1 57 1016.3 6.9 "WNW (290°)" 14.3 NA "" "" ""
"2787" 2015-02-12 "4:30 AM" 7 -1 57 1016.3 6.9 "WNW (290°)" 18 NA "" "" ""
"2788" 2015-02-12 "5:00 AM" 7 -1 57 1017.3 6 "WNW (290°)" 14.3 NA "" "" ""
"2789" 2015-02-12 "5:30 AM" 7 -1 57 1017.3 6 "West (280°)" 14.3 NA "" "" ""
"2790" 2015-02-12 "6:00 AM" 6 -1 61 1017.9 6 "West (280°)" 14.3 NA "" "" ""
"2791" 2015-02-12 "6:30 AM" 6 -1 61 1017.9 4 "WNW (290°)" 10.8 NA "" "" "Haze"
"2792" 2015-02-12 "7:00 AM" 6 -1 61 1017.9 3.1 "WNW (290°)" 10.8 NA "" "" "Haze"
"2793" 2015-02-12 "7:30 AM" 6 -1 61 1019 3.1 "WNW (300°)" 10.8 NA "" "" "Haze"
"2794" 2015-02-12 "8:00 AM" 7 0 61 1019 3.1 "NW (310°)" 14.3 NA "" "" "Haze"
"2795" 2015-02-12 "8:30 AM" 8 0 57 1019 3.1 "NW (320°)" 10.8 NA "" "" "Haze"
"2796" 2015-02-12 "9:00 AM" 8 0 57 1019 2.6 "NNW (340°)" 14.3 NA "" "" "Haze"
"2797" 2015-02-12 "9:30 AM" 9 0 54 1019 2.4 "NNW (330°)" 18 NA "" "" "Haze"
"2798" 2015-02-12 "10:00 AM" 9 1 58 1020 2.4 "NNW (330°)" 18 NA "" "" "Haze"
"2799" 2015-02-12 "10:30 AM" 10 1 54 1020 2.4 "NNW (330°)" 21.6 NA "" "" "Haze"
"2800" 2015-02-12 "11:00 AM" 11 1 50 1019 2.4 "NW (320°)" 14.3 NA "" "" "Haze"
"2801" 2015-02-12 "11:30 AM" 11 1 50 1019 2.4 "NNW (330°)" 18 NA "" "" "Haze"
"2802" 2015-02-12 "12:00 PM" 12 1 47 1019 2.3 "NW (320°)" 14.3 NA "" "" "Haze"
"2803" 2015-02-12 "12:30 PM" 12 2 51 1019 2.3 "NW (310°)" 14.3 NA "" "" "Haze"
"2804" 2015-02-12 "1:00 PM" 12 1 47 1017.9 2.3 "NNW (340°)" 14.3 NA "" "" "Haze"
"2805" 2015-02-12 "1:30 PM" 13 1 44 1017.9 2.3 "NNW (330°)" 14.3 NA "" "" "Haze"
"2806" 2015-02-12 "2:00 PM" 13 1 44 1017.9 2.6 "NNW (330°)" 14.3 NA "" "" "Haze"
"2807" 2015-02-12 "2:30 PM" 13 0 41 1017.9 2.7 "NNW (340°)" 14.3 NA "" "" "Haze"
"2808" 2015-02-12 "3:00 PM" 13 -2 36 1017.9 3.1 "NNW (330°)" 18 NA "" "" "Haze"
"2809" 2015-02-12 "3:30 PM" 13 2 47 1017.9 3.1 "NNW (330°)" 18 NA "" "" "Haze"
"2810" 2015-02-12 "4:00 PM" 12 2 51 1017.9 3.5 "NNE (20°)" 14.3 NA "" "" "Haze"
"2811" 2015-02-12 "4:30 PM" 12 1 47 1017.9 3.5 "NE (40°)" 10.8 NA "" "" "Haze"
"2812" 2015-02-12 "5:00 PM" 11 1 50 1017.9 3.5 "NNE (20°)" 14.3 NA "" "" "Haze"
"2813" 2015-02-12 "5:30 PM" 11 -1 44 1017.9 3.5 "NE (50°)" 18 NA "" "" "Haze"
"2814" 2015-02-12 "6:00 PM" 10 0 50 1017.9 3.5 "ENE (60°)" 10.8 NA "" "" "Haze"
"2815" 2015-02-12 "6:30 PM" 10 1 54 1019 3.5 "ENE (70°)" 10.8 NA "" "" "Haze"
"2816" 2015-02-12 "7:00 PM" 9 2 62 1019 3.5 "East (90°)" 10.8 NA "" "" "Haze"
"2817" 2015-02-12 "7:30 PM" 8 3 71 1019 4.5 "East (80°)" 10.8 NA "" "" "Haze"
"2818" 2015-02-12 "8:00 PM" 8 3 71 1019 6 "East (90°)" 10.8 NA "" "" ""
"2819" 2015-02-12 "8:30 PM" 7 2 71 1020 6.9 "East (100°)" 10.8 NA "" "" ""
"2820" 2015-02-12 "9:00 PM" 7 2 71 1020 NA "ESE (110°)" 14.3 NA "" "" "Clear"
"2821" 2015-02-12 "9:30 PM" 7 2 71 1020 NA "East (90°)" 7.2 NA "" "" "Clear"
"2822" 2015-02-12 "10:00 PM" 7 2 71 1020 NA "East (100°)" 10.8 NA "" "" "Clear"
"2823" 2015-02-12 "10:30 PM" 6 3 81 1020 NA "ESE (110°)" 14.3 NA "" "" "Clear"
"2824" 2015-02-12 "11:00 PM" 6 3 81 1020 NA "East (90°)" 14.3 NA "" "" "Clear"
"2825" 2015-02-12 "11:30 PM" 6 3 81 1020 NA "East (100°)" 14.3 32.3 "" "" "Clear"
"2826" 2015-02-11 "12:00 AM" 4 -1 70 1019 NA "South (170°)" 7.2 NA "" "" "Clear"
"2827" 2015-02-11 "12:30 AM" 4 0 75 1019 NA "South (170°)" 3.5 NA "" "" "Clear"
"2828" 2015-02-11 "1:00 AM" 4 0 75 1019 NA "South (170°)" 3.5 NA "" "" "Clear"
"2829" 2015-02-11 "1:30 AM" 3 0 81 1019 NA "South (170°)" 3.5 NA "" "" "Clear"
"2830" 2015-02-11 "2:00 AM" 4 0 75 1017.9 NA "South (170°)" 7.2 NA "" "" "Clear"
"2831" 2015-02-11 "2:30 AM" 4 1 81 1017.9 NA "South (170°)" 7.2 NA "" "" "Clear"
"2832" 2015-02-11 "3:00 AM" 4 1 81 1017.9 NA "South (190°)" 7.2 NA "" "" "Clear"
"2833" 2015-02-11 "3:30 AM" 4 1 81 1017.3 NA "South (170°)" 10.8 NA "" "" "Clear"
"2834" 2015-02-11 "4:00 AM" 4 1 81 1017.3 NA "SSE (160°)" 7.2 NA "" "" "Clear"
"2835" 2015-02-11 "4:30 AM" 3 1 87 1017.3 NA "South (190°)" 3.5 NA "" "" "Clear"
"2836" 2015-02-11 "5:00 AM" 3 0 81 1017.3 NA "SSE (150°)" 3.5 NA "" "" "Clear"
"2837" 2015-02-11 "5:30 AM" 2 0 87 1017.3 NA "South (170°)" 3.5 NA "" "" "Clear"
"2838" 2015-02-11 "6:00 AM" 2 0 87 1017.3 NA "South (170°)" 7.2 NA "" "" "Clear"
"2839" 2015-02-11 "6:30 AM" 3 1 87 1017.3 NA "South (170°)" 7.2 NA "" "" "Clear"
"2840" 2015-02-11 "7:00 AM" 3 1 87 1017.3 NA "South (170°)" 7.2 NA "" "" "Clear"
"2841" 2015-02-11 "7:30 AM" 3 0 81 1017.3 NA "South (170°)" 3.5 NA "" "" "Clear"
"2842" 2015-02-11 "8:00 AM" 6 2 76 1017.9 6.9 "SSW (210°)" 3.5 NA "" "" ""
"2843" 2015-02-11 "8:30 AM" 6 1 70 1017.9 6.9 "WSW (240°)" 7.2 NA "" "" ""
"2844" 2015-02-11 "9:00 AM" 7 0 61 1017.9 6 "WSW (240°)" 10.8 NA "" "" ""
"2845" 2015-02-11 "9:30 AM" 9 -1 50 1017.9 6 "WSW (250°)" 10.8 NA "" "" ""
"2846" 2015-02-11 "10:00 AM" 11 -1 44 1017.3 6.9 "SW (230°)" 10.8 NA "" "" ""
"2847" 2015-02-11 "10:30 AM" 11 -2 41 1017.3 6.9 "WSW (250°)" 10.8 NA "" "" ""
"2848" 2015-02-11 "11:00 AM" 13 -2 36 1017.3 NA "West (280°)" 14.3 NA "" "" "Clear"
"2849" 2015-02-11 "11:30 AM" 13 -3 33 1016.3 NA "West (270°)" 18 NA "" "" "Clear"
"2850" 2015-02-11 "12:00 PM" 13 -3 33 1016.3 NA "West (270°)" 18 NA "" "" "Clear"
"2851" 2015-02-11 "12:30 PM" 14 -2 33 1015.2 NA "WNW (290°)" 18 NA "" "" "Clear"
"2852" 2015-02-11 "1:00 PM" 14 -1 36 1014.2 NA "West (260°)" 14.3 NA "" "" "Clear"
"2853" 2015-02-11 "1:30 PM" 14 -2 33 1014.2 NA "West (280°)" 14.3 32.3 "" "" "Clear"
"2854" 2015-02-11 "2:00 PM" 15 -3 29 1014.2 NA "West (270°)" 21.6 NA "" "" "Clear"
"2855" 2015-02-11 "2:30 PM" 15 -2 31 1013.2 NA "West (270°)" 21.6 NA "" "" "Clear"
"2856" 2015-02-11 "3:00 PM" 15 -2 31 1013.2 NA "WSW (250°)" 18 NA "" "" "Clear"
"2857" 2015-02-11 "3:30 PM" 15 -2 31 1013.2 NA "WSW (250°)" 18 NA "" "" "Clear"
"2858" 2015-02-11 "4:00 PM" 14 -2 33 1013.2 NA "WSW (250°)" 18 NA "" "" "Clear"
"2859" 2015-02-11 "4:30 PM" 14 -2 33 1013.2 NA "WSW (250°)" 18 NA "" "" "Clear"
"2860" 2015-02-11 "5:00 PM" 13 -2 36 1013.2 NA "WSW (250°)" 10.8 NA "" "" "Clear"
"2861" 2015-02-11 "5:30 PM" 13 -1 38 1014.2 NA "WSW (240°)" 7.2 NA "" "" "Clear"
"2862" 2015-02-11 "6:00 PM" 12 -1 41 1014.2 NA "WSW (250°)" 10.8 NA "" "" "Clear"
"2863" 2015-02-11 "6:30 PM" 10 -1 47 1014.2 NA "SW (230°)" 7.2 NA "" "" "Clear"
"2864" 2015-02-11 "7:00 PM" 11 -1 44 1014.2 NA "SW (230°)" 7.2 NA "" "" "Clear"
"2865" 2015-02-11 "7:30 PM" 11 0 47 1014.2 NA "WSW (240°)" 7.2 NA "" "" "Clear"
"2866" 2015-02-11 "8:00 PM" 10 0 50 1015.2 NA "SW (230°)" 10.8 NA "" "" "Clear"
"2867" 2015-02-11 "8:30 PM" 10 0 50 1015.2 NA "WSW (240°)" 7.2 NA "" "" "Clear"
"2868" 2015-02-11 "9:00 PM" 10 1 54 1015.2 NA "WSW (240°)" 7.2 NA "" "" "Clear"
"2869" 2015-02-11 "9:30 PM" 10 0 50 1015.2 NA "West (260°)" 10.8 NA "" "" "Clear"
"2870" 2015-02-11 "10:00 PM" 9 1 58 1015.2 NA "WSW (240°)" 7.2 NA "" "" "Clear"
"2871" 2015-02-11 "10:30 PM" 9 1 58 1015.2 NA "WSW (250°)" 10.8 NA "" "" "Clear"
"2872" 2015-02-11 "11:00 PM" 9 1 58 1015.2 NA "West (280°)" 10.8 NA "" "" "Clear"
"2873" 2015-02-11 "11:30 PM" 9 1 58 1015.2 NA "West (260°)" 10.8 NA "" "" "Clear"
"2874" 2015-02-10 "12:00 AM" 0 -5 69 1030.1 NA "SSW (210°)" 7.2 NA "" "" "Clear"
"2875" 2015-02-10 "12:30 AM" 0 -4 75 1030.1 NA "South (190°)" 3.5 NA "" "" "Clear"
"2876" 2015-02-10 "1:00 AM" 0 -4 75 1029.1 NA "South (190°)" 7.2 NA "" "" "Clear"
"2877" 2015-02-10 "1:30 AM" 0 -4 75 1029.1 NA "SSW (200°)" 7.2 NA "" "" "Clear"
"2878" 2015-02-10 "2:00 AM" -1 -4 80 1028.1 NA "South (180°)" 3.5 NA "" "" "Clear"
"2879" 2015-02-10 "2:30 AM" -1 -5 75 1028.1 NA "SW (220°)" 3.5 NA "" "" "Clear"
"2880" 2015-02-10 "3:00 AM" -1 -4 80 1028.1 NA "SSW (200°)" 3.5 NA "" "" "Clear"
"2881" 2015-02-10 "3:30 AM" -1 -4 80 1028.1 NA "South (170°)" 3.5 NA "" "" "Clear"
"2882" 2015-02-10 "4:00 AM" -2 -4 86 1028.1 NA "South (190°)" 3.5 NA "" "" "Clear"
"2883" 2015-02-10 "4:30 AM" -1 -4 80 1027.1 NA "SSE (150°)" 3.5 NA "" "" "Clear"
"2884" 2015-02-10 "5:00 AM" -1 -4 80 1027.1 NA "Variable" 3.5 NA "" "" "Clear"
"2885" 2015-02-10 "5:30 AM" -1 -4 80 1027.1 NA "SSW (200°)" 3.5 NA "" "" "Clear"
"2886" 2015-02-10 "6:00 AM" -1 -3 86 1027.1 NA "SSW (200°)" 3.5 NA "" "" "Clear"
"2887" 2015-02-10 "6:30 AM" -1 -3 86 1027.1 NA "SSW (210°)" 3.5 NA "" "" "Clear"
"2888" 2015-02-10 "7:00 AM" -2 -4 86 1027.1 NA "SW (220°)" 3.5 NA "" "" "Clear"
"2889" 2015-02-10 "7:30 AM" 0 -4 75 1027.1 NA "Variable" 3.5 NA "" "" "Clear"
"2890" 2015-02-10 "8:00 AM" 2 -3 70 1027.1 NA "Variable" 3.5 NA "" "" "Clear"
"2891" 2015-02-10 "8:30 AM" 4 -3 61 1027.1 NA "SSW (200°)" 7.2 NA "" "" "Clear"
"2892" 2015-02-10 "9:00 AM" 4 -4 56 1027.1 NA "SSW (200°)" 10.8 NA "" "" "Clear"
"2893" 2015-02-10 "9:30 AM" 4 -5 52 1026.1 NA "South (170°)" 7.2 NA "" "" "Clear"
"2894" 2015-02-10 "10:00 AM" 6 -6 42 1026.1 NA "South (180°)" 7.2 NA "" "" "Clear"
"2895" 2015-02-10 "10:30 AM" 7 -9 31 1026.1 NA "Variable" 7.2 NA "" "" "Clear"
"2896" 2015-02-10 "11:00 AM" 8 -8 32 1025.1 NA "South (190°)" 7.2 NA "" "" "Clear"
"2897" 2015-02-10 "11:30 AM" 8 -10 27 1025.1 NA "SW (220°)" 7.2 NA "" "" "Clear"
"2898" 2015-02-10 "12:00 PM" 9 -11 24 1024 NA "SW (230°)" 14.3 NA "" "" "Clear"
"2899" 2015-02-10 "12:30 PM" 10 -11 22 1024 NA "Variable" 10.8 NA "" "" "Clear"
"2900" 2015-02-10 "1:00 PM" 10 -11 22 1023 NA "SW (220°)" 10.8 NA "" "" "Clear"
"2901" 2015-02-10 "1:30 PM" 10 -12 20 1022 NA "Variable" 7.2 NA "" "" "Clear"
"2902" 2015-02-10 "2:00 PM" 10 -12 20 1022 NA "SW (220°)" 10.8 NA "" "" "Clear"
"2903" 2015-02-10 "2:30 PM" 10 -11 22 1021 NA "SW (220°)" 10.8 NA "" "" "Clear"
"2904" 2015-02-10 "3:00 PM" 10 -12 20 1021 NA "Variable" 7.2 NA "" "" "Clear"
"2905" 2015-02-10 "3:30 PM" 11 -11 21 1021 NA "SW (230°)" 7.2 NA "" "" "Clear"
"2906" 2015-02-10 "4:00 PM" 11 -10 22 1020 NA "SW (230°)" 10.8 NA "" "" "Clear"
"2907" 2015-02-10 "4:30 PM" 10 -9 26 1020 NA "WSW (240°)" 10.8 NA "" "" "Clear"
"2908" 2015-02-10 "5:00 PM" 10 -8 28 1020 NA "WSW (240°)" 10.8 NA "" "" "Clear"
"2909" 2015-02-10 "5:30 PM" 8 -6 37 1020 NA "South (190°)" 14.3 NA "" "" "Clear"
"2910" 2015-02-10 "6:00 PM" 7 -6 39 1020 NA "South (180°)" 18 NA "" "" "Clear"
"2911" 2015-02-10 "6:30 PM" 6 -6 42 1021 NA "South (180°)" 10.8 NA "" "" "Clear"
"2912" 2015-02-10 "7:00 PM" 6 -6 42 1021 NA "SSE (160°)" 10.8 NA "" "" "Clear"
"2913" 2015-02-10 "7:30 PM" 5 -5 49 1021 NA "SSE (150°)" 10.8 NA "" "" "Clear"
"2914" 2015-02-10 "8:00 PM" 5 -5 49 1021 NA "SE (140°)" 10.8 NA "" "" "Clear"
"2915" 2015-02-10 "8:30 PM" 4 -6 49 1021 NA "SSE (160°)" 10.8 NA "" "" "Clear"
"2916" 2015-02-10 "9:00 PM" 4 -5 52 1021 NA "SSE (150°)" 7.2 NA "" "" "Clear"
"2917" 2015-02-10 "9:30 PM" 4 -5 52 1020 NA "SE (140°)" 7.2 NA "" "" "Clear"
"2918" 2015-02-10 "10:00 PM" 4 -4 56 1020 NA "SSE (150°)" 7.2 NA "" "" "Clear"
"2919" 2015-02-10 "10:30 PM" 5 -2 61 1020 NA "SSE (150°)" 7.2 NA "" "" "Clear"
"2920" 2015-02-10 "11:00 PM" 4 -2 65 1019 NA "South (170°)" 10.8 NA "" "" "Clear"
"2921" 2015-02-10 "11:30 PM" 4 -1 70 1019 NA "SSE (150°)" 7.2 NA "" "" "Clear"
"2922" 2015-02-09 "12:00 AM" 0 -6 64 1034.2 NA "North (10°)" 18 NA "" "" "Clear"
"2923" 2015-02-09 "12:30 AM" -1 -6 69 1034.2 NA "North (10°)" 18 NA "" "" "Clear"
"2924" 2015-02-09 "1:00 AM" -1 -6 69 1034.2 NA "North (360°)" 14.3 NA "" "" "Clear"
"2925" 2015-02-09 "1:30 AM" -1 -7 64 1034.2 NA "North (360°)" 10.8 NA "" "" "Clear"
"2926" 2015-02-09 "2:00 AM" -2 -7 69 1034.2 NA "North (350°)" 10.8 NA "" "" "Clear"
"2927" 2015-02-09 "2:30 AM" -2 -7 69 1035.2 NA "North (350°)" 10.8 NA "" "" "Clear"
"2928" 2015-02-09 "3:00 AM" -2 -7 69 1035.2 NA "North (350°)" 10.8 NA "" "" "Clear"
"2929" 2015-02-09 "3:30 AM" -2 -6 74 1034.2 NA "NNW (330°)" 14.3 NA "" "" "Clear"
"2930" 2015-02-09 "4:00 AM" -2 -6 74 1034.2 NA "NNW (330°)" 14.3 NA "" "" "Clear"
"2931" 2015-02-09 "4:30 AM" -2 -6 74 1034.2 NA "NNW (340°)" 14.3 NA "" "" "Clear"
"2932" 2015-02-09 "5:00 AM" -2 -6 74 1034.2 NA "NNW (340°)" 14.3 NA "" "" "Clear"
"2933" 2015-02-09 "5:30 AM" -2 -6 74 1034.2 NA "NNW (340°)" 10.8 NA "" "" "Clear"
"2934" 2015-02-09 "6:00 AM" -2 -6 74 1035.2 10 "NNW (330°)" 10.8 NA "" "" "Scattered Clouds"
"2935" 2015-02-09 "6:30 AM" -2 -6 74 1035.2 10 "NW (320°)" 10.8 NA "" "" "Mostly Cloudy"
"2936" 2015-02-09 "7:00 AM" -1 -6 69 1035.2 10 "NW (320°)" 7.2 NA "" "" "Mostly Cloudy"
"2937" 2015-02-09 "7:30 AM" -1 -6 69 1035.2 10 "NNW (330°)" 10.8 NA "" "" "Mostly Cloudy"
"2938" 2015-02-09 "8:00 AM" 0 -6 64 1035.2 10 "NNW (330°)" 14.3 NA "" "" "Scattered Clouds"
"2939" 2015-02-09 "8:30 AM" 0 -7 60 1035.2 10 "North (350°)" 14.3 NA "" "" "Scattered Clouds"
"2940" 2015-02-09 "9:00 AM" 0 -6 64 1035.2 10 "North (350°)" 18 NA "" "" "Scattered Clouds"
"2941" 2015-02-09 "9:30 AM" 1 -7 56 1035.2 10 "North (350°)" 14.3 NA "" "" "Mostly Cloudy"
"2942" 2015-02-09 "10:00 AM" 2 -6 56 1036.2 10 "NNW (340°)" 14.3 NA "" "" "Mostly Cloudy"
"2943" 2015-02-09 "10:30 AM" 3 -6 52 1035.2 10 "North (350°)" 10.8 NA "" "" "Scattered Clouds"
"2944" 2015-02-09 "11:00 AM" 4 -7 45 1035.2 NA "NNW (330°)" 10.8 NA "" "" "Clear"
"2945" 2015-02-09 "11:30 AM" 3 -8 45 1034.2 NA "NNE (20°)" 10.8 NA "" "" "Clear"
"2946" 2015-02-09 "12:00 PM" 5 -7 42 1034.2 NA "NW (310°)" 10.8 NA "" "" "Clear"
"2947" 2015-02-09 "12:30 PM" 4 -7 45 1033.2 NA "Variable" 10.8 NA "" "" "Clear"
"2948" 2015-02-09 "1:00 PM" 6 -7 39 1033.2 NA "Variable" 7.2 NA "" "" "Clear"
"2949" 2015-02-09 "1:30 PM" 5 -8 39 1032.2 NA "NNE (20°)" 10.8 NA "" "" "Clear"
"2950" 2015-02-09 "2:00 PM" 5 -8 39 1032.2 NA "NW (320°)" 10.8 NA "" "" "Clear"
"2951" 2015-02-09 "2:30 PM" 6 -8 36 1032.2 NA "North (10°)" 10.8 NA "" "" "Clear"
"2952" 2015-02-09 "3:00 PM" 6 -10 31 1031.2 NA "NE (50°)" 10.8 NA "" "" "Clear"
"2953" 2015-02-09 "3:30 PM" 6 -9 34 1031.2 NA "NNE (20°)" 10.8 NA "" "" "Clear"
"2954" 2015-02-09 "4:00 PM" 6 -9 34 1031.2 NA "Variable" 3.5 NA "" "" "Clear"
"2955" 2015-02-09 "4:30 PM" 5 -9 36 1031.2 NA "Variable" 10.8 NA "" "" "Clear"
"2956" 2015-02-09 "5:00 PM" 5 -8 39 1031.2 NA "North (360°)" 10.8 NA "" "" "Clear"
"2957" 2015-02-09 "5:30 PM" 4 -9 39 1031.2 NA "North (10°)" 10.8 NA "" "" "Clear"
"2958" 2015-02-09 "6:00 PM" 3 -9 41 1031.2 NA "North (360°)" 10.8 NA "" "" "Clear"
"2959" 2015-02-09 "6:30 PM" 3 -8 45 1031.2 NA "North (10°)" 10.8 NA "" "" "Clear"
"2960" 2015-02-09 "7:00 PM" 3 -7 48 1031.2 NA "North (10°)" 10.8 NA "" "" "Clear"
"2961" 2015-02-09 "7:30 PM" 4 -7 45 1031.2 NA "NE (50°)" 7.2 NA "" "" "Clear"
"2962" 2015-02-09 "8:00 PM" 2 -5 60 1031.2 NA "South (180°)" 10.8 NA "" "" "Clear"
"2963" 2015-02-09 "8:30 PM" 3 -4 60 1031.2 NA "South (170°)" 10.8 NA "" "" "Clear"
"2964" 2015-02-09 "9:00 PM" 2 -4 65 1031.2 NA "South (170°)" 10.8 NA "" "" "Clear"
"2965" 2015-02-09 "9:30 PM" 2 -4 65 1031.2 NA "SSE (160°)" 10.8 NA "" "" "Clear"
"2966" 2015-02-09 "10:00 PM" 2 -4 65 1031.2 NA "SSE (150°)" 7.2 NA "" "" "Clear"
"2967" 2015-02-09 "10:30 PM" 2 -5 60 1031.2 NA "South (170°)" 7.2 NA "" "" "Clear"
"2968" 2015-02-09 "11:00 PM" 2 -4 65 1030.1 NA "SSE (160°)" 10.8 NA "" "" "Clear"
"2969" 2015-02-09 "11:30 PM" 2 -4 65 1030.1 NA "SSE (160°)" 10.8 NA "" "" "Clear"
"2970" 2015-02-08 "12:00 AM" 7 -3 49 1026.1 NA "NNW (330°)" 14.3 NA "" "" "Clear"
"2971" 2015-02-08 "12:30 AM" 7 -2 53 1027.1 NA "North (360°)" 28.8 NA "" "" "Clear"
"2972" 2015-02-08 "1:00 AM" 6 1 70 1028.1 NA "North (10°)" 25.3 NA "" "" "Clear"
"2973" 2015-02-08 "1:30 AM" 5 1 76 1028.1 6.9 "North (10°)" 25.3 NA "" "" ""
"2974" 2015-02-08 "2:00 AM" 6 2 76 1028.1 5 "North (10°)" 25.3 NA "" "" "Mist"
"2975" 2015-02-08 "2:30 AM" 6 1 70 1028.1 6 "NNE (20°)" 28.8 NA "" "" "Partly Cloudy"
"2976" 2015-02-08 "3:00 AM" 5 1 76 1029.1 10 "North (10°)" 32.3 NA "" "" "Mostly Cloudy"
"2977" 2015-02-08 "3:30 AM" 5 -1 65 1029.1 10 "North (360°)" 32.3 50.4 "" "" "Mostly Cloudy"
"2978" 2015-02-08 "4:00 AM" 5 -1 65 1029.1 10 "North (360°)" 28.8 NA "" "" "Mostly Cloudy"
"2979" 2015-02-08 "4:30 AM" 4 -2 65 1029.1 10 "North (360°)" 28.8 NA "" "" "Mostly Cloudy"
"2980" 2015-02-08 "5:00 AM" 4 -3 61 1030.1 10 "North (360°)" 32.3 NA "" "" "Mostly Cloudy"
"2981" 2015-02-08 "5:30 AM" 3 -2 70 1030.1 10 "North (360°)" 25.3 NA "" "" "Mostly Cloudy"
"2982" 2015-02-08 "6:00 AM" 3 -4 60 1030.1 10 "North (10°)" 32.3 NA "" "" "Mostly Cloudy"
"2983" 2015-02-08 "6:30 AM" 3 -3 65 1031.2 10 "North (10°)" 32.3 NA "" "" "Mostly Cloudy"
"2984" 2015-02-08 "7:00 AM" 2 -5 60 1032.2 10 "North (10°)" 28.8 NA "" "" "Scattered Clouds"
"2985" 2015-02-08 "7:30 AM" 2 -6 56 1032.2 10 "North (360°)" 21.6 NA "" "" "Partly Cloudy"
"2986" 2015-02-08 "8:00 AM" 3 -6 52 1033.2 10 "North (360°)" 28.8 NA "" "" "Partly Cloudy"
"2987" 2015-02-08 "8:30 AM" 3 -6 52 1033.2 10 "North (360°)" 25.3 NA "" "" "Partly Cloudy"
"2988" 2015-02-08 "9:00 AM" 4 -6 49 1034.2 NA "NNE (20°)" 28.8 46.8 "" "" "Clear"
"2989" 2015-02-08 "9:30 AM" 5 -6 45 1034.2 NA "North (10°)" 28.8 NA "" "" "Clear"
"2990" 2015-02-08 "10:00 AM" 5 -6 45 1034.2 NA "NNE (20°)" 28.8 NA "" "" "Clear"
"2991" 2015-02-08 "10:30 AM" 5 -7 42 1034.2 NA "North (360°)" 25.3 NA "" "" "Clear"
"2992" 2015-02-08 "11:00 AM" 5 -8 39 1034.2 NA "North (360°)" 25.3 NA "" "" "Clear"
"2993" 2015-02-08 "11:30 AM" 5 -8 39 1034.2 NA "North (350°)" 25.3 NA "" "" "Clear"
"2994" 2015-02-08 "12:00 PM" 5 -7 42 1034.2 NA "North (360°)" 21.6 43.1 "" "" "Clear"
"2995" 2015-02-08 "12:30 PM" 6 -8 36 1034.2 NA "NNW (340°)" 25.3 NA "" "" "Clear"
"2996" 2015-02-08 "1:00 PM" 6 -8 36 1033.2 NA "North (360°)" 21.6 NA "" "" "Clear"
"2997" 2015-02-08 "1:30 PM" 6 -7 39 1033.2 NA "North (10°)" 21.6 39.6 "" "" "Clear"
"2998" 2015-02-08 "2:00 PM" 6 -7 39 1033.2 NA "North (360°)" 21.6 NA "" "" "Clear"
"2999" 2015-02-08 "2:30 PM" 6 -10 31 1033.2 NA "North (360°)" 25.3 50.4 "" "" "Clear"
"3000" 2015-02-08 "3:00 PM" 6 -9 34 1033.2 NA "NNW (340°)" 25.3 NA "" "" "Clear"
"3001" 2015-02-08 "3:30 PM" 6 -8 36 1033.2 NA "North (350°)" 21.6 NA "" "" "Clear"
"3002" 2015-02-08 "4:00 PM" 5 -8 39 1033.2 NA "North (10°)" 25.3 NA "" "" "Clear"
"3003" 2015-02-08 "4:30 PM" 5 -9 36 1033.2 NA "North (360°)" 25.3 NA "" "" "Clear"
"3004" 2015-02-08 "5:00 PM" 4 -8 42 1033.2 NA "NNE (20°)" 25.3 NA "" "" "Clear"
"3005" 2015-02-08 "5:30 PM" 3 -8 45 1033.2 NA "North (10°)" 21.6 NA "" "" "Clear"
"3006" 2015-02-08 "6:00 PM" 3 -7 48 1033.2 NA "NNE (20°)" 25.3 NA "" "" "Clear"
"3007" 2015-02-08 "6:30 PM" 2 -7 52 1034.2 NA "NNE (30°)" 21.6 NA "" "" "Clear"
"3008" 2015-02-08 "7:00 PM" 2 -7 52 1034.2 NA "NNE (20°)" 25.3 NA "" "" "Clear"
"3009" 2015-02-08 "7:30 PM" 2 -6 56 1034.2 NA "NNE (20°)" 25.3 NA "" "" "Clear"
"3010" 2015-02-08 "8:00 PM" 1 -6 60 1034.2 NA "NNE (30°)" 21.6 NA "" "" "Clear"
"3011" 2015-02-08 "8:30 PM" 1 -7 56 1034.2 NA "NE (40°)" 18 NA "" "" "Clear"
"3012" 2015-02-08 "9:00 PM" 1 -7 56 1034.2 NA "NNE (20°)" 18 NA "" "" "Clear"
"3013" 2015-02-08 "9:30 PM" 0 -7 60 1034.2 NA "North (360°)" 21.6 NA "" "" "Clear"
"3014" 2015-02-08 "10:00 PM" 0 -7 60 1034.2 NA "North (10°)" 18 NA "" "" "Clear"
"3015" 2015-02-08 "10:30 PM" 0 -7 60 1034.2 NA "North (10°)" 18 NA "" "" "Clear"
"3016" 2015-02-08 "11:00 PM" 0 -7 60 1034.2 NA "North (10°)" 18 NA "" "" "Clear"
"3017" 2015-02-08 "11:30 PM" 0 -7 60 1034.2 NA "North (10°)" 18 NA "" "" "Clear"
"3018" 2015-02-07 "12:00 AM" 3 -4 60 1026.1 NA "SSE (160°)" 3.5 NA "" "" "Clear"
"3019" 2015-02-07 "12:30 AM" 2 -4 65 1026.1 NA "SSE (160°)" 3.5 NA "" "" "Clear"
"3020" 2015-02-07 "1:00 AM" 1 -4 70 1026.1 NA "South (190°)" 3.5 NA "" "" "Clear"
"3021" 2015-02-07 "1:30 AM" 1 -3 75 1026.1 NA "Calm" NA NA "" "" "Clear"
"3022" 2015-02-07 "2:00 AM" 2 -3 70 1026.1 NA "Calm" NA NA "" "" "Clear"
"3023" 2015-02-07 "2:30 AM" 1 -4 70 1026.1 NA "Calm" NA NA "" "" "Clear"
"3024" 2015-02-07 "3:00 AM" 1 -3 75 1025.1 NA "Variable" 3.5 NA "" "" "Clear"
"3025" 2015-02-07 "3:30 AM" 1 -3 75 1024 NA "SSE (150°)" 3.5 NA "" "" "Clear"
"3026" 2015-02-07 "4:00 AM" 3 -1 75 1024 NA "South (170°)" 3.5 NA "" "" "Clear"
"3027" 2015-02-07 "4:30 AM" 3 -1 75 1024 NA "Calm" NA NA "" "" "Clear"
"3028" 2015-02-07 "5:00 AM" 1 -2 81 1024 NA "Calm" NA NA "" "" "Clear"
"3029" 2015-02-07 "5:30 AM" 1 -2 81 1024 NA "North (360°)" 7.2 NA "" "" "Clear"
"3030" 2015-02-07 "6:00 AM" 1 -1 87 1024 NA "NNE (30°)" 7.2 NA "" "" "Clear"
"3031" 2015-02-07 "6:30 AM" 1 -2 81 1024 6.9 "Calm" NA NA "" "" ""
"3032" 2015-02-07 "7:00 AM" 1 -2 81 1024 6 "Calm" NA NA "" "" ""
"3033" 2015-02-07 "7:30 AM" 2 -1 81 1025.1 6 "North (10°)" 3.5 NA "" "" ""
"3034" 2015-02-07 "8:00 AM" 3 -1 75 1025.1 4 "NNE (30°)" 3.5 NA "" "" "Mist"
"3035" 2015-02-07 "8:30 AM" 5 1 76 1025.1 4 "Variable" 3.5 NA "" "" "Mist"
"3036" 2015-02-07 "9:00 AM" 7 1 66 1025.1 4 "Variable" 3.5 NA "" "" "Haze"
"3037" 2015-02-07 "9:30 AM" 8 -1 53 1025.1 5 "West (260°)" 7.2 NA "" "" "Haze"
"3038" 2015-02-07 "10:00 AM" 9 -3 43 1025.1 6 "Variable" 7.2 NA "" "" ""
"3039" 2015-02-07 "10:30 AM" 10 -2 43 1025.1 6.9 "Variable" 3.5 NA "" "" ""
"3040" 2015-02-07 "11:00 AM" 10 -3 40 1025.1 6.9 "Variable" 7.2 NA "" "" ""
"3041" 2015-02-07 "11:30 AM" 11 -5 33 1025.1 6.9 "Variable" 3.5 NA "" "" ""
"3042" 2015-02-07 "12:00 PM" 11 -6 30 1024 NA "Variable" 7.2 NA "" "" "Clear"
"3043" 2015-02-07 "12:30 PM" 11 -5 33 1023 NA "Variable" 7.2 NA "" "" "Clear"
"3044" 2015-02-07 "1:00 PM" 11 -6 30 1023 NA "NNW (340°)" 10.8 NA "" "" "Clear"
"3045" 2015-02-07 "1:30 PM" 12 -6 28 1023 NA "Variable" 10.8 NA "" "" "Clear"
"3046" 2015-02-07 "2:00 PM" 12 -6 28 1023 NA "Variable" 7.2 NA "" "" "Clear"
"3047" 2015-02-07 "2:30 PM" 12 -7 26 1022 NA "NW (320°)" 10.8 NA "" "" "Clear"
"3048" 2015-02-07 "3:00 PM" 12 -6 28 1021 NA "NNE (20°)" 7.2 NA "" "" "Clear"
"3049" 2015-02-07 "3:30 PM" 12 -6 28 1022 NA "North (350°)" 10.8 NA "" "" "Clear"
"3050" 2015-02-07 "4:00 PM" 12 -6 28 1021 NA "Variable" 3.5 NA "" "" "Clear"
"3051" 2015-02-07 "4:30 PM" 11 -6 30 1022 NA "North (350°)" 7.2 NA "" "" "Clear"
"3052" 2015-02-07 "5:00 PM" 11 -7 28 1023 NA "NNW (340°)" 10.8 NA "" "" "Clear"
"3053" 2015-02-07 "5:30 PM" 11 -8 26 1023 NA "NW (320°)" 14.3 NA "" "" "Clear"
"3054" 2015-02-07 "6:00 PM" 9 -6 34 1023 NA "North (360°)" 10.8 NA "" "" "Clear"
"3055" 2015-02-07 "6:30 PM" 9 0 54 1024 NA "SSE (150°)" 7.2 NA "" "" "Clear"
"3056" 2015-02-07 "7:00 PM" 9 0 54 1024 NA "SSE (160°)" 10.8 NA "" "" "Clear"
"3057" 2015-02-07 "7:30 PM" 8 -1 53 1025.1 NA "SE (140°)" 7.2 NA "" "" "Clear"
"3058" 2015-02-07 "8:00 PM" 9 -1 50 1025.1 NA "SE (140°)" 7.2 NA "" "" "Clear"
"3059" 2015-02-07 "8:30 PM" 8 0 57 1025.1 NA "Variable" 3.5 NA "" "" "Clear"
"3060" 2015-02-07 "9:00 PM" 8 -1 53 1025.1 NA "Calm" NA NA "" "" "Clear"
"3061" 2015-02-07 "9:30 PM" 7 -1 57 1025.1 NA "Variable" 3.5 NA "" "" "Clear"
"3062" 2015-02-07 "10:00 PM" 8 -1 53 1025.1 NA "West (270°)" 7.2 NA "" "" "Clear"
"3063" 2015-02-07 "10:30 PM" 7 -1 57 1025.1 NA "WNW (300°)" 7.2 NA "" "" "Clear"
"3064" 2015-02-07 "11:00 PM" 7 -1 57 1026.1 NA "NNW (340°)" 7.2 NA "" "" "Clear"
"3065" 2015-02-07 "11:30 PM" 8 -3 46 1026.1 NA "NW (310°)" 10.8 NA "" "" "Clear"
"3066" 2015-02-06 "12:00 AM" 2 -5 60 1031.2 NA "SSW (200°)" 3.5 NA "" "" "Clear"
"3067" 2015-02-06 "12:30 AM" 1 -5 65 1031.2 NA "SSW (210°)" 7.2 NA "" "" "Clear"
"3068" 2015-02-06 "1:00 AM" 1 -5 65 1031.2 NA "South (190°)" 7.2 NA "" "" "Clear"
"3069" 2015-02-06 "1:30 AM" 1 -5 65 1031.2 NA "SSW (200°)" 7.2 NA "" "" "Clear"
"3070" 2015-02-06 "2:00 AM" 1 -4 70 1030.1 NA "South (190°)" 3.5 NA "" "" "Clear"
"3071" 2015-02-06 "2:30 AM" 1 -5 65 1030.1 NA "SSE (150°)" 3.5 NA "" "" "Clear"
"3072" 2015-02-06 "3:00 AM" 0 -5 69 1030.1 NA "SSE (150°)" 3.5 NA "" "" "Clear"
"3073" 2015-02-06 "3:30 AM" 0 -5 69 1030.1 NA "East (90°)" 3.5 NA "" "" "Clear"
"3074" 2015-02-06 "4:00 AM" 0 -5 69 1029.1 NA "Calm" NA NA "" "" "Clear"
"3075" 2015-02-06 "4:30 AM" 0 -4 75 1029.1 NA "Calm" NA NA "" "" "Clear"
"3076" 2015-02-06 "5:00 AM" -1 -4 80 1029.1 NA "South (180°)" 3.5 NA "" "" "Clear"
"3077" 2015-02-06 "5:30 AM" 1 -4 70 1029.1 NA "ESE (110°)" 3.5 NA "" "" "Clear"
"3078" 2015-02-06 "6:00 AM" 0 -4 75 1029.1 NA "SE (130°)" 3.5 NA "" "" "Clear"
"3079" 2015-02-06 "6:30 AM" 0 -4 75 1029.1 NA "SSE (150°)" 3.5 NA "" "" "Clear"
"3080" 2015-02-06 "7:00 AM" 0 -4 75 1029.1 8 "South (170°)" 7.2 NA "" "" ""
"3081" 2015-02-06 "7:30 AM" 1 -3 75 1029.1 6.9 "South (170°)" 7.2 NA "" "" ""
"3082" 2015-02-06 "8:00 AM" 2 -3 70 1030.1 6.9 "South (190°)" 10.8 NA "" "" ""
"3083" 2015-02-06 "8:30 AM" 3 -4 60 1030.1 6.9 "South (170°)" 7.2 NA "" "" ""
"3084" 2015-02-06 "9:00 AM" 4 -4 56 1030.1 6.9 "Variable" 7.2 NA "" "" ""
"3085" 2015-02-06 "9:30 AM" 6 -4 49 1030.1 6.9 "SSW (210°)" 7.2 NA "" "" ""
"3086" 2015-02-06 "10:00 AM" 8 -4 43 1029.1 NA "SSW (210°)" 7.2 NA "" "" "Clear"
"3087" 2015-02-06 "10:30 AM" 7 -7 37 1029.1 NA "SSW (200°)" 10.8 NA "" "" "Clear"
"3088" 2015-02-06 "11:00 AM" 7 -6 39 1029.1 NA "SW (230°)" 7.2 NA "" "" "Clear"
"3089" 2015-02-06 "11:30 AM" 8 -8 32 1028.1 NA "WSW (240°)" 7.2 NA "" "" "Clear"
"3090" 2015-02-06 "12:00 PM" 9 -8 30 1028.1 NA "SW (220°)" 7.2 NA "" "" "Clear"
"3091" 2015-02-06 "12:30 PM" 9 -7 32 1028.1 NA "SW (220°)" 10.8 NA "" "" "Clear"
"3092" 2015-02-06 "1:00 PM" 9 -8 30 1027.1 NA "SW (220°)" 7.2 NA "" "" "Clear"
"3093" 2015-02-06 "1:30 PM" 9 -7 32 1027.1 NA "SW (220°)" 7.2 NA "" "" "Clear"
"3094" 2015-02-06 "2:00 PM" 9 -8 30 1027.1 NA "West (260°)" 7.2 NA "" "" "Clear"
"3095" 2015-02-06 "2:30 PM" 9 -7 32 1026.1 NA "WSW (250°)" 10.8 NA "" "" "Clear"
"3096" 2015-02-06 "3:00 PM" 9 -7 32 1026.1 NA "WSW (240°)" 10.8 NA "" "" "Clear"
"3097" 2015-02-06 "3:30 PM" 9 -7 32 1026.1 NA "SSW (200°)" 10.8 NA "" "" "Clear"
"3098" 2015-02-06 "4:00 PM" 9 -7 32 1026.1 NA "SW (220°)" 7.2 NA "" "" "Clear"
"3099" 2015-02-06 "4:30 PM" 8 -6 37 1025.1 NA "WSW (240°)" 10.8 NA "" "" "Clear"
"3100" 2015-02-06 "5:00 PM" 8 -6 37 1025.1 NA "West (270°)" 10.8 NA "" "" "Clear"
"3101" 2015-02-06 "5:30 PM" 7 -6 39 1026.1 NA "SSW (200°)" 18 NA "" "" "Clear"
"3102" 2015-02-06 "6:00 PM" 6 -6 42 1026.1 NA "South (180°)" 14.3 NA "" "" "Clear"
"3103" 2015-02-06 "6:30 PM" 6 -7 39 1026.1 NA "SSW (200°)" 10.8 NA "" "" "Clear"
"3104" 2015-02-06 "7:00 PM" 5 -7 42 1026.1 NA "SSW (200°)" 10.8 NA "" "" "Clear"
"3105" 2015-02-06 "7:30 PM" 4 -7 45 1026.1 NA "South (170°)" 7.2 NA "" "" "Clear"
"3106" 2015-02-06 "8:00 PM" 4 -7 45 1026.1 NA "South (170°)" 7.2 NA "" "" "Clear"
"3107" 2015-02-06 "8:30 PM" 4 -7 45 1026.1 NA "South (170°)" 7.2 NA "" "" "Clear"
"3108" 2015-02-06 "9:00 PM" 3 -7 48 1027.1 NA "Variable" 3.5 NA "" "" "Clear"
"3109" 2015-02-06 "9:30 PM" 3 -6 52 1027.1 NA "SSW (200°)" 7.2 NA "" "" "Clear"
"3110" 2015-02-06 "10:00 PM" 3 -6 52 1027.1 NA "SSW (210°)" 7.2 NA "" "" "Clear"
"3111" 2015-02-06 "10:30 PM" 4 -5 52 1027.1 NA "SSE (160°)" 3.5 NA "" "" "Clear"
"3112" 2015-02-06 "11:00 PM" 3 -5 56 1027.1 NA "South (180°)" 7.2 NA "" "" "Clear"
"3113" 2015-02-06 "11:30 PM" 3 -4 60 1026.1 NA "South (180°)" 3.5 NA "" "" "Clear"
"3114" 2015-02-05 "12:00 AM" 4 -3 61 1029.1 NA "WNW (290°)" 10.8 NA "" "" "Haze"
"3115" 2015-02-05 "12:30 AM" 4 -3 61 1029.1 4 "WNW (300°)" 14.3 NA "" "" "Haze"
"3116" 2015-02-05 "1:00 AM" 4 -3 61 1029.1 4 "WNW (300°)" 14.3 NA "" "" "Haze"
"3117" 2015-02-05 "1:30 AM" 5 -4 53 1029.1 NA "NW (320°)" 21.6 NA "" "" "Haze"
"3118" 2015-02-05 "2:00 AM" 4 -4 56 1029.1 4.5 "NW (320°)" 18 NA "" "" "Haze"
"3119" 2015-02-05 "2:30 AM" 4 -4 56 1029.1 4 "NW (320°)" 21.6 NA "" "" "Haze"
"3120" 2015-02-05 "3:00 AM" 3 -3 65 1029.1 4 "NNW (330°)" 18 NA "" "" "Haze"
"3121" 2015-02-05 "3:30 AM" 2 -3 70 1029.1 4 "NW (320°)" 18 NA "" "" "Haze"
"3122" 2015-02-05 "4:00 AM" 2 -3 70 1029.1 4 "NNW (330°)" 18 NA "" "" "Haze"
"3123" 2015-02-05 "4:30 AM" 2 -3 70 1030.1 4 "NNW (330°)" 14.3 NA "" "" "Haze"
"3124" 2015-02-05 "5:00 AM" 2 -3 70 1030.1 4 "NNW (330°)" 18 NA "" "" "Haze"
"3125" 2015-02-05 "5:30 AM" 1 -2 81 1030.1 6 "NNW (340°)" 18 NA "" "" ""
"3126" 2015-02-05 "6:00 AM" 2 -3 70 1030.1 8 "NNW (330°)" 18 NA "" "" ""
"3127" 2015-02-05 "6:30 AM" 1 -3 75 1030.1 6 "NNW (330°)" 21.6 NA "" "" ""
"3128" 2015-02-05 "7:00 AM" 1 -3 75 1031.2 4 "NW (320°)" 18 NA "" "" "Mist"
"3129" 2015-02-05 "7:30 AM" 1 -2 81 1031.2 3.5 "NW (320°)" 14.3 NA "" "" "Mist"
"3130" 2015-02-05 "8:00 AM" 2 -3 70 1031.2 3.1 "NW (320°)" 14.3 NA "" "" "Mist"
"3131" 2015-02-05 "8:30 AM" 3 -3 65 1032.2 2.7 "NW (310°)" 18 NA "" "" "Haze"
"3132" 2015-02-05 "9:00 AM" 3 -4 60 1032.2 5 "NNW (330°)" 21.6 NA "" "" "Haze"
"3133" 2015-02-05 "9:30 AM" 4 -5 52 1032.2 8 "NNW (330°)" 25.3 NA "" "" ""
"3134" 2015-02-05 "10:00 AM" 4 -5 52 1033.2 10 "North (350°)" 21.6 39.6 "" "" "Scattered Clouds"
"3135" 2015-02-05 "10:30 AM" 5 -5 49 1033.2 10 "NNW (340°)" 25.3 NA "" "" "Scattered Clouds"
"3136" 2015-02-05 "11:00 AM" 5 -4 53 1032.2 10 "NW (320°)" 21.6 NA "" "" "Scattered Clouds"
"3137" 2015-02-05 "11:30 AM" 5 -5 49 1032.2 10 "NNW (330°)" 21.6 NA "" "" "Mostly Cloudy"
"3138" 2015-02-05 "12:00 PM" 5 -5 49 1032.2 10 "NNW (340°)" 18 NA "" "" "Scattered Clouds"
"3139" 2015-02-05 "12:30 PM" 6 -5 46 1032.2 10 "NNW (330°)" 25.3 43.1 "" "" "Scattered Clouds"
"3140" 2015-02-05 "1:00 PM" 7 -5 43 1031.2 NA "NNW (340°)" 25.3 NA "" "" "Clear"
"3141" 2015-02-05 "1:30 PM" 7 -5 43 1031.2 NA "NNW (330°)" 21.6 NA "" "" "Clear"
"3142" 2015-02-05 "2:00 PM" 7 -5 43 1031.2 NA "NW (320°)" 25.3 NA "" "" "Clear"
"3143" 2015-02-05 "3:00 PM" 6 -6 42 1031.2 NA "NNW (340°)" 21.6 NA "" "" "Clear"
"3144" 2015-02-05 "3:30 PM" 6 -6 42 1031.2 NA "NNW (340°)" 25.3 NA "" "" "Clear"
"3145" 2015-02-05 "4:00 PM" 6 -6 42 1031.2 NA "North (350°)" 21.6 NA "" "" "Clear"
"3146" 2015-02-05 "4:30 PM" 6 -6 42 1031.2 NA "NNW (330°)" 21.6 NA "" "" "Clear"
"3147" 2015-02-05 "5:00 PM" 5 -6 45 1031.2 NA "North (350°)" 18 NA "" "" "Clear"
"3148" 2015-02-05 "5:30 PM" 5 -7 42 1031.2 NA "NNW (340°)" 21.6 NA "" "" "Clear"
"3149" 2015-02-05 "6:00 PM" 5 -7 42 1031.2 NA "NNW (340°)" 18 NA "" "" "Clear"
"3150" 2015-02-05 "6:30 PM" 4 -8 42 1031.2 NA "NNW (340°)" 14.3 NA "" "" "Clear"
"3151" 2015-02-05 "7:00 PM" 4 -8 42 1031.2 NA "NNW (340°)" 14.3 NA "" "" "Clear"
"3152" 2015-02-05 "7:30 PM" 4 -7 45 1031.2 NA "North (350°)" 10.8 NA "" "" "Clear"
"3153" 2015-02-05 "8:00 PM" 4 -8 42 1031.2 NA "North (350°)" 10.8 NA "" "" "Clear"
"3154" 2015-02-05 "8:30 PM" 4 -8 42 1031.2 NA "North (350°)" 10.8 NA "" "" "Clear"
"3155" 2015-02-05 "9:00 PM" 3 -7 48 1031.2 NA "North (360°)" 7.2 NA "" "" "Clear"
"3156" 2015-02-05 "9:30 PM" 3 -7 48 1031.2 NA "North (360°)" 7.2 NA "" "" "Clear"
"3157" 2015-02-05 "10:00 PM" 3 -7 48 1031.2 NA "North (10°)" 7.2 NA "" "" "Clear"
"3158" 2015-02-05 "10:30 PM" 3 -7 48 1031.2 NA "Variable" 3.5 NA "" "" "Clear"
"3159" 2015-02-05 "11:00 PM" 3 -6 52 1031.2 NA "Variable" 3.5 NA "" "" "Clear"
"3160" 2015-02-05 "11:30 PM" 2 -6 56 1031.2 NA "Variable" 3.5 NA "" "" "Clear"
"3161" 2015-02-04 "12:00 AM" 5 2 81 1030.1 10 "NNW (340°)" 7.2 NA "" "" "Mostly Cloudy"
"3162" 2015-02-04 "12:30 AM" 5 2 81 1030.1 10 "NNW (330°)" 10.8 NA "" "" "Mostly Cloudy"
"3163" 2015-02-04 "1:00 AM" 5 2 81 1030.1 10 "NNW (330°)" 10.8 NA "" "" "Mostly Cloudy"
"3164" 2015-02-04 "1:30 AM" 5 2 81 1029.1 10 "NNW (330°)" 7.2 NA "" "" "Mostly Cloudy"
"3165" 2015-02-04 "2:00 AM" 5 2 81 1029.1 6 "NNW (330°)" 10.8 NA "" "" "Mostly Cloudy"
"3166" 2015-02-04 "2:30 AM" 5 2 81 1029.1 6 "NNW (330°)" 10.8 NA "" "" "Mostly Cloudy"
"3167" 2015-02-04 "3:00 AM" 5 2 81 1029.1 6 "NW (320°)" 14.3 NA "" "" "Mostly Cloudy"
"3168" 2015-02-04 "3:30 AM" 5 2 81 1029.1 5 "NNW (330°)" 14.3 NA "" "" "Mostly Cloudy"
"3169" 2015-02-04 "4:00 AM" 5 2 81 1029.1 5 "NNW (330°)" 18 NA "" "" "Mostly Cloudy"
"3170" 2015-02-04 "4:30 AM" 5 2 81 1029.1 5 "NNW (330°)" 14.3 NA "" "" "Mostly Cloudy"
"3171" 2015-02-04 "5:00 AM" 5 2 81 1029.1 5 "NNW (330°)" 14.3 NA "" "" "Mostly Cloudy"
"3172" 2015-02-04 "5:30 AM" 4 2 87 1029.1 5 "NNW (330°)" 18 NA "" "" "Mostly Cloudy"
"3173" 2015-02-04 "6:00 AM" 4 2 87 1029.1 4 "NW (320°)" 18 NA "" "" "Partly Cloudy"
"3174" 2015-02-04 "6:30 AM" 4 2 87 1030.1 4 "NW (310°)" 18 NA "" "" "Partly Cloudy"
"3175" 2015-02-04 "7:00 AM" 4 2 87 1030.1 3.1 "NW (310°)" 14.3 NA "" "" "Mist"
"3176" 2015-02-04 "7:30 AM" 4 2 87 1030.1 2.3 "NW (310°)" 14.3 NA "" "" "Mist"
"3177" 2015-02-04 "8:00 AM" 4 2 87 1030.1 2.3 "WNW (300°)" 10.8 NA "" "" "Mist"
"3178" 2015-02-04 "8:30 AM" 5 2 81 1030.1 2.3 "WNW (290°)" 14.3 NA "" "" "Mist"
"3179" 2015-02-04 "9:00 AM" 5 2 81 1031.2 2.3 "WNW (290°)" 14.3 NA "" "" "Mist"
"3180" 2015-02-04 "9:30 AM" 6 2 76 1030.1 2.4 "WNW (300°)" 18 NA "" "" "Mist"
"3181" 2015-02-04 "10:00 AM" 7 -1 57 1030.1 2.6 "WNW (300°)" 18 NA "" "" "Haze"
"3182" 2015-02-04 "10:30 AM" 7 -2 53 1030.1 3.1 "NNW (330°)" 21.6 NA "" "" "Haze"
"3183" 2015-02-04 "11:00 AM" 8 -2 50 1029.1 NA "NNW (330°)" 21.6 NA "" "" "Haze"
"3184" 2015-02-04 "11:30 AM" 8 -3 46 1029.1 3.5 "NW (310°)" 25.3 NA "" "" "Haze"
"3185" 2015-02-04 "12:00 PM" 9 -3 43 1028.1 NA "NW (310°)" 25.3 NA "" "" "Haze"
"3186" 2015-02-04 "12:30 PM" 9 -3 43 1028.1 NA "NW (310°)" 25.3 NA "" "" "Haze"
"3187" 2015-02-04 "1:00 PM" 9 -3 43 1027.1 3.5 "NW (320°)" 25.3 NA "" "" "Haze"
"3188" 2015-02-04 "1:30 PM" 9 -3 43 1027.1 3.5 "NW (310°)" 21.6 NA "" "" "Haze"
"3189" 2015-02-04 "2:00 PM" 9 -3 43 1027.1 3.5 "NW (320°)" 21.6 NA "" "" "Haze"
"3190" 2015-02-04 "2:30 PM" 9 -3 43 1026.1 3.5 "NW (310°)" 21.6 NA "" "" "Haze"
"3191" 2015-02-04 "3:00 PM" 9 -4 40 1026.1 3.5 "NW (310°)" 21.6 NA "" "" "Haze"
"3192" 2015-02-04 "3:30 PM" 9 -4 40 1026.1 NA "NW (310°)" 21.6 NA "" "" "Haze"
"3193" 2015-02-04 "4:00 PM" 8 -4 43 1026.1 3.1 "NW (310°)" 21.6 NA "" "" "Haze"
"3194" 2015-02-04 "4:30 PM" 8 -4 43 1026.1 2.7 "NW (320°)" 21.6 NA "" "" "Haze"
"3195" 2015-02-04 "5:00 PM" 8 -3 46 1027.1 2.6 "NW (310°)" 18 NA "" "" "Haze"
"3196" 2015-02-04 "5:30 PM" 7 -3 49 1027.1 2.6 "NW (320°)" 18 NA "" "" "Haze"
"3197" 2015-02-04 "6:00 PM" 7 -3 49 1027.1 3.1 "WNW (300°)" 14.3 NA "" "" "Haze"
"3198" 2015-02-04 "6:30 PM" 7 -3 49 1028.1 3.1 "WNW (300°)" 14.3 NA "" "" "Haze"
"3199" 2015-02-04 "7:00 PM" 6 -2 57 1028.1 NA "WNW (300°)" 14.3 NA "" "" "Haze"
"3200" 2015-02-04 "7:30 PM" 7 -3 49 1028.1 3.5 "NW (320°)" 18 NA "" "" "Haze"
"3201" 2015-02-04 "8:00 PM" 6 -3 53 1029.1 3.5 "NNW (330°)" 18 NA "" "" "Haze"
"3202" 2015-02-04 "8:30 PM" 5 -3 57 1029.1 3.5 "NNW (330°)" 14.3 NA "" "" "Haze"
"3203" 2015-02-04 "9:00 PM" 5 -3 57 1029.1 3.5 "NNW (330°)" 14.3 NA "" "" "Haze"
"3204" 2015-02-04 "9:30 PM" 5 -3 57 1029.1 3.5 "NW (320°)" 14.3 NA "" "" "Haze"
"3205" 2015-02-04 "10:00 PM" 5 -3 57 1029.1 3.5 "NW (320°)" 10.8 NA "" "" "Haze"
"3206" 2015-02-04 "10:30 PM" 4 -3 61 1029.1 3.5 "NW (310°)" 10.8 NA "" "" "Haze"
"3207" 2015-02-04 "11:00 PM" 4 -3 61 1029.1 3.5 "West (280°)" 10.8 NA "" "" "Haze"
"3208" 2015-02-04 "11:30 PM" 4 -3 61 1029.1 3.5 "West (270°)" 7.2 NA "" "" "Haze"
"3209" 2015-02-03 "12:00 AM" 6 1 70 1031.2 10 "NE (50°)" 10.8 NA "" "" "Overcast"
"3210" 2015-02-03 "12:30 AM" 6 2 76 1031.2 10 "NE (50°)" 7.2 NA "" "" "Overcast"
"3211" 2015-02-03 "1:00 AM" 6 2 76 1031.2 10 "North (10°)" 7.2 NA "" "" "Overcast"
"3212" 2015-02-03 "1:30 AM" 6 2 76 1031.2 10 "NNE (30°)" 10.8 NA "" "" "Overcast"
"3213" 2015-02-03 "2:00 AM" 6 2 76 1031.2 10 "NE (40°)" 10.8 NA "" "" "Overcast"
"3214" 2015-02-03 "2:30 AM" 6 2 76 1031.2 10 "NE (40°)" 10.8 NA "" "" "Overcast"
"3215" 2015-02-03 "3:00 AM" 6 2 76 1031.2 10 "NNE (20°)" 7.2 NA "" "" "Overcast"
"3216" 2015-02-03 "3:30 AM" 5 3 87 1031.2 10 "North (360°)" 7.2 NA "" "" "Overcast"
"3217" 2015-02-03 "4:00 AM" 5 3 87 1030.1 10 "North (360°)" 7.2 NA "" "" "Overcast"
"3218" 2015-02-03 "4:30 AM" 5 3 87 1030.1 10 "North (360°)" 10.8 NA "" "" "Overcast"
"3219" 2015-02-03 "5:00 AM" 5 3 87 1030.1 10 "North (360°)" 7.2 NA "" "" "Overcast"
"3220" 2015-02-03 "5:30 AM" 5 3 87 1031.2 10 "North (360°)" 7.2 NA "" "" "Overcast"
"3221" 2015-02-03 "6:00 AM" 5 3 87 1031.2 10 "North (360°)" 10.8 NA "" "" "Overcast"
"3222" 2015-02-03 "6:30 AM" 5 3 87 1031.2 10 "North (350°)" 3.5 NA "" "" "Overcast"
"3223" 2015-02-03 "7:00 AM" 5 3 87 1031.2 10 "North (350°)" 7.2 NA "" "" "Overcast"
"3224" 2015-02-03 "7:30 AM" 5 3 87 1031.2 6.9 "North (360°)" 7.2 NA "" "" "Overcast"
"3225" 2015-02-03 "8:00 AM" 5 3 87 1031.2 6.9 "North (10°)" 10.8 NA "" "" "Overcast"
"3226" 2015-02-03 "8:30 AM" 6 3 81 1031.2 6.9 "North (350°)" 7.2 NA "" "" "Overcast"
"3227" 2015-02-03 "9:00 AM" 6 3 81 1031.2 6.9 "North (360°)" 7.2 NA "" "" "Overcast"
"3228" 2015-02-03 "9:30 AM" 6 3 81 1031.2 6.9 "North (360°)" 7.2 NA "" "" "Overcast"
"3229" 2015-02-03 "10:00 AM" 6 3 81 1032.2 6.9 "North (360°)" 7.2 NA "" "" "Overcast"
"3230" 2015-02-03 "10:30 AM" 7 4 81 1032.2 6.9 "North (360°)" 10.8 NA "" "" "Overcast"
"3231" 2015-02-03 "11:00 AM" 7 3 76 1031.2 6.9 "North (350°)" 10.8 NA "" "" "Overcast"
"3232" 2015-02-03 "11:30 AM" 7 3 76 1031.2 8 "North (360°)" 10.8 NA "" "" "Overcast"
"3233" 2015-02-03 "12:00 PM" 7 3 76 1031.2 8 "NNW (340°)" 10.8 NA "" "" "Overcast"
"3234" 2015-02-03 "12:30 PM" 7 2 71 1030.1 10 "North (350°)" 10.8 NA "" "" "Overcast"
"3235" 2015-02-03 "1:00 PM" 7 2 71 1030.1 10 "North (350°)" 10.8 NA "" "" "Overcast"
"3236" 2015-02-03 "1:30 PM" 7 2 71 1030.1 10 "NNW (340°)" 14.3 NA "" "" "Overcast"
"3237" 2015-02-03 "2:00 PM" 7 1 66 1030.1 10 "NNE (20°)" 14.3 NA "" "" "Overcast"
"3238" 2015-02-03 "2:30 PM" 8 1 62 1030.1 10 "North (350°)" 10.8 NA "" "" "Overcast"
"3239" 2015-02-03 "3:00 PM" 7 1 66 1029.1 10 "North (350°)" 10.8 NA "" "" "Overcast"
"3240" 2015-02-03 "3:30 PM" 7 1 66 1030.1 10 "NNW (340°)" 10.8 NA "" "" "Overcast"
"3241" 2015-02-03 "4:00 PM" 7 1 66 1029.1 10 "NNW (340°)" 10.8 NA "" "" "Overcast"
"3242" 2015-02-03 "4:30 PM" 7 1 66 1029.1 10 "NNW (330°)" 10.8 NA "" "" "Overcast"
"3243" 2015-02-03 "5:00 PM" 7 1 66 1029.1 10 "NNW (340°)" 10.8 NA "" "" "Overcast"
"3244" 2015-02-03 "5:30 PM" 7 1 66 1030.1 10 "NNW (340°)" 10.8 NA "" "" "Overcast"
"3245" 2015-02-03 "6:00 PM" 6 2 76 1030.1 10 "North (350°)" 10.8 NA "" "" "Overcast"
"3246" 2015-02-03 "6:30 PM" 6 2 76 1030.1 10 "NNW (330°)" 10.8 NA "" "" "Overcast"
"3247" 2015-02-03 "7:00 PM" 6 2 76 1030.1 10 "North (350°)" 10.8 NA "" "" "Overcast"
"3248" 2015-02-03 "7:30 PM" 6 1 70 1030.1 10 "NNW (330°)" 10.8 NA "" "" "Overcast"
"3249" 2015-02-03 "8:00 PM" 6 1 70 1030.1 10 "NNW (330°)" 7.2 NA "" "" "Overcast"
"3250" 2015-02-03 "8:30 PM" 6 1 70 1031.2 10 "NNW (330°)" 14.3 NA "" "" "Overcast"
"3251" 2015-02-03 "9:00 PM" 6 1 70 1031.2 10 "NNW (330°)" 14.3 NA "" "" "Overcast"
"3252" 2015-02-03 "9:30 PM" 6 2 76 1031.2 10 "NNW (330°)" 14.3 NA "" "" "Mostly Cloudy"
"3253" 2015-02-03 "10:00 PM" 6 2 76 1030.1 10 "NW (320°)" 14.3 NA "" "" "Mostly Cloudy"
"3254" 2015-02-03 "10:30 PM" 5 2 81 1030.1 10 "NNE (20°)" 14.3 NA "" "" "Mostly Cloudy"
"3255" 2015-02-03 "11:00 PM" 5 2 81 1030.1 10 "NNE (20°)" 7.2 NA "" "" "Mostly Cloudy"
"3256" 2015-02-03 "11:30 PM" 5 2 81 1030.1 10 "North (360°)" 3.5 NA "" "" "Mostly Cloudy"
"3257" 2015-02-02 "12:00 AM" 4 3 93 1032.2 NA "NNW (340°)" 7.2 NA "" "" "Clear"
"3258" 2015-02-02 "12:30 AM" 4 3 93 1032.2 10 "NNW (330°)" 10.8 NA "" "" "Partly Cloudy"
"3259" 2015-02-02 "1:00 AM" 4 3 93 1032.2 10 "NNW (340°)" 10.8 NA "" "" "Scattered Clouds"
"3260" 2015-02-02 "1:30 AM" 4 3 93 1032.2 10 "NNW (340°)" 10.8 NA "" "" "Mostly Cloudy"
"3261" 2015-02-02 "2:00 AM" 4 3 93 1032.2 10 "NNW (330°)" 7.2 NA "" "" "Mostly Cloudy"
"3262" 2015-02-02 "2:30 AM" 4 3 93 1032.2 10 "NNW (340°)" 7.2 NA "" "" "Mostly Cloudy"
"3263" 2015-02-02 "3:00 AM" 4 3 93 1032.2 10 "NNW (340°)" 7.2 NA "" "" "Mostly Cloudy"
"3264" 2015-02-02 "3:30 AM" 4 3 93 1031.2 10 "North (350°)" 7.2 NA "" "" "Overcast"
"3265" 2015-02-02 "4:00 AM" 4 3 93 1032.2 10 "North (350°)" 7.2 NA "" "" "Overcast"
"3266" 2015-02-02 "4:30 AM" 4 3 93 1031.2 10 "North (350°)" 3.5 NA "" "" "Overcast"
"3267" 2015-02-02 "5:00 AM" 4 3 93 1031.2 10 "NNW (340°)" 7.2 NA "" "" "Overcast"
"3268" 2015-02-02 "5:30 AM" 4 3 93 1032.2 10 "NNW (340°)" 7.2 NA "" "" "Overcast"
"3269" 2015-02-02 "6:00 AM" 4 3 93 1032.2 6.9 "NNW (340°)" 7.2 NA "" "Rain" "Light Rain"
"3270" 2015-02-02 "6:30 AM" 4 3 93 1032.2 6.9 "NNW (340°)" 7.2 NA "" "Rain" "Light Rain"
"3271" 2015-02-02 "7:00 AM" 4 3 93 1032.2 6 "North (10°)" 7.2 NA "" "" "Overcast"
"3272" 2015-02-02 "7:30 AM" 4 3 93 1032.2 6.9 "NNE (20°)" 10.8 NA "" "" "Overcast"
"3273" 2015-02-02 "8:00 AM" 5 3 87 1032.2 10 "NE (50°)" 10.8 NA "" "" "Overcast"
"3274" 2015-02-02 "8:30 AM" 5 3 87 1032.2 10 "NE (50°)" 7.2 NA "" "" "Overcast"
"3275" 2015-02-02 "9:00 AM" 5 2 81 1033.2 10 "NE (50°)" 7.2 NA "" "" "Overcast"
"3276" 2015-02-02 "9:30 AM" 6 2 76 1033.2 10 "NE (40°)" 10.8 NA "" "" "Overcast"
"3277" 2015-02-02 "10:00 AM" 6 2 76 1033.2 10 "NE (50°)" 10.8 NA "" "" "Overcast"
"3278" 2015-02-02 "10:30 AM" 6 2 76 1033.2 10 "ENE (70°)" 10.8 28.8 "" "" "Overcast"
"3279" 2015-02-02 "11:00 AM" 6 2 76 1032.2 10 "NNE (30°)" 10.8 NA "" "" "Overcast"
"3280" 2015-02-02 "11:30 AM" 7 2 71 1032.2 10 "NNE (30°)" 7.2 NA "" "" "Overcast"
"3281" 2015-02-02 "12:00 PM" 6 3 81 1032.2 10 "North (10°)" 10.8 NA "" "" "Overcast"
"3282" 2015-02-02 "12:30 PM" 6 2 76 1031.2 10 "NE (50°)" 10.8 NA "" "" "Mostly Cloudy"
"3283" 2015-02-02 "1:00 PM" 6 2 76 1031.2 10 "NE (40°)" 10.8 NA "" "" "Mostly Cloudy"
"3284" 2015-02-02 "1:30 PM" 6 2 76 1031.2 10 "NE (40°)" 10.8 NA "" "" "Mostly Cloudy"
"3285" 2015-02-02 "2:00 PM" 7 1 66 1031.2 10 "NE (40°)" 10.8 NA "" "" "Mostly Cloudy"
"3286" 2015-02-02 "2:30 PM" 7 2 71 1030.1 10 "NE (40°)" 7.2 NA "" "" "Mostly Cloudy"
"3287" 2015-02-02 "3:00 PM" 7 1 66 1030.1 10 "NE (50°)" 10.8 NA "" "" "Mostly Cloudy"
"3288" 2015-02-02 "3:30 PM" 7 1 66 1030.1 10 "NE (50°)" 10.8 NA "" "" "Mostly Cloudy"
"3289" 2015-02-02 "4:00 PM" 7 1 66 1030.1 10 "East (80°)" 7.2 NA "" "" "Mostly Cloudy"
"3290" 2015-02-02 "4:30 PM" 7 1 66 1030.1 10 "NNE (30°)" 7.2 NA "" "" "Mostly Cloudy"
"3291" 2015-02-02 "5:00 PM" 7 1 66 1030.1 10 "NE (50°)" 7.2 NA "" "" "Mostly Cloudy"
"3292" 2015-02-02 "5:30 PM" 7 1 66 1030.1 10 "ENE (60°)" 7.2 NA "" "" "Mostly Cloudy"
"3293" 2015-02-02 "6:00 PM" 7 1 66 1031.2 10 "ENE (70°)" 7.2 NA "" "" "Mostly Cloudy"
"3294" 2015-02-02 "6:30 PM" 7 1 66 1031.2 10 "ENE (60°)" 7.2 NA "" "" "Overcast"
"3295" 2015-02-02 "7:00 PM" 7 2 71 1031.2 10 "ENE (70°)" 10.8 NA "" "" "Overcast"
"3296" 2015-02-02 "7:30 PM" 7 1 66 1031.2 10 "NE (40°)" 10.8 NA "" "" "Overcast"
"3297" 2015-02-02 "8:00 PM" 7 2 71 1031.2 10 "NE (50°)" 14.3 NA "" "" "Overcast"
"3298" 2015-02-02 "8:30 PM" 7 1 66 1032.2 10 "NE (40°)" 10.8 NA "" "" "Overcast"
"3299" 2015-02-02 "9:00 PM" 6 1 70 1032.2 10 "NE (40°)" 10.8 NA "" "" "Overcast"
"3300" 2015-02-02 "9:30 PM" 6 1 70 1032.2 10 "NE (40°)" 14.3 NA "" "" "Overcast"
"3301" 2015-02-02 "10:00 PM" 6 1 70 1031.2 10 "NE (40°)" 14.3 NA "" "" "Overcast"
"3302" 2015-02-02 "10:30 PM" 6 1 70 1032.2 10 "NE (50°)" 10.8 NA "" "" "Overcast"
"3303" 2015-02-02 "11:00 PM" 6 1 70 1032.2 10 "ENE (60°)" 10.8 NA "" "" "Overcast"
"3304" 2015-02-02 "11:30 PM" 6 1 70 1031.2 10 "ENE (60°)" 10.8 NA "" "" "Overcast"
"3305" 2015-02-01 "12:00 AM" 2 -3 70 1035.2 NA "North (360°)" 14.3 NA "" "" "Clear"
"3306" 2015-02-01 "12:30 AM" 3 -3 65 1035.2 NA "North (360°)" 14.3 NA "" "" "Clear"
"3307" 2015-02-01 "1:00 AM" 2 -3 70 1035.2 NA "North (360°)" 14.3 NA "" "" "Clear"
"3308" 2015-02-01 "1:30 AM" 2 -3 70 1035.2 NA "North (360°)" 10.8 NA "" "" "Clear"
"3309" 2015-02-01 "2:00 AM" 3 -3 65 1035.2 NA "North (350°)" 10.8 NA "" "" "Clear"
"3310" 2015-02-01 "2:30 AM" 3 -3 65 1035.2 NA "North (350°)" 14.3 NA "" "" "Clear"
"3311" 2015-02-01 "3:00 AM" 2 -3 70 1035.2 NA "North (360°)" 14.3 NA "" "" "Clear"
"3312" 2015-02-01 "3:30 AM" 2 -3 70 1035.2 NA "North (360°)" 10.8 NA "" "" "Clear"
"3313" 2015-02-01 "4:00 AM" 2 -3 70 1035.2 NA "North (360°)" 14.3 NA "" "" "Clear"
"3314" 2015-02-01 "4:30 AM" 2 -3 70 1034.2 NA "NNE (20°)" 14.3 NA "" "" "Clear"
"3315" 2015-02-01 "5:00 AM" 2 -3 70 1034.2 NA "North (360°)" 10.8 NA "" "" "Clear"
"3316" 2015-02-01 "5:30 AM" 3 -3 65 1034.2 NA "NNE (20°)" 10.8 NA "" "" "Clear"
"3317" 2015-02-01 "6:00 AM" 2 -3 70 1034.2 NA "North (360°)" 14.3 NA "" "" "Clear"
"3318" 2015-02-01 "6:30 AM" 2 -2 75 1034.2 NA "North (360°)" 14.3 NA "" "" "Clear"
"3319" 2015-02-01 "7:00 AM" 3 -2 70 1034.2 NA "North (360°)" 10.8 NA "" "" "Clear"
"3320" 2015-02-01 "7:30 AM" 3 -2 70 1035.2 NA "North (360°)" 10.8 NA "" "" "Clear"
"3321" 2015-02-01 "8:00 AM" 3 -2 70 1035.2 NA "North (360°)" 10.8 NA "" "" "Clear"
"3322" 2015-02-01 "8:30 AM" 4 -2 65 1035.2 NA "North (360°)" 10.8 NA "" "" "Clear"
"3323" 2015-02-01 "9:00 AM" 4 -1 70 1035.2 NA "NNE (20°)" 14.3 NA "" "" "Clear"
"3324" 2015-02-01 "9:30 AM" 4 -1 70 1035.2 10 "North (10°)" 10.8 NA "" "" "Scattered Clouds"
"3325" 2015-02-01 "10:00 AM" 5 -1 65 1035.2 10 "NNE (30°)" 10.8 NA "" "" "Mostly Cloudy"
"3326" 2015-02-01 "10:30 AM" 5 -1 65 1035.2 10 "NNE (30°)" 10.8 NA "" "" "Scattered Clouds"
"3327" 2015-02-01 "11:00 AM" 5 -1 65 1035.2 10 "North (360°)" 10.8 NA "" "" "Scattered Clouds"
"3328" 2015-02-01 "11:30 AM" 6 -1 61 1034.2 10 "ENE (60°)" 7.2 25.3 "" "" "Scattered Clouds"
"3329" 2015-02-01 "12:00 PM" 6 0 66 1034.2 10 "WNW (300°)" 7.2 NA "" "" "Mostly Cloudy"
"3330" 2015-02-01 "12:30 PM" 6 -1 61 1033.2 10 "North (350°)" 7.2 NA "" "" "Mostly Cloudy"
"3331" 2015-02-01 "1:00 PM" 6 -1 61 1033.2 10 "NNE (20°)" 7.2 NA "" "" "Mostly Cloudy"
"3332" 2015-02-01 "1:30 PM" 6 -1 61 1032.2 10 "Variable" 7.2 NA "" "" "Mostly Cloudy"
"3333" 2015-02-01 "2:00 PM" 6 -1 61 1032.2 10 "Variable" 3.5 NA "" "" "Mostly Cloudy"
"3334" 2015-02-01 "2:30 PM" 6 -1 61 1032.2 10 "NW (320°)" 7.2 NA "" "Rain" "Light Rain"
"3335" 2015-02-01 "3:00 PM" 6 0 66 1032.2 10 "North (360°)" 7.2 NA "" "Rain" "Light Rain"
"3336" 2015-02-01 "3:30 PM" 6 0 66 1032.2 10 "North (350°)" 7.2 NA "" "" "Mostly Cloudy"
"3337" 2015-02-01 "4:00 PM" 5 0 70 1031.2 10 "NNE (20°)" 7.2 NA "" "Rain" "Light Rain"
"3338" 2015-02-01 "4:30 PM" 5 0 70 1032.2 10 "Variable" 3.5 NA "" "" "Mostly Cloudy"
"3339" 2015-02-01 "5:00 PM" 5 0 70 1032.2 10 "North (360°)" 7.2 NA "" "" "Mostly Cloudy"
"3340" 2015-02-01 "5:30 PM" 5 0 70 1032.2 10 "Variable" 3.5 NA "" "" "Mostly Cloudy"
"3341" 2015-02-01 "6:00 PM" 5 1 76 1032.2 10 "WSW (250°)" 7.2 NA "" "" "Mostly Cloudy"
"3342" 2015-02-01 "6:30 PM" 5 1 76 1032.2 10 "WSW (250°)" 7.2 NA "" "" "Mostly Cloudy"
"3343" 2015-02-01 "7:00 PM" 5 1 76 1033.2 10 "NW (310°)" 7.2 NA "" "" "Mostly Cloudy"
"3344" 2015-02-01 "7:30 PM" 4 2 87 1033.2 10 "North (350°)" 10.8 NA "" "Rain" "Light Rain"
"3345" 2015-02-01 "8:00 PM" 4 3 93 1033.2 10 "North (350°)" 10.8 NA "" "Rain" "Light Rain"
"3346" 2015-02-01 "8:30 PM" 4 3 93 1033.2 10 "North (10°)" 14.3 NA "" "Rain" "Light Rain"
"3347" 2015-02-01 "9:00 PM" 4 3 93 1033.2 10 "North (360°)" 7.2 NA "" "Rain" "Light Rain"
"3348" 2015-02-01 "9:30 PM" 4 3 93 1033.2 10 "North (10°)" 7.2 NA "" "" "Partly Cloudy"
"3349" 2015-02-01 "10:00 PM" 4 3 93 1033.2 NA "North (360°)" 7.2 NA "" "" "Clear"
"3350" 2015-02-01 "10:30 PM" 4 3 93 1033.2 10 "North (350°)" 7.2 NA "" "Rain" "Light Rain"
"3351" 2015-02-01 "11:00 PM" 4 3 93 1032.2 10 "North (350°)" 7.2 NA "" "Rain" "Light Rain"
"3352" 2015-02-01 "11:30 PM" 4 3 93 1032.2 NA "North (350°)" 7.2 NA "" "" "Clear"
"3353" 2015-01-31 "12:00 AM" 2 -3 70 1034.2 NA "NNW (340°)" 21.6 NA "" "" "Clear"
"3354" 2015-01-31 "12:30 AM" 2 -3 70 1034.2 NA "NNW (340°)" 18 NA "" "" "Clear"
"3355" 2015-01-31 "1:00 AM" 2 -4 65 1034.2 NA "NNW (340°)" 14.3 NA "" "" "Clear"
"3356" 2015-01-31 "1:30 AM" 2 -4 65 1034.2 NA "NNW (340°)" 14.3 NA "" "" "Clear"
"3357" 2015-01-31 "2:00 AM" 2 -4 65 1034.2 NA "NNW (330°)" 10.8 NA "" "" "Clear"
"3358" 2015-01-31 "2:30 AM" 2 -4 65 1034.2 NA "NNW (330°)" 14.3 NA "" "" "Clear"
"3359" 2015-01-31 "3:00 AM" 2 -4 65 1035.2 NA "NW (320°)" 14.3 NA "" "" "Clear"
"3360" 2015-01-31 "3:30 AM" 2 -3 70 1035.2 NA "NW (320°)" 14.3 NA "" "" "Clear"
"3361" 2015-01-31 "4:00 AM" 2 -3 70 1034.2 NA "NNW (330°)" 14.3 NA "" "" "Clear"
"3362" 2015-01-31 "4:30 AM" 1 -3 75 1034.2 NA "NNW (330°)" 14.3 NA "" "" "Clear"
"3363" 2015-01-31 "5:00 AM" 2 -3 70 1034.2 10 "NW (320°)" 14.3 NA "" "" "Scattered Clouds"
"3364" 2015-01-31 "5:30 AM" 1 -4 70 1034.2 10 "NW (320°)" 10.8 NA "" "" "Partly Cloudy"
"3365" 2015-01-31 "6:00 AM" 1 -3 75 1034.2 NA "NW (320°)" 10.8 NA "" "" "Clear"
"3366" 2015-01-31 "6:30 AM" 1 -3 75 1035.2 NA "NW (310°)" 14.3 NA "" "" "Clear"
"3367" 2015-01-31 "7:00 AM" 1 -3 75 1035.2 6.9 "NNW (340°)" 18 NA "" "" ""
"3368" 2015-01-31 "7:30 AM" 1 -2 81 1035.2 6.9 "North (360°)" 10.8 NA "" "" ""
"3369" 2015-01-31 "8:00 AM" 2 -1 81 1036.2 6.9 "North (350°)" 14.3 NA "" "" ""
"3370" 2015-01-31 "8:30 AM" 3 -1 75 1036.2 6.9 "North (360°)" 18 NA "" "" ""
"3371" 2015-01-31 "9:00 AM" 4 -2 65 1036.2 10 "North (360°)" 21.6 NA "" "" "Mostly Cloudy"
"3372" 2015-01-31 "9:30 AM" 4 -3 61 1036.2 10 "North (360°)" 21.6 NA "" "" "Scattered Clouds"
"3373" 2015-01-31 "10:00 AM" 4 -3 61 1037.3 10 "North (350°)" 21.6 NA "" "" "Scattered Clouds"
"3374" 2015-01-31 "10:30 AM" 5 -4 53 1037.3 10 "NNE (20°)" 21.6 NA "" "" "Partly Cloudy"
"3375" 2015-01-31 "11:00 AM" 5 -4 53 1036.2 10 "North (360°)" 18 NA "" "" "Scattered Clouds"
"3376" 2015-01-31 "11:30 AM" 6 -4 49 1036.2 10 "North (350°)" 18 NA "" "" "Scattered Clouds"
"3377" 2015-01-31 "12:00 PM" 6 -6 42 1036.2 10 "North (350°)" 14.3 NA "" "" "Partly Cloudy"
"3378" 2015-01-31 "12:30 PM" 7 -7 37 1035.2 NA "North (360°)" 18 NA "" "" "Clear"
"3379" 2015-01-31 "1:00 PM" 7 -7 37 1034.2 NA "North (350°)" 21.6 NA "" "" "Clear"
"3380" 2015-01-31 "1:30 PM" 7 -5 43 1034.2 NA "North (10°)" 18 NA "" "" "Clear"
"3381" 2015-01-31 "2:00 PM" 6 -6 42 1034.2 10 "Variable" 14.3 NA "" "" "Scattered Clouds"
"3382" 2015-01-31 "2:30 PM" 6 -5 46 1034.2 10 "NNE (30°)" 21.6 NA "" "" "Partly Cloudy"
"3383" 2015-01-31 "3:00 PM" 5 -5 49 1034.2 NA "North (360°)" 18 NA "" "" "Clear"
"3384" 2015-01-31 "3:30 PM" 5 -4 53 1034.2 10 "North (10°)" 21.6 NA "" "" "Partly Cloudy"
"3385" 2015-01-31 "4:00 PM" 5 -4 53 1034.2 10 "NNE (20°)" 21.6 NA "" "" "Scattered Clouds"
"3386" 2015-01-31 "4:30 PM" 4 -4 56 1034.2 10 "North (10°)" 21.6 NA "" "" "Scattered Clouds"
"3387" 2015-01-31 "5:00 PM" 4 -4 56 1035.2 10 "North (360°)" 18 NA "" "" "Scattered Clouds"
"3388" 2015-01-31 "5:30 PM" 4 -4 56 1035.2 10 "North (10°)" 21.6 NA "" "" "Scattered Clouds"
"3389" 2015-01-31 "6:00 PM" 3 -4 60 1035.2 10 "North (10°)" 21.6 NA "" "" "Scattered Clouds"
"3390" 2015-01-31 "6:30 PM" 3 -4 60 1036.2 NA "North (360°)" 21.6 NA "" "" "Clear"
"3391" 2015-01-31 "7:00 PM" 3 -4 60 1036.2 NA "North (10°)" 21.6 NA "" "" "Clear"
"3392" 2015-01-31 "7:30 PM" 3 -4 60 1036.2 NA "NNE (30°)" 18 NA "" "" "Clear"
"3393" 2015-01-31 "8:00 PM" 3 -5 56 1036.2 NA "NNE (20°)" 21.6 NA "" "" "Clear"
"3394" 2015-01-31 "8:30 PM" 3 -5 56 1036.2 NA "NNE (30°)" 21.6 NA "" "" "Clear"
"3395" 2015-01-31 "9:00 PM" 3 -4 60 1035.2 NA "NNE (30°)" 21.6 NA "" "" "Clear"
"3396" 2015-01-31 "9:30 PM" 3 -4 60 1036.2 NA "NNE (30°)" 18 NA "" "" "Clear"
"3397" 2015-01-31 "10:00 PM" 3 -4 60 1036.2 NA "NE (40°)" 14.3 NA "" "" "Clear"
"3398" 2015-01-31 "10:30 PM" 3 -4 60 1036.2 NA "NNE (30°)" 14.3 NA "" "" "Clear"
"3399" 2015-01-31 "11:00 PM" 3 -4 60 1036.2 NA "North (10°)" 14.3 NA "" "" "Clear"
"3400" 2015-01-31 "11:30 PM" 3 -3 65 1036.2 NA "North (360°)" 14.3 NA "" "" "Clear"
"3401" 2015-01-30 "12:00 AM" 3 2 93 1028.1 6.9 "NNW (340°)" 18 NA "" "Rain" "Light Rain"
"3402" 2015-01-30 "12:30 AM" 3 2 93 1028.1 6.9 "NNW (330°)" 18 NA "" "Rain" "Light Rain"
"3403" 2015-01-30 "1:00 AM" 3 2 93 1028.1 6.9 "NNW (330°)" 18 NA "" "Rain" "Light Rain"
"3404" 2015-01-30 "1:30 AM" 3 2 93 1028.1 6.9 "NNW (330°)" 21.6 NA "" "" "Overcast"
"3405" 2015-01-30 "2:00 AM" 3 1 87 1028.1 8 "NNW (340°)" 21.6 NA "" "" "Overcast"
"3406" 2015-01-30 "2:30 AM" 3 1 87 1028.1 8 "NNW (340°)" 21.6 NA "" "" "Overcast"
"3407" 2015-01-30 "3:00 AM" 3 1 87 1028.1 10 "North (350°)" 21.6 NA "" "" "Overcast"
"3408" 2015-01-30 "3:30 AM" 2 1 93 1029.1 10 "NNW (340°)" 21.6 NA "" "" "Overcast"
"3409" 2015-01-30 "4:00 AM" 2 1 93 1029.1 10 "NNW (340°)" 18 NA "" "" "Overcast"
"3410" 2015-01-30 "4:30 AM" 2 1 93 1029.1 10 "NNW (330°)" 18 NA "" "" "Overcast"
"3411" 2015-01-30 "5:00 AM" 2 0 87 1029.1 10 "NNW (340°)" 21.6 NA "" "" "Overcast"
"3412" 2015-01-30 "5:30 AM" 2 0 87 1029.1 10 "NNW (340°)" 18 NA "" "" "Overcast"
"3413" 2015-01-30 "6:00 AM" 2 0 87 1030.1 10 "NNW (340°)" 21.6 NA "" "" "Overcast"
"3414" 2015-01-30 "6:30 AM" 2 0 87 1030.1 10 "North (350°)" 18 NA "" "" "Overcast"
"3415" 2015-01-30 "7:00 AM" 2 0 87 1030.1 6.9 "NNW (340°)" 18 NA "" "" "Overcast"
"3416" 2015-01-30 "7:30 AM" 2 0 87 1031.2 6 "NW (320°)" 18 NA "" "" "Overcast"
"3417" 2015-01-30 "8:00 AM" 2 -1 81 1031.2 6 "NNW (330°)" 25.3 NA "" "" "Overcast"
"3418" 2015-01-30 "8:30 AM" 2 0 87 1031.2 5 "NNW (330°)" 21.6 NA "" "" "Overcast"
"3419" 2015-01-30 "9:00 AM" 2 -1 81 1031.2 6 "NW (320°)" 18 NA "" "" "Overcast"
"3420" 2015-01-30 "9:30 AM" 2 -1 81 1031.2 6 "NW (310°)" 18 NA "" "" "Overcast"
"3421" 2015-01-30 "10:00 AM" 2 -1 81 1032.2 6 "NW (320°)" 21.6 NA "" "" "Overcast"
"3422" 2015-01-30 "10:30 AM" 3 -1 75 1032.2 6 "NW (320°)" 18 NA "" "" "Overcast"
"3423" 2015-01-30 "11:00 AM" 4 0 75 1032.2 6 "NNW (330°)" 21.6 NA "" "" "Overcast"
"3424" 2015-01-30 "11:30 AM" 4 -1 70 1031.2 6 "NW (320°)" 18 NA "" "" "Overcast"
"3425" 2015-01-30 "12:00 PM" 4 -1 70 1031.2 6 "NNW (330°)" 18 NA "" "" "Mostly Cloudy"
"3426" 2015-01-30 "12:30 PM" 5 -1 65 1030.1 6 "NNW (330°)" 18 NA "" "" "Mostly Cloudy"
"3427" 2015-01-30 "1:00 PM" 4 -1 70 1030.1 6 "NW (320°)" 21.6 NA "" "" "Mostly Cloudy"
"3428" 2015-01-30 "1:30 PM" 5 -1 65 1030.1 5 "NNW (330°)" 21.6 NA "" "" "Haze"
"3429" 2015-01-30 "2:00 PM" 5 -2 61 1030.1 5 "NNW (330°)" 18 NA "" "" "Haze"
"3430" 2015-01-30 "2:30 PM" 6 -1 61 1030.1 4 "NNW (340°)" 21.6 NA "" "" "Haze"
"3431" 2015-01-30 "3:00 PM" 5 -2 61 1030.1 3.5 "North (350°)" 18 NA "" "" "Haze"
"3432" 2015-01-30 "3:30 PM" 5 -2 61 1030.1 3.5 "NNW (340°)" 21.6 NA "" "" "Haze"
"3433" 2015-01-30 "4:00 PM" 5 -3 57 1031.2 3.5 "NNW (340°)" 21.6 NA "" "" "Haze"
"3434" 2015-01-30 "4:30 PM" 5 -3 57 1031.2 3.5 "North (350°)" 21.6 NA "" "" "Haze"
"3435" 2015-01-30 "5:00 PM" 5 -2 61 1032.2 3.5 "North (350°)" 14.3 NA "" "" "Haze"
"3436" 2015-01-30 "5:30 PM" 5 -2 61 1032.2 3.5 "North (360°)" 14.3 NA "" "" "Haze"
"3437" 2015-01-30 "6:00 PM" 4 -2 65 1032.2 4 "North (360°)" 18 NA "" "" "Haze"
"3438" 2015-01-30 "6:30 PM" 4 -2 65 1033.2 6 "NNE (20°)" 18 NA "" "" "Mostly Cloudy"
"3439" 2015-01-30 "7:00 PM" 4 -4 56 1033.2 6 "NNE (20°)" 21.6 NA "" "" "Mostly Cloudy"
"3440" 2015-01-30 "7:30 PM" 3 -4 60 1033.2 6.9 "North (10°)" 21.6 NA "" "" "Scattered Clouds"
"3441" 2015-01-30 "8:00 PM" 3 -5 56 1033.2 NA "North (10°)" 18 NA "" "" "Clear"
"3442" 2015-01-30 "8:30 PM" 3 -4 60 1034.2 NA "North (10°)" 21.6 NA "" "" "Clear"
"3443" 2015-01-30 "9:00 PM" 3 -4 60 1034.2 NA "North (10°)" 18 NA "" "" "Clear"
"3444" 2015-01-30 "9:30 PM" 3 -3 65 1034.2 NA "North (10°)" 18 NA "" "" "Clear"
"3445" 2015-01-30 "10:00 PM" 2 -3 70 1034.2 NA "North (350°)" 14.3 NA "" "" "Clear"
"3446" 2015-01-30 "10:30 PM" 3 -3 65 1034.2 NA "North (360°)" 14.3 NA "" "" "Clear"
"3447" 2015-01-30 "11:00 PM" 3 -3 65 1034.2 NA "North (350°)" 14.3 NA "" "" "Clear"
"3448" 2015-01-30 "11:30 PM" 2 -3 70 1034.2 NA "North (350°)" 14.3 NA "" "" "Clear"
"3449" 2015-01-29 "12:00 AM" 5 0 70 1027.1 10 "ENE (60°)" 14.3 NA "" "Rain" "Light Rain"
"3450" 2015-01-29 "12:30 AM" 5 1 76 1027.1 10 "ENE (70°)" 10.8 NA "" "Rain" "Light Rain"
"3451" 2015-01-29 "1:00 AM" 4 1 81 1026.1 10 "ENE (60°)" 14.3 NA "" "Rain" "Light Rain"
"3452" 2015-01-29 "1:30 AM" 4 1 81 1027.1 10 "NE (50°)" 18 NA "" "Rain" "Light Rain"
"3453" 2015-01-29 "2:00 AM" 4 2 87 1027.1 10 "NE (40°)" 14.3 NA "" "Rain" "Light Rain"
"3454" 2015-01-29 "2:30 AM" 4 2 87 1027.1 10 "NNE (30°)" 18 NA "" "Rain" "Light Rain"
"3455" 2015-01-29 "3:00 AM" 4 2 87 1027.1 10 "NNE (30°)" 18 NA "" "Rain" "Light Rain"
"3456" 2015-01-29 "3:30 AM" 3 2 93 1026.1 10 "NNE (20°)" 21.6 NA "" "Rain" "Light Rain"
"3457" 2015-01-29 "4:00 AM" 3 2 93 1026.1 10 "NE (40°)" 18 NA "" "Rain" "Light Rain"
"3458" 2015-01-29 "4:30 AM" 3 1 87 1026.1 10 "NE (40°)" 18 NA "" "Rain" "Light Rain"
"3459" 2015-01-29 "5:00 AM" 3 1 87 1026.1 10 "NE (50°)" 21.6 NA "" "Rain" "Light Rain"
"3460" 2015-01-29 "5:30 AM" 2 1 93 1026.1 10 "NE (40°)" 18 NA "" "Rain" "Light Rain"
"3461" 2015-01-29 "6:00 AM" 3 2 93 1027.1 10 "NE (40°)" 14.3 NA "" "Rain" "Light Rain"
"3462" 2015-01-29 "6:30 AM" 3 2 93 1026.1 10 "NE (40°)" 18 NA "" "Rain" "Light Rain"
"3463" 2015-01-29 "7:00 AM" 3 2 93 1027.1 10 "NE (40°)" 14.3 NA "" "Rain" "Light Rain"
"3464" 2015-01-29 "7:30 AM" 3 2 93 1027.1 10 "NE (40°)" 18 NA "" "Rain" "Light Rain"
"3465" 2015-01-29 "8:00 AM" 3 2 93 1027.1 10 "NNE (30°)" 14.3 NA "" "Rain" "Light Rain"
"3466" 2015-01-29 "8:30 AM" 3 2 93 1027.1 10 "NE (40°)" 10.8 NA "" "Rain" "Light Rain"
"3467" 2015-01-29 "9:00 AM" 4 2 87 1026.1 10 "NE (40°)" 14.3 NA "" "Rain" "Light Rain"
"3468" 2015-01-29 "9:30 AM" 4 3 93 1026.1 10 "NNE (30°)" 10.8 NA "" "Rain" "Light Rain"
"3469" 2015-01-29 "10:00 AM" 4 3 93 1026.1 10 "NNE (30°)" 14.3 NA "" "Rain" "Light Rain"
"3470" 2015-01-29 "10:30 AM" 4 3 93 1026.1 10 "NE (40°)" 14.3 NA "" "Rain" "Light Rain"
"3471" 2015-01-29 "11:00 AM" 4 3 93 1026.1 10 "NE (40°)" 14.3 NA "" "Rain" "Light Rain"
"3472" 2015-01-29 "11:30 AM" 5 3 87 1026.1 10 "NNE (30°)" 14.3 NA "" "Rain" "Light Rain"
"3473" 2015-01-29 "12:00 PM" 5 3 87 1025.1 10 "NNE (30°)" 14.3 NA "" "Rain" "Light Rain"
"3474" 2015-01-29 "12:30 PM" 5 3 87 1025.1 10 "North (10°)" 14.3 NA "" "Rain" "Light Rain"
"3475" 2015-01-29 "1:00 PM" 5 3 87 1025.1 10 "NNE (20°)" 18 NA "" "Rain" "Light Rain"
"3476" 2015-01-29 "1:30 PM" 5 3 87 1025.1 10 "North (10°)" 14.3 NA "" "Rain" "Light Rain"
"3477" 2015-01-29 "2:00 PM" 5 4 93 1025.1 5 "North (10°)" 14.3 NA "" "Rain" "Light Rain"
"3478" 2015-01-29 "2:30 PM" 5 4 93 1025.1 5 "NNE (20°)" 18 NA "" "Rain" "Light Rain"
"3479" 2015-01-29 "3:00 PM" 5 4 93 1025.1 5 "North (10°)" 18 NA "" "Rain" "Light Rain"
"3480" 2015-01-29 "3:30 PM" 5 4 93 1025.1 8 "North (10°)" 14.3 NA "" "Rain" "Light Rain"
"3481" 2015-01-29 "4:00 PM" 5 4 93 1025.1 10 "North (10°)" 14.3 NA "" "Rain" "Light Rain"
"3482" 2015-01-29 "4:30 PM" 4 3 93 1025.1 10 "NNE (20°)" 14.3 NA "" "Rain" "Light Rain"
"3483" 2015-01-29 "5:00 PM" 4 3 93 1025.1 10 "North (360°)" 18 NA "" "Rain" "Light Rain"
"3484" 2015-01-29 "5:30 PM" 4 2 87 1026.1 10 "North (360°)" 18 NA "" "Rain" "Light Rain"
"3485" 2015-01-29 "6:00 PM" 4 2 87 1026.1 10 "North (10°)" 18 NA "" "Rain" "Light Rain"
"3486" 2015-01-29 "6:30 PM" 4 2 87 1027.1 10 "North (350°)" 18 NA "" "Rain" "Light Rain"
"3487" 2015-01-29 "7:00 PM" 4 2 87 1027.1 10 "North (350°)" 14.3 NA "" "Rain" "Light Rain"
"3488" 2015-01-29 "7:30 PM" 3 2 93 1027.1 10 "North (350°)" 14.3 NA "" "Rain" "Light Rain"
"3489" 2015-01-29 "8:00 PM" 3 2 93 1027.1 10 "North (350°)" 18 NA "" "Rain" "Light Rain"
"3490" 2015-01-29 "8:30 PM" 3 2 93 1028.1 10 "North (350°)" 18 NA "" "Rain" "Light Rain"
"3491" 2015-01-29 "9:00 PM" 3 2 93 1028.1 10 "NNW (340°)" 18 NA "" "Rain" "Light Rain"
"3492" 2015-01-29 "9:30 PM" 3 2 93 1028.1 10 "North (350°)" 18 NA "" "Rain" "Light Rain"
"3493" 2015-01-29 "10:00 PM" 3 2 93 1028.1 10 "NNW (340°)" 21.6 NA "" "Rain" "Light Rain"
"3494" 2015-01-29 "10:30 PM" 3 2 93 1028.1 10 "NNW (330°)" 18 NA "" "Rain" "Light Rain"
"3495" 2015-01-29 "11:00 PM" 3 2 93 1028.1 8 "NNW (330°)" 18 NA "" "Rain" "Light Rain"
"3496" 2015-01-29 "11:30 PM" 3 2 93 1028.1 6.9 "NNW (330°)" 18 NA "" "Rain" "Light Rain"
"3497" 2015-01-28 "12:00 AM" 1 0 93 1029.1 5 "North (360°)" 7.2 NA "" "Snow" "Light Snow"
"3498" 2015-01-28 "12:30 AM" 1 1 100 1029.1 8 "North (350°)" 7.2 NA "" "" "Scattered Clouds"
"3499" 2015-01-28 "1:00 AM" 2 0 87 1029.1 NA "North (10°)" 21.6 NA "" "" "Clear"
"3500" 2015-01-28 "1:30 AM" 2 -1 81 1029.1 NA "North (10°)" 25.3 NA "" "" "Clear"
"3501" 2015-01-28 "2:00 AM" 2 -1 81 1030.1 10 "North (10°)" 25.3 NA "" "" "Scattered Clouds"
"3502" 2015-01-28 "2:30 AM" 2 -1 81 1029.1 10 "North (10°)" 21.6 NA "" "" "Scattered Clouds"
"3503" 2015-01-28 "3:00 AM" 2 -1 81 1030.1 10 "North (10°)" 21.6 NA "" "" "Scattered Clouds"
"3504" 2015-01-28 "3:30 AM" 2 -1 81 1030.1 10 "North (360°)" 25.3 NA "" "" "Mostly Cloudy"
"3505" 2015-01-28 "4:00 AM" 2 -2 75 1029.1 10 "North (10°)" 25.3 NA "" "" "Mostly Cloudy"
"3506" 2015-01-28 "4:30 AM" 2 -1 81 1029.1 10 "North (10°)" 25.3 NA "" "" "Mostly Cloudy"
"3507" 2015-01-28 "5:00 AM" 2 -2 75 1029.1 10 "North (10°)" 25.3 NA "" "" "Mostly Cloudy"
"3508" 2015-01-28 "5:30 AM" 2 -1 81 1029.1 10 "North (10°)" 21.6 NA "" "" "Mostly Cloudy"
"3509" 2015-01-28 "6:00 AM" 3 -1 75 1029.1 10 "North (10°)" 21.6 NA "" "" "Mostly Cloudy"
"3510" 2015-01-28 "6:30 AM" 3 -1 75 1029.1 10 "North (10°)" 14.3 NA "" "" "Mostly Cloudy"
"3511" 2015-01-28 "7:00 AM" 3 -1 75 1030.1 10 "North (360°)" 14.3 NA "" "" "Mostly Cloudy"
"3512" 2015-01-28 "7:30 AM" 3 -1 75 1030.1 10 "North (360°)" 14.3 NA "" "" "Mostly Cloudy"
"3513" 2015-01-28 "8:00 AM" 3 -1 75 1030.1 10 "North (360°)" 14.3 NA "" "" "Mostly Cloudy"
"3514" 2015-01-28 "8:30 AM" 3 -1 75 1030.1 10 "North (360°)" 18 NA "" "" "Mostly Cloudy"
"3515" 2015-01-28 "9:00 AM" 3 0 81 1030.1 10 "North (10°)" 21.6 NA "" "" "Mostly Cloudy"
"3516" 2015-01-28 "9:30 AM" 3 0 81 1030.1 10 "NNE (30°)" 21.6 NA "" "" "Mostly Cloudy"
"3517" 2015-01-28 "10:00 AM" 3 0 81 1030.1 10 "NNE (30°)" 18 NA "" "" "Mostly Cloudy"
"3518" 2015-01-28 "10:30 AM" 4 0 75 1030.1 10 "NNE (20°)" 18 NA "" "" "Mostly Cloudy"
"3519" 2015-01-28 "11:00 AM" 4 0 75 1030.1 10 "NNE (20°)" 18 NA "" "" "Mostly Cloudy"
"3520" 2015-01-28 "11:30 AM" 4 0 75 1030.1 10 "NNE (30°)" 21.6 NA "" "" "Mostly Cloudy"
"3521" 2015-01-28 "12:00 PM" 5 0 70 1029.1 10 "NNE (20°)" 21.6 NA "" "" "Scattered Clouds"
"3522" 2015-01-28 "12:30 PM" 5 -1 65 1029.1 10 "NNE (30°)" 21.6 NA "" "" "Scattered Clouds"
"3523" 2015-01-28 "1:00 PM" 5 0 70 1028.1 10 "North (10°)" 18 NA "" "" "Mostly Cloudy"
"3524" 2015-01-28 "1:30 PM" 5 0 70 1028.1 10 "North (360°)" 18 NA "" "" "Mostly Cloudy"
"3525" 2015-01-28 "2:00 PM" 5 0 70 1028.1 10 "North (360°)" 18 NA "" "" "Mostly Cloudy"
"3526" 2015-01-28 "2:30 PM" 5 0 70 1028.1 10 "North (350°)" 18 NA "" "" "Mostly Cloudy"
"3527" 2015-01-28 "3:00 PM" 5 0 70 1028.1 10 "NNE (20°)" 18 NA "" "" "Mostly Cloudy"
"3528" 2015-01-28 "3:30 PM" 6 -1 61 1027.1 10 "NNE (20°)" 18 NA "" "" "Mostly Cloudy"
"3529" 2015-01-28 "4:00 PM" 5 -1 65 1027.1 10 "NNE (30°)" 18 NA "" "" "Mostly Cloudy"
"3530" 2015-01-28 "4:30 PM" 6 -1 61 1027.1 10 "NE (50°)" 18 NA "" "" "Mostly Cloudy"
"3531" 2015-01-28 "5:00 PM" 5 -1 65 1027.1 10 "NE (40°)" 21.6 NA "" "" "Mostly Cloudy"
"3532" 2015-01-28 "5:30 PM" 5 -1 65 1027.1 10 "NE (40°)" 21.6 NA "" "" "Mostly Cloudy"
"3533" 2015-01-28 "6:00 PM" 5 -1 65 1027.1 10 "NE (50°)" 18 NA "" "" "Scattered Clouds"
"3534" 2015-01-28 "6:30 PM" 5 0 70 1027.1 10 "NE (40°)" 18 NA "" "" "Mostly Cloudy"
"3535" 2015-01-28 "7:00 PM" 5 0 70 1027.1 10 "NNE (30°)" 18 NA "" "" "Mostly Cloudy"
"3536" 2015-01-28 "7:30 PM" 5 0 70 1028.1 10 "NE (40°)" 18 NA "" "" "Mostly Cloudy"
"3537" 2015-01-28 "8:00 PM" 5 0 70 1027.1 10 "NE (50°)" 18 NA "" "" "Mostly Cloudy"
"3538" 2015-01-28 "8:30 PM" 5 0 70 1028.1 10 "NE (50°)" 14.3 NA "" "" "Mostly Cloudy"
"3539" 2015-01-28 "9:00 PM" 5 0 70 1028.1 10 "NE (50°)" 18 NA "" "" "Mostly Cloudy"
"3540" 2015-01-28 "9:30 PM" 5 0 70 1028.1 10 "ENE (60°)" 14.3 NA "" "" "Partly Cloudy"
"3541" 2015-01-28 "10:00 PM" 5 0 70 1027.1 10 "ENE (60°)" 14.3 NA "" "Rain" "Light Rain"
"3542" 2015-01-28 "10:30 PM" 5 0 70 1028.1 NA "NE (50°)" 14.3 NA "" "" "Clear"
"3543" 2015-01-28 "11:00 PM" 5 0 70 1028.1 10 "ENE (60°)" 14.3 NA "" "Rain" "Light Rain"
"3544" 2015-01-28 "11:30 PM" 5 0 70 1027.1 NA "NE (50°)" 10.8 NA "" "" "Clear"
"3545" 2015-01-27 "12:00 AM" 8 2 66 1026.1 10 "North (360°)" 14.3 NA "" "" "Mostly Cloudy"
"3546" 2015-01-27 "12:30 AM" 7 3 76 1026.1 10 "North (10°)" 21.6 NA "" "" "Mostly Cloudy"
"3547" 2015-01-27 "1:00 AM" 7 4 81 1026.1 10 "North (10°)" 21.6 NA "" "" "Mostly Cloudy"
"3548" 2015-01-27 "1:30 AM" 7 4 81 1026.1 6.9 "North (10°)" 21.6 NA "" "" "Mostly Cloudy"
"3549" 2015-01-27 "2:00 AM" 7 4 81 1026.1 6.9 "North (10°)" 25.3 NA "" "" "Scattered Clouds"
"3550" 2015-01-27 "2:30 AM" 7 5 87 1026.1 6.9 "North (10°)" 21.6 NA "" "Rain" "Light Rain"
"3551" 2015-01-27 "3:00 AM" 7 5 87 1026.1 6.9 "North (360°)" 18 NA "" "Rain" "Light Rain"
"3552" 2015-01-27 "3:30 AM" 7 5 87 1026.1 6 "North (10°)" 18 NA "" "Rain" "Light Rain"
"3553" 2015-01-27 "4:00 AM" 7 5 87 1026.1 6 "North (360°)" 14.3 NA "" "" "Mostly Cloudy"
"3554" 2015-01-27 "4:30 AM" 6 5 93 1026.1 6 "North (360°)" 14.3 NA "" "Rain" "Light Rain"
"3555" 2015-01-27 "5:00 AM" 7 4 81 1026.1 6.9 "NNE (30°)" 18 NA "" "Rain" "Light Rain"
"3556" 2015-01-27 "5:30 AM" 7 4 81 1026.1 6.9 "NNE (30°)" 21.6 NA "" "" "Scattered Clouds"
"3557" 2015-01-27 "6:00 AM" 7 4 81 1027.1 10 "NNE (20°)" 14.3 NA "" "" "Scattered Clouds"
"3558" 2015-01-27 "6:30 AM" 7 4 81 1027.1 10 "NNE (20°)" 18 NA "" "" "Partly Cloudy"
"3559" 2015-01-27 "7:00 AM" 7 4 81 1027.1 6.9 "NNE (20°)" 18 NA "" "Rain" "Light Rain"
"3560" 2015-01-27 "7:30 AM" 7 4 81 1028.1 6 "North (10°)" 21.6 NA "" "" "Mostly Cloudy"
"3561" 2015-01-27 "8:00 AM" 6 4 87 1028.1 5 "North (10°)" 21.6 NA "" "Rain" "Light Rain"
"3562" 2015-01-27 "8:30 AM" 6 4 87 1028.1 4 "NNE (20°)" 25.3 NA "" "Rain" "Light Rain"
"3563" 2015-01-27 "9:00 AM" 6 4 87 1028.1 3.1 "NNE (30°)" 21.6 NA "" "Rain" "Light Rain"
"3564" 2015-01-27 "9:30 AM" 6 3 81 1028.1 3.1 "NE (40°)" 18 NA "" "" "Overcast"
"3565" 2015-01-27 "10:00 AM" 6 3 81 1028.1 3.1 "NNE (20°)" 21.6 NA "" "" "Overcast"
"3566" 2015-01-27 "10:30 AM" 7 3 76 1028.1 3.5 "NE (40°)" 21.6 NA "" "" "Overcast"
"3567" 2015-01-27 "11:00 AM" 6 2 76 1028.1 5 "NNE (30°)" 25.3 NA "" "" "Mostly Cloudy"
"3568" 2015-01-27 "11:30 AM" 6 1 70 1028.1 6 "NNE (30°)" 28.8 NA "" "" "Mostly Cloudy"
"3569" 2015-01-27 "12:00 PM" 6 2 76 1028.1 6 "NNE (20°)" 28.8 NA "" "" "Mostly Cloudy"
"3570" 2015-01-27 "12:30 PM" 6 1 70 1028.1 6.9 "NNE (20°)" 28.8 NA "" "" "Mostly Cloudy"
"3571" 2015-01-27 "1:00 PM" 6 1 70 1027.1 10 "North (10°)" 28.8 NA "" "" "Mostly Cloudy"
"3572" 2015-01-27 "1:30 PM" 6 1 70 1027.1 10 "NNE (20°)" 25.3 NA "" "" "Mostly Cloudy"
"3573" 2015-01-27 "2:00 PM" 6 0 66 1027.1 10 "NNE (20°)" 25.3 NA "" "" "Mostly Cloudy"
"3574" 2015-01-27 "2:30 PM" 5 0 70 1027.1 10 "North (360°)" 28.8 NA "" "" "Mostly Cloudy"
"3575" 2015-01-27 "3:00 PM" 5 0 70 1028.1 10 "NNE (20°)" 28.8 NA "" "" "Mostly Cloudy"
"3576" 2015-01-27 "3:30 PM" 5 -1 65 1028.1 10 "NNE (20°)" 25.3 NA "" "" "Mostly Cloudy"
"3577" 2015-01-27 "4:00 PM" 4 -1 70 1028.1 10 "North (10°)" 25.3 NA "" "" "Mostly Cloudy"
"3578" 2015-01-27 "4:30 PM" 3 0 81 1028.1 10 "North (10°)" 25.3 NA "" "Rain" "Light Rain"
"3579" 2015-01-27 "5:00 PM" 3 1 87 1028.1 10 "North (10°)" 18 NA "" "" "Mostly Cloudy"
"3580" 2015-01-27 "5:30 PM" 3 0 81 1029.1 10 "NNE (20°)" 25.3 NA "" "" "Mostly Cloudy"
"3581" 2015-01-27 "6:00 PM" 3 0 81 1029.1 10 "NNE (20°)" 21.6 NA "" "" "Mostly Cloudy"
"3582" 2015-01-27 "6:30 PM" 3 0 81 1029.1 10 "NNE (20°)" 21.6 NA "" "Rain" "Light Rain"
"3583" 2015-01-27 "7:00 PM" 3 -1 75 1029.1 10 "NNE (20°)" 21.6 NA "" "" "Mostly Cloudy"
"3584" 2015-01-27 "7:30 PM" 3 -1 75 1029.1 10 "NNE (30°)" 25.3 NA "" "" "Mostly Cloudy"
"3585" 2015-01-27 "8:00 PM" 3 0 81 1029.1 10 "North (360°)" 21.6 NA "" "" "Mostly Cloudy"
"3586" 2015-01-27 "8:30 PM" 2 0 87 1030.1 10 "North (10°)" 21.6 NA "" "" "Mostly Cloudy"
"3587" 2015-01-27 "9:00 PM" 2 -1 81 1030.1 10 "NNE (30°)" 21.6 NA "" "Rain" "Light Rain"
"3588" 2015-01-27 "9:30 PM" 2 0 87 1030.1 6.9 "North (10°)" 18 NA "" "Snow" "Light Snow"
"3589" 2015-01-27 "10:00 PM" 1 0 93 1030.1 6.9 "North (360°)" 10.8 NA "" "Snow" "Light Snow"
"3590" 2015-01-27 "10:30 PM" 1 0 93 1030.1 6.9 "North (360°)" 14.3 NA "" "Snow" "Light Snow"
"3591" 2015-01-27 "11:00 PM" 1 0 93 1029.1 4 "North (360°)" 10.8 NA "" "Snow" "Light Snow"
"3592" 2015-01-27 "11:30 PM" 1 0 93 1029.1 4 "North (350°)" 10.8 NA "" "Snow" "Light Snow"
"3593" 2015-01-26 "12:00 AM" 9 7 87 1022 3.1 "North (360°)" 14.3 NA "" "" "Mostly Cloudy"
"3594" 2015-01-26 "12:30 AM" 9 7 87 1023 3.1 "NW (320°)" 10.8 NA "" "" "Mostly Cloudy"
"3595" 2015-01-26 "1:00 AM" 9 7 87 1023 3.1 "WNW (300°)" 10.8 NA "" "" "Mostly Cloudy"
"3596" 2015-01-26 "1:30 AM" 9 7 87 1023 3.1 "NW (320°)" 14.3 NA "" "" "Mostly Cloudy"
"3597" 2015-01-26 "2:00 AM" 9 7 87 1024 2.7 "NW (320°)" 14.3 NA "" "" "Mostly Cloudy"
"3598" 2015-01-26 "2:30 AM" 9 7 87 1024 2.6 "NNW (340°)" 18 NA "" "" "Mostly Cloudy"
"3599" 2015-01-26 "3:00 AM" 8 7 93 1024 2.6 "NNW (340°)" 14.3 NA "" "" "Mostly Cloudy"
"3600" 2015-01-26 "3:30 AM" 8 7 93 1023 1.9 "NNW (340°)" 10.8 NA "" "" "Mostly Cloudy"
"3601" 2015-01-26 "4:00 AM" 8 7 93 1022 1.9 "North (360°)" 7.2 NA "" "" "Mostly Cloudy"
"3602" 2015-01-26 "4:30 AM" 8 7 93 1023 1.8 "North (10°)" 14.3 NA "" "" "Mostly Cloudy"
"3603" 2015-01-26 "5:00 AM" 8 7 93 1023 1.8 "North (360°)" 14.3 NA "" "" "Mostly Cloudy"
"3604" 2015-01-26 "5:30 AM" 8 7 93 1023 1.9 "NNW (340°)" 14.3 NA "" "" "Mostly Cloudy"
"3605" 2015-01-26 "6:00 AM" 8 6 87 1023 2.7 "North (360°)" 14.3 NA "" "Rain" "Light Rain"
"3606" 2015-01-26 "6:30 AM" 8 6 87 1024 3.1 "North (360°)" 10.8 NA "" "" "Mostly Cloudy"
"3607" 2015-01-26 "7:00 AM" 8 6 87 1023 2.7 "North (10°)" 7.2 NA "" "Rain" "Light Rain"
"3608" 2015-01-26 "7:30 AM" 8 6 87 1024 2.6 "North (360°)" 7.2 NA "" "" "Mostly Cloudy"
"3609" 2015-01-26 "8:00 AM" 8 7 93 1024 3.1 "North (360°)" 7.2 NA "" "Rain" "Light Rain"
"3610" 2015-01-26 "8:30 AM" 8 6 87 1024 3.5 "North (360°)" 7.2 NA "" "" "Mostly Cloudy"
"3611" 2015-01-26 "9:00 AM" 8 6 87 1024 3.5 "North (10°)" 7.2 NA "" "" "Mostly Cloudy"
"3612" 2015-01-26 "9:30 AM" 9 6 82 1024 3.5 "North (10°)" 7.2 NA "" "" "Mostly Cloudy"
"3613" 2015-01-26 "10:00 AM" 9 6 82 1024 3.5 "North (360°)" 10.8 NA "" "" "Scattered Clouds"
"3614" 2015-01-26 "10:30 AM" 10 6 76 1024 3.5 "North (350°)" 7.2 NA "" "" "Scattered Clouds"
"3615" 2015-01-26 "11:00 AM" 10 6 76 1024 4 "North (360°)" 10.8 NA "" "" "Scattered Clouds"
"3616" 2015-01-26 "11:30 AM" 10 6 76 1023 4 "NNE (20°)" 10.8 NA "" "" "Scattered Clouds"
"3617" 2015-01-26 "12:00 PM" 10 6 76 1023 4 "NNE (20°)" 10.8 NA "" "" "Scattered Clouds"
"3618" 2015-01-26 "12:30 PM" 10 6 76 1023 4 "North (350°)" 14.3 NA "" "" "Scattered Clouds"
"3619" 2015-01-26 "1:00 PM" 10 5 71 1023 5 "NNW (340°)" 14.3 NA "" "" "Scattered Clouds"
"3620" 2015-01-26 "1:30 PM" 10 5 71 1022 5 "NNE (20°)" 14.3 NA "" "" "Scattered Clouds"
"3621" 2015-01-26 "2:00 PM" 10 5 71 1022 5 "NNE (20°)" 14.3 NA "" "" "Scattered Clouds"
"3622" 2015-01-26 "2:30 PM" 10 5 71 1022 4 "NNE (30°)" 14.3 NA "" "" "Scattered Clouds"
"3623" 2015-01-26 "3:00 PM" 10 5 71 1022 4 "North (10°)" 14.3 NA "" "" "Scattered Clouds"
"3624" 2015-01-26 "3:30 PM" 10 5 71 1022 5 "NNE (30°)" 14.3 NA "" "" "Scattered Clouds"
"3625" 2015-01-26 "4:00 PM" 10 5 71 1022 5 "North (10°)" 18 NA "" "" "Scattered Clouds"
"3626" 2015-01-26 "4:30 PM" 9 5 76 1023 5 "North (10°)" 18 NA "" "" "Scattered Clouds"
"3627" 2015-01-26 "5:00 PM" 9 5 76 1023 5 "NNE (20°)" 21.6 NA "" "" "Scattered Clouds"
"3628" 2015-01-26 "5:30 PM" 9 5 76 1023 5 "NNE (20°)" 18 NA "" "" "Mostly Cloudy"
"3629" 2015-01-26 "6:00 PM" 9 5 76 1024 5 "North (360°)" 14.3 NA "" "" "Mostly Cloudy"
"3630" 2015-01-26 "6:30 PM" 8 5 81 1024 5 "NE (40°)" 14.3 NA "" "" "Mostly Cloudy"
"3631" 2015-01-26 "7:00 PM" 9 5 76 1024 5 "NE (40°)" 14.3 NA "" "" "Mostly Cloudy"
"3632" 2015-01-26 "7:30 PM" 8 5 81 1024 5 "NE (50°)" 14.3 NA "" "" "Mostly Cloudy"
"3633" 2015-01-26 "8:00 PM" 8 5 81 1025.1 5 "NE (50°)" 14.3 NA "" "" "Mostly Cloudy"
"3634" 2015-01-26 "8:30 PM" 8 5 81 1025.1 6 "NE (40°)" 14.3 NA "" "" "Mostly Cloudy"
"3635" 2015-01-26 "9:00 PM" 8 5 81 1025.1 6 "NE (50°)" 18 NA "" "" "Mostly Cloudy"
"3636" 2015-01-26 "9:30 PM" 8 4 76 1025.1 6.9 "NE (50°)" 14.3 NA "" "" "Mostly Cloudy"
"3637" 2015-01-26 "10:00 PM" 8 4 76 1025.1 6.9 "NNE (30°)" 18 NA "" "" "Mostly Cloudy"
"3638" 2015-01-26 "10:30 PM" 8 3 71 1025.1 6.9 "NE (40°)" 21.6 NA "" "" "Mostly Cloudy"
"3639" 2015-01-26 "11:00 PM" 8 3 71 1025.1 10 "NNE (30°)" 21.6 NA "" "" "Mostly Cloudy"
"3640" 2015-01-26 "11:30 PM" 8 3 71 1025.1 10 "NNE (20°)" 18 NA "" "" "Mostly Cloudy"
"3641" 2015-01-25 "12:00 AM" 11 8 82 1020 NA "SSE (150°)" 18 NA "" "" "Clear"
"3642" 2015-01-25 "12:30 AM" 11 8 82 1020 NA "SSE (150°)" 14.3 NA "" "" "Clear"
"3643" 2015-01-25 "1:00 AM" 11 8 82 1020 NA "SSE (150°)" 18 NA "" "" "Clear"
"3644" 2015-01-25 "1:30 AM" 11 8 82 1020 NA "SSE (150°)" 14.3 NA "" "" "Clear"
"3645" 2015-01-25 "2:00 AM" 11 9 88 1020 NA "SSE (150°)" 14.3 NA "" "" "Clear"
"3646" 2015-01-25 "2:30 AM" 12 9 82 1020 NA "SSE (160°)" 18 NA "" "" "Clear"
"3647" 2015-01-25 "3:00 AM" 12 9 82 1020 NA "SSE (160°)" 18 NA "" "" "Clear"
"3648" 2015-01-25 "3:30 AM" 12 9 82 1020 NA "SSE (160°)" 18 NA "" "" "Clear"
"3649" 2015-01-25 "4:00 AM" 13 9 77 1019 NA "South (170°)" 18 NA "" "" "Clear"
"3650" 2015-01-25 "4:30 AM" 13 9 77 1019 NA "South (170°)" 18 NA "" "" "Clear"
"3651" 2015-01-25 "5:00 AM" 13 9 77 1019 NA "SSE (160°)" 18 NA "" "" "Clear"
"3652" 2015-01-25 "5:30 AM" 13 9 77 1019 NA "South (170°)" 18 NA "" "" "Clear"
"3653" 2015-01-25 "6:00 AM" 13 9 77 1019 NA "SSE (160°)" 18 NA "" "" "Clear"
"3654" 2015-01-25 "6:30 AM" 13 9 77 1019 NA "SSE (150°)" 14.3 NA "" "" "Clear"
"3655" 2015-01-25 "7:00 AM" 13 9 77 1020 NA "SSE (150°)" 10.8 NA "" "" "Clear"
"3656" 2015-01-25 "7:30 AM" 13 10 82 1020 NA "SSE (150°)" 7.2 NA "" "" "Clear"
"3657" 2015-01-25 "8:00 AM" 13 10 82 1020 NA "SSE (160°)" 7.2 NA "" "" "Clear"
"3658" 2015-01-25 "8:30 AM" 13 10 82 1020 NA "South (170°)" 10.8 NA "" "" "Clear"
"3659" 2015-01-25 "9:00 AM" 14 10 77 1020 NA "South (170°)" 10.8 NA "" "" "Clear"
"3660" 2015-01-25 "9:30 AM" 14 10 77 1020 NA "South (170°)" 10.8 NA "" "" "Clear"
"3661" 2015-01-25 "10:00 AM" 14 10 77 1020 NA "South (180°)" 10.8 NA "" "" "Clear"
"3662" 2015-01-25 "10:30 AM" 14 10 77 1021 NA "West (280°)" 10.8 NA "" "" "Clear"
"3663" 2015-01-25 "11:00 AM" 14 10 77 1020 NA "Variable" 3.5 NA "" "" "Clear"
"3664" 2015-01-25 "11:30 AM" 14 10 77 1020 8 "WSW (240°)" 7.2 NA "" "" ""
"3665" 2015-01-25 "12:00 PM" 14 9 72 1020 6 "WNW (290°)" 14.3 NA "" "" ""
"3666" 2015-01-25 "12:30 PM" 14 9 72 1020 5 "WNW (300°)" 18 NA "" "" "Haze"
"3667" 2015-01-25 "1:00 PM" 13 9 77 1020 3.1 "NNW (330°)" 18 NA "" "" "Mist"
"3668" 2015-01-25 "1:30 PM" 12 9 82 1020 2.3 "NNW (330°)" 18 NA "" "Rain" "Light Rain"
"3669" 2015-01-25 "2:00 PM" 12 10 88 1020 1.3 "NNW (330°)" 14.3 NA "" "Rain" "Light Rain"
"3670" 2015-01-25 "2:30 PM" 12 10 88 1019 1.1 "NW (320°)" 10.8 NA "" "Rain" "Light Rain"
"3671" 2015-01-25 "3:00 PM" 12 11 94 1019 1.1 "North (350°)" 10.8 NA "" "" "Partly Cloudy"
"3672" 2015-01-25 "3:30 PM" 13 10 82 1019 1.1 "WNW (300°)" 7.2 NA "" "Rain" "Light Rain"
"3673" 2015-01-25 "4:00 PM" 12 10 88 1020 1.3 "WNW (290°)" 14.3 NA "" "" "Mist"
"3674" 2015-01-25 "4:30 PM" 12 10 88 1020 1.3 "NW (310°)" 14.3 NA "" "" "Mist"
"3675" 2015-01-25 "5:00 PM" 12 9 82 1020 1.3 "NNW (340°)" 18 NA "" "" "Mist"
"3676" 2015-01-25 "5:30 PM" 11 9 88 1021 1.4 "NNW (330°)" 21.6 NA "" "" "Mist"
"3677" 2015-01-25 "6:00 PM" 11 9 88 1021 1.4 "NW (310°)" 14.3 NA "" "" "Mist"
"3678" 2015-01-25 "6:30 PM" 11 9 88 1022 1.4 "NW (320°)" 18 NA "" "" "Mist"
"3679" 2015-01-25 "7:00 PM" 11 9 88 1022 1.3 "NNW (330°)" 14.3 NA "" "" "Partly Cloudy"
"3680" 2015-01-25 "7:30 PM" 10 8 87 1022 1.1 "NNW (330°)" 18 NA "" "" "Scattered Clouds"
"3681" 2015-01-25 "8:00 PM" 10 8 87 1022 1.1 "NNW (340°)" 21.6 NA "" "" "Scattered Clouds"
"3682" 2015-01-25 "8:30 PM" 10 8 87 1022 1.9 "NNW (330°)" 18 NA "" "" "Partly Cloudy"
"3683" 2015-01-25 "9:00 PM" 10 8 87 1022 1.9 "NNW (330°)" 18 NA "" "" "Partly Cloudy"
"3684" 2015-01-25 "9:30 PM" 9 7 87 1023 1.9 "NNW (330°)" 18 NA "" "" "Partly Cloudy"
"3685" 2015-01-25 "10:00 PM" 9 7 87 1023 2.3 "NNW (340°)" 18 NA "" "" "Scattered Clouds"
"3686" 2015-01-25 "10:30 PM" 9 7 87 1023 2.4 "NW (320°)" 14.3 NA "" "" "Mostly Cloudy"
"3687" 2015-01-25 "11:00 PM" 9 7 87 1023 2.6 "NNW (340°)" 14.3 NA "" "" "Mostly Cloudy"
"3688" 2015-01-25 "11:30 PM" 9 7 87 1023 2.7 "NNW (330°)" 14.3 NA "" "" "Mostly Cloudy"
"3689" 2015-01-24 "12:00 AM" 7 4 81 1022 5 "SE (140°)" 10.8 NA "" "" "Mist"
"3690" 2015-01-24 "12:30 AM" 7 4 81 1021 4.5 "SE (140°)" 10.8 NA "" "" "Mist"
"3691" 2015-01-24 "1:00 AM" 7 4 81 1021 4.5 "SE (140°)" 10.8 NA "" "" "Mist"
"3692" 2015-01-24 "1:30 AM" 7 4 81 1021 4.5 "SE (140°)" 10.8 NA "" "" "Mist"
"3693" 2015-01-24 "2:00 AM" 7 4 81 1021 4 "SE (140°)" 10.8 NA "" "" "Mist"
"3694" 2015-01-24 "2:30 AM" 7 4 81 1021 4 "SE (140°)" 10.8 NA "" "" "Mist"
"3695" 2015-01-24 "3:00 AM" 6 4 87 1021 4 "SSE (160°)" 7.2 NA "" "" "Mist"
"3696" 2015-01-24 "3:30 AM" 6 4 87 1021 4 "SSE (150°)" 10.8 NA "" "" "Mist"
"3697" 2015-01-24 "4:00 AM" 6 4 87 1021 4 "SE (130°)" 7.2 NA "" "" "Mist"
"3698" 2015-01-24 "4:30 AM" 7 4 81 1021 4 "SE (130°)" 7.2 NA "" "" "Mist"
"3699" 2015-01-24 "5:00 AM" 7 4 81 1021 4 "SE (140°)" 7.2 NA "" "" "Mist"
"3700" 2015-01-24 "5:30 AM" 7 5 87 1021 4 "SE (140°)" 10.8 NA "" "" "Mist"
"3701" 2015-01-24 "6:00 AM" 6 4 87 1021 4 "SE (140°)" 7.2 NA "" "" "Mist"
"3702" 2015-01-24 "6:30 AM" 6 4 87 1022 3.1 "SSE (160°)" 7.2 NA "" "" "Mist"
"3703" 2015-01-24 "7:00 AM" 6 5 93 1022 3.1 "SE (140°)" 7.2 NA "" "" "Mist"
"3704" 2015-01-24 "7:30 AM" 5 4 93 1022 2.6 "South (170°)" 7.2 NA "" "" "Mist"
"3705" 2015-01-24 "8:00 AM" 7 6 93 1022 2.6 "SE (130°)" 7.2 NA "" "" "Mist"
"3706" 2015-01-24 "8:30 AM" 9 6 82 1022 2.6 "SE (140°)" 10.8 NA "" "" "Mist"
"3707" 2015-01-24 "9:00 AM" 10 5 71 1022 3.1 "ESE (120°)" 10.8 NA "" "" "Mist"
"3708" 2015-01-24 "9:30 AM" 11 6 71 1023 3.1 "South (170°)" 10.8 NA "" "" "Mist"
"3709" 2015-01-24 "10:00 AM" 12 6 67 1023 3.1 "SSE (160°)" 10.8 NA "" "" "Haze"
"3710" 2015-01-24 "10:30 AM" 13 5 58 1022 3.5 "SSE (150°)" 10.8 NA "" "" "Haze"
"3711" 2015-01-24 "11:00 AM" 14 6 59 1022 4 "ESE (120°)" 10.8 NA "" "" "Haze"
"3712" 2015-01-24 "11:30 AM" 15 6 55 1022 4 "South (180°)" 10.8 NA "" "" "Haze"
"3713" 2015-01-24 "12:00 PM" 15 6 55 1022 4 "South (170°)" 7.2 NA "" "" "Haze"
"3714" 2015-01-24 "12:30 PM" 15 6 55 1021 4 "SSE (160°)" 10.8 NA "" "" "Haze"
"3715" 2015-01-24 "1:00 PM" 16 6 52 1021 4 "ESE (120°)" 10.8 NA "" "" "Haze"
"3716" 2015-01-24 "1:30 PM" 16 6 52 1020 4.5 "SE (130°)" 14.3 NA "" "" "Haze"
"3717" 2015-01-24 "2:00 PM" 16 6 52 1020 5 "SE (130°)" 18 NA "" "" "Haze"
"3718" 2015-01-24 "2:30 PM" 16 6 52 1020 5 "SE (130°)" 14.3 NA "" "" "Haze"
"3719" 2015-01-24 "3:00 PM" 16 6 52 1020 6 "ESE (120°)" 18 NA "" "" ""
"3720" 2015-01-24 "3:30 PM" 16 6 52 1020 6 "ESE (120°)" 14.3 NA "" "" ""
"3721" 2015-01-24 "4:00 PM" 15 6 55 1020 6 "SE (140°)" 18 NA "" "" ""
"3722" 2015-01-24 "4:30 PM" 15 6 55 1020 6 "SE (140°)" 18 NA "" "" ""
"3723" 2015-01-24 "5:00 PM" 15 7 59 1020 8 "ESE (120°)" 14.3 NA "" "" ""
"3724" 2015-01-24 "5:30 PM" 14 6 59 1020 6.9 "SE (130°)" 14.3 NA "" "" ""
"3725" 2015-01-24 "6:00 PM" 14 7 63 1021 6.9 "SE (140°)" 14.3 NA "" "" ""
"3726" 2015-01-24 "6:30 PM" 13 7 67 1021 6.9 "SE (140°)" 14.3 NA "" "" ""
"3727" 2015-01-24 "7:00 PM" 13 8 72 1021 6.9 "SE (130°)" 14.3 NA "" "" ""
"3728" 2015-01-24 "7:30 PM" 12 8 77 1021 8 "SE (130°)" 14.3 NA "" "" ""
"3729" 2015-01-24 "8:00 PM" 12 8 77 1021 8 "SE (130°)" 14.3 NA "" "" ""
"3730" 2015-01-24 "8:30 PM" 12 8 77 1021 8 "SE (140°)" 18 NA "" "" ""
"3731" 2015-01-24 "9:00 PM" 12 8 77 1021 NA "SE (140°)" 18 NA "" "" "Clear"
"3732" 2015-01-24 "9:30 PM" 12 8 77 1021 NA "SE (140°)" 21.6 NA "" "" "Clear"
"3733" 2015-01-24 "10:00 PM" 12 8 77 1020 NA "SE (140°)" 21.6 NA "" "" "Clear"
"3734" 2015-01-24 "10:30 PM" 12 8 77 1020 NA "SE (140°)" 21.6 NA "" "" "Clear"
"3735" 2015-01-24 "11:00 PM" 11 8 82 1020 NA "SE (140°)" 18 NA "" "" "Clear"
"3736" 2015-01-24 "11:30 PM" 11 8 82 1020 NA "SSE (150°)" 21.6 NA "" "" "Clear"
"3737" 2015-01-23 "12:00 AM" 3 -1 75 1025.1 5 "Variable" 3.5 NA "" "" "Mist"
"3738" 2015-01-23 "12:30 AM" 4 -1 70 1025.1 5 "NE (50°)" 7.2 NA "" "" "Mist"
"3739" 2015-01-23 "1:00 AM" 3 -1 75 1025.1 5 "Variable" 3.5 NA "" "" "Mist"
"3740" 2015-01-23 "1:30 AM" 1 -1 87 1025.1 5 "West (280°)" 7.2 NA "" "" "Mist"
"3741" 2015-01-23 "2:00 AM" 2 -1 81 1025.1 4 "NW (310°)" 3.5 NA "" "" "Partly Cloudy"
"3742" 2015-01-23 "2:30 AM" 1 -1 87 1025.1 4 "Calm" NA NA "" "" "Mist"
"3743" 2015-01-23 "3:00 AM" 1 -1 87 1025.1 3.5 "SSW (210°)" 3.5 NA "" "" "Mist"
"3744" 2015-01-23 "3:30 AM" 1 -1 87 1025.1 3.5 "South (190°)" 3.5 NA "" "" "Mist"
"3745" 2015-01-23 "4:00 AM" 1 -1 87 1024 3.5 "South (180°)" 3.5 NA "" "" "Mist"
"3746" 2015-01-23 "4:30 AM" 1 -1 87 1024 3.5 "SSW (200°)" 3.5 NA "" "" "Mist"
"3747" 2015-01-23 "5:00 AM" 0 -1 93 1024 2.7 "Calm" NA NA "" "" "Mist"
"3748" 2015-01-23 "5:30 AM" 1 0 93 1024 2.7 "Calm" NA NA "" "" "Mist"
"3749" 2015-01-23 "6:00 AM" 1 0 93 1024 2.6 "SSE (160°)" 3.5 NA "" "" "Mist"
"3750" 2015-01-23 "6:30 AM" 0 -1 93 1025.1 2.6 "Calm" NA NA "" "" "Mist"
"3751" 2015-01-23 "7:00 AM" 0 -1 93 1025.1 1.9 "South (180°)" 3.5 NA "" "" "Mist"
"3752" 2015-01-23 "7:30 AM" 2 0 87 1025.1 2.6 "ESE (110°)" 7.2 NA "" "" "Mist"
"3753" 2015-01-23 "8:00 AM" 3 0 81 1025.1 2.6 "ESE (110°)" 7.2 NA "" "" "Mist"
"3754" 2015-01-23 "8:30 AM" 4 0 75 1025.1 3.1 "SE (140°)" 10.8 NA "" "" "Mist"
"3755" 2015-01-23 "9:00 AM" 5 0 70 1025.1 3.1 "SE (130°)" 10.8 NA "" "" "Mist"
"3756" 2015-01-23 "9:30 AM" 5 0 70 1025.1 3.5 "SE (140°)" 10.8 NA "" "" "Haze"
"3757" 2015-01-23 "10:00 AM" 6 0 66 1025.1 4 "SE (140°)" 14.3 NA "" "" "Haze"
"3758" 2015-01-23 "10:30 AM" 7 0 61 1025.1 4 "SE (140°)" 14.3 NA "" "" "Haze"
"3759" 2015-01-23 "11:00 AM" 7 0 61 1024 4 "SSE (160°)" 14.3 NA "" "" "Haze"
"3760" 2015-01-23 "11:30 AM" 8 0 57 1024 4 "South (180°)" 14.3 NA "" "" "Haze"
"3761" 2015-01-23 "12:00 PM" 9 0 54 1023 4.5 "SSE (150°)" 10.8 NA "" "" "Haze"
"3762" 2015-01-23 "12:30 PM" 10 1 54 1022 4.5 "South (170°)" 14.3 NA "" "" "Haze"
"3763" 2015-01-23 "1:00 PM" 10 1 54 1022 4.5 "South (170°)" 18 NA "" "" "Haze"
"3764" 2015-01-23 "1:30 PM" 10 1 54 1022 4.5 "South (180°)" 14.3 NA "" "" "Haze"
"3765" 2015-01-23 "2:00 PM" 11 1 50 1021 4.5 "South (190°)" 18 NA "" "" "Haze"
"3766" 2015-01-23 "2:30 PM" 10 0 50 1021 5 "South (180°)" 14.3 NA "" "" "Haze"
"3767" 2015-01-23 "3:00 PM" 10 1 54 1021 5 "South (190°)" 10.8 NA "" "" "Haze"
"3768" 2015-01-23 "3:30 PM" 10 1 54 1021 5 "ESE (120°)" 14.3 NA "" "" "Haze"
"3769" 2015-01-23 "4:00 PM" 10 2 58 1021 5 "ESE (110°)" 14.3 NA "" "" "Haze"
"3770" 2015-01-23 "4:30 PM" 10 1 54 1021 4 "SE (130°)" 14.3 NA "" "" "Haze"
"3771" 2015-01-23 "5:00 PM" 9 1 58 1021 4 "SE (130°)" 14.3 NA "" "" "Haze"
"3772" 2015-01-23 "5:30 PM" 8 1 62 1021 3.5 "SE (140°)" 14.3 NA "" "" "Haze"
"3773" 2015-01-23 "6:00 PM" 8 1 62 1021 4 "SE (130°)" 14.3 NA "" "" "Haze"
"3774" 2015-01-23 "6:30 PM" 8 1 62 1021 4.5 "SE (140°)" 14.3 NA "" "" "Haze"
"3775" 2015-01-23 "7:00 PM" 7 2 71 1022 6 "SE (130°)" 14.3 NA "" "" ""
"3776" 2015-01-23 "7:30 PM" 7 2 71 1022 6 "SE (130°)" 18 NA "" "" ""
"3777" 2015-01-23 "8:00 PM" 7 2 71 1022 6 "SE (130°)" 14.3 NA "" "" ""
"3778" 2015-01-23 "8:30 PM" 7 2 71 1022 6 "SE (130°)" 14.3 NA "" "" ""
"3779" 2015-01-23 "9:00 PM" 7 3 76 1022 6 "SE (130°)" 14.3 NA "" "" ""
"3780" 2015-01-23 "9:30 PM" 7 3 76 1021 6 "SE (130°)" 10.8 NA "" "" ""
"3781" 2015-01-23 "10:00 PM" 7 3 76 1022 6 "ESE (120°)" 10.8 NA "" "" ""
"3782" 2015-01-23 "10:30 PM" 7 4 81 1022 6 "SE (140°)" 14.3 NA "" "" ""
"3783" 2015-01-23 "11:00 PM" 7 4 81 1022 5 "SE (130°)" 10.8 NA "" "" "Mist"
"3784" 2015-01-23 "11:30 PM" 7 4 81 1022 5 "SE (130°)" 10.8 NA "" "" "Mist"
"3785" 2015-01-22 "12:00 AM" 7 3 76 1024 5 "NNW (330°)" 14.3 NA "" "" "Mist"
"3786" 2015-01-22 "12:30 AM" 7 1 66 1024 5 "NNW (330°)" 28.8 NA "" "" "Partly Cloudy"
"3787" 2015-01-22 "1:00 AM" 6 0 66 1025.1 6 "NNW (330°)" 32.3 50.4 "" "" ""
"3788" 2015-01-22 "1:30 AM" 5 0 70 1025.1 6 "NW (320°)" 25.3 NA "" "" ""
"3789" 2015-01-22 "2:00 AM" 5 0 70 1025.1 6 "NW (320°)" 18 NA "" "" ""
"3790" 2015-01-22 "2:30 AM" 5 0 70 1025.1 6 "NW (320°)" 18 NA "" "" ""
"3791" 2015-01-22 "3:00 AM" 5 0 70 1025.1 5 "NW (320°)" 21.6 NA "" "" "Haze"
"3792" 2015-01-22 "3:30 AM" 5 0 70 1025.1 5 "NW (320°)" 25.3 NA "" "" "Haze"
"3793" 2015-01-22 "4:00 AM" 4 -1 70 1024 5 "NW (320°)" 25.3 NA "" "" "Haze"
"3794" 2015-01-22 "4:30 AM" 4 -1 70 1024 5 "NW (320°)" 18 NA "" "" "Haze"
"3795" 2015-01-22 "5:00 AM" 4 -1 70 1024 5 "NW (310°)" 21.6 NA "" "" "Haze"
"3796" 2015-01-22 "5:30 AM" 4 0 75 1024 5 "NW (310°)" 21.6 NA "" "" "Mist"
"3797" 2015-01-22 "6:00 AM" 4 0 75 1025.1 5 "NW (310°)" 14.3 NA "" "" "Mist"
"3798" 2015-01-22 "6:30 AM" 4 0 75 1025.1 5 "NW (310°)" 18 NA "" "" "Mist"
"3799" 2015-01-22 "7:00 AM" 4 0 75 1026.1 3.1 "NW (320°)" 21.6 NA "" "" "Mist"
"3800" 2015-01-22 "7:30 AM" 4 0 75 1026.1 2.6 "NNW (330°)" 21.6 NA "" "" "Mist"
"3801" 2015-01-22 "8:00 AM" 4 0 75 1026.1 2.6 "NNW (330°)" 28.8 NA "" "" "Mist"
"3802" 2015-01-22 "8:30 AM" 4 -1 70 1026.1 2.7 "NW (310°)" 21.6 NA "" "" "Mist"
"3803" 2015-01-22 "9:00 AM" 5 0 70 1026.1 3.1 "WNW (300°)" 21.6 NA "" "" "Haze"
"3804" 2015-01-22 "9:30 AM" 6 0 66 1026.1 3.1 "NW (320°)" 21.6 NA "" "" "Haze"
"3805" 2015-01-22 "10:00 AM" 6 0 66 1026.1 3.1 "NNW (330°)" 18 NA "" "" "Haze"
"3806" 2015-01-22 "10:30 AM" 6 0 66 1026.1 3.1 "WNW (300°)" 21.6 NA "" "" "Haze"
"3807" 2015-01-22 "11:00 AM" 7 1 66 1026.1 3.1 "NNW (330°)" 18 NA "" "" "Haze"
"3808" 2015-01-22 "11:30 AM" 7 1 66 1026.1 3.5 "NW (320°)" 18 NA "" "" "Haze"
"3809" 2015-01-22 "12:00 PM" 7 1 66 1025.1 4 "NW (320°)" 14.3 NA "" "" "Haze"
"3810" 2015-01-22 "12:30 PM" 7 1 66 1025.1 5 "NNW (340°)" 10.8 NA "" "" "Haze"
"3811" 2015-01-22 "1:00 PM" 7 1 66 1025.1 5 "NW (320°)" 14.3 NA "" "" "Haze"
"3812" 2015-01-22 "1:30 PM" 7 1 66 1024 6 "NNW (330°)" 18 NA "" "" "Mostly Cloudy"
"3813" 2015-01-22 "2:00 PM" 7 1 66 1024 5 "NW (320°)" 18 NA "" "" "Haze"
"3814" 2015-01-22 "2:30 PM" 7 1 66 1024 4 "NW (310°)" 21.6 NA "" "" "Haze"
"3815" 2015-01-22 "3:00 PM" 7 1 66 1025.1 4 "NW (320°)" 18 NA "" "" "Haze"
"3816" 2015-01-22 "3:30 PM" 7 1 66 1025.1 4 "NNW (330°)" 14.3 NA "" "" "Haze"
"3817" 2015-01-22 "4:00 PM" 7 1 66 1025.1 5 "NNW (330°)" 18 NA "" "" "Haze"
"3818" 2015-01-22 "4:30 PM" 7 1 66 1025.1 4 "NW (310°)" 18 NA "" "" "Haze"
"3819" 2015-01-22 "5:00 PM" 7 1 66 1025.1 3.1 "NNW (330°)" 21.6 NA "" "" "Haze"
"3820" 2015-01-22 "5:30 PM" 6 1 70 1025.1 3.1 "NNW (340°)" 18 NA "" "" "Haze"
"3821" 2015-01-22 "6:00 PM" 6 0 66 1026.1 4 "NNW (340°)" 18 NA "" "" "Haze"
"3822" 2015-01-22 "6:30 PM" 6 0 66 1026.1 5 "NNW (340°)" 14.3 NA "" "" "Haze"
"3823" 2015-01-22 "7:00 PM" 5 0 70 1026.1 5 "NW (320°)" 14.3 NA "" "" "Haze"
"3824" 2015-01-22 "7:30 PM" 5 0 70 1026.1 5 "North (350°)" 14.3 NA "" "" "Haze"
"3825" 2015-01-22 "8:00 PM" 4 0 75 1026.1 5 "NNW (340°)" 14.3 NA "" "" "Haze"
"3826" 2015-01-22 "8:30 PM" 4 0 75 1026.1 5 "NNW (340°)" 10.8 NA "" "" "Haze"
"3827" 2015-01-22 "9:00 PM" 3 -1 75 1026.1 4.5 "North (350°)" 10.8 NA "" "" "Mist"
"3828" 2015-01-22 "9:30 PM" 4 0 75 1026.1 4.5 "North (350°)" 10.8 NA "" "" "Mist"
"3829" 2015-01-22 "10:00 PM" 3 -1 75 1026.1 4.5 "North (10°)" 7.2 NA "" "" "Mist"
"3830" 2015-01-22 "10:30 PM" 3 -1 75 1026.1 4 "North (360°)" 7.2 NA "" "" "Mist"
"3831" 2015-01-22 "11:00 PM" 3 -1 75 1026.1 5 "North (10°)" 3.5 NA "" "" "Mist"
"3832" 2015-01-22 "11:30 PM" 3 -1 75 1026.1 5 "Calm" NA NA "" "" "Mist"
"3833" 2015-01-21 "12:00 AM" 9 6 82 1022 NA "South (170°)" 18 NA "" "" "Clear"
"3834" 2015-01-21 "12:30 AM" 9 6 82 1022 NA "South (180°)" 10.8 NA "" "" "Clear"
"3835" 2015-01-21 "1:00 AM" 9 7 87 1022 10 "South (180°)" 14.3 NA "" "Rain" "Light Rain"
"3836" 2015-01-21 "1:30 AM" 9 7 87 1022 10 "SSE (150°)" 14.3 NA "" "Rain" "Light Rain"
"3837" 2015-01-21 "2:00 AM" 9 7 87 1022 NA "South (190°)" 10.8 NA "" "" "Clear"
"3838" 2015-01-21 "2:30 AM" 8 7 93 1022 NA "SSW (200°)" 10.8 NA "" "" "Clear"
"3839" 2015-01-21 "3:00 AM" 8 6 87 1022 NA "SSW (210°)" 10.8 NA "" "" "Clear"
"3840" 2015-01-21 "3:30 AM" 7 5 87 1021 NA "SSW (200°)" 7.2 NA "" "" "Clear"
"3841" 2015-01-21 "4:00 AM" 7 6 93 1021 NA "South (170°)" 7.2 NA "" "" "Clear"
"3842" 2015-01-21 "4:30 AM" 6 5 93 1021 NA "South (170°)" 10.8 NA "" "" "Clear"
"3843" 2015-01-21 "5:00 AM" 6 5 93 1021 NA "South (190°)" 7.2 NA "" "" "Clear"
"3844" 2015-01-21 "5:30 AM" 6 5 93 1021 NA "South (190°)" 7.2 NA "" "" "Clear"
"3845" 2015-01-21 "6:00 AM" 6 5 93 1021 NA "SW (230°)" 7.2 NA "" "" "Clear"
"3846" 2015-01-21 "6:30 AM" 6 5 93 1021 NA "SSW (200°)" 7.2 NA "" "" "Clear"
"3847" 2015-01-21 "7:00 AM" 6 5 93 1021 6 "SSW (210°)" 7.2 NA "" "" ""
"3848" 2015-01-21 "7:30 AM" 6 5 93 1021 5 "SSW (200°)" 7.2 NA "" "" "Mist"
"3849" 2015-01-21 "8:00 AM" 7 6 93 1022 5 "SW (230°)" 3.5 NA "" "" "Mist"
"3850" 2015-01-21 "8:30 AM" 8 6 87 1022 3.1 "WSW (250°)" 10.8 NA "" "" "Mist"
"3851" 2015-01-21 "9:00 AM" 9 7 87 1022 3.1 "WSW (240°)" 14.3 NA "" "" "Mist"
"3852" 2015-01-21 "9:30 AM" 10 6 76 1021 3.1 "SW (230°)" 10.8 NA "" "" "Mist"
"3853" 2015-01-21 "10:00 AM" 11 6 71 1021 3.5 "WSW (240°)" 10.8 NA "" "" "Mist"
"3854" 2015-01-21 "10:30 AM" 12 5 62 1021 4 "West (270°)" 10.8 NA "" "" "Haze"
"3855" 2015-01-21 "11:00 AM" 14 4 51 1021 6 "West (270°)" 14.3 NA "" "" ""
"3856" 2015-01-21 "11:30 AM" 14 3 48 1021 6.9 "West (280°)" 21.6 NA "" "" ""
"3857" 2015-01-21 "12:00 PM" 14 3 48 1020 6.9 "West (270°)" 18 NA "" "" ""
"3858" 2015-01-21 "12:30 PM" 14 3 48 1020 6.9 "West (270°)" 18 NA "" "" ""
"3859" 2015-01-21 "1:00 PM" 15 2 42 1019 6.9 "West (270°)" 21.6 NA "" "" ""
"3860" 2015-01-21 "1:30 PM" 15 2 42 1019 6.9 "West (280°)" 18 NA "" "" ""
"3861" 2015-01-21 "2:00 PM" 15 1 39 1019 6.9 "West (280°)" 21.6 NA "" "" ""
"3862" 2015-01-21 "2:30 PM" 15 1 39 1017.9 6.9 "West (280°)" 21.6 NA "" "" ""
"3863" 2015-01-21 "3:00 PM" 15 1 39 1019 6.9 "West (280°)" 21.6 NA "" "" ""
"3864" 2015-01-21 "3:30 PM" 15 0 36 1019 6.9 "West (270°)" 21.6 NA "" "" ""
"3865" 2015-01-21 "4:00 PM" 14 0 38 1019 6 "WNW (290°)" 18 NA "" "" ""
"3866" 2015-01-21 "4:30 PM" 14 1 41 1020 6 "West (280°)" 18 NA "" "" ""
"3867" 2015-01-21 "5:00 PM" 13 1 44 1020 5 "West (280°)" 14.3 NA "" "" "Haze"
"3868" 2015-01-21 "5:30 PM" 13 1 44 1020 5 "West (280°)" 14.3 NA "" "" "Haze"
"3869" 2015-01-21 "6:00 PM" 12 2 51 1020 5 "West (270°)" 18 NA "" "" "Haze"
"3870" 2015-01-21 "6:30 PM" 12 1 47 1021 5 "West (270°)" 21.6 NA "" "" "Haze"
"3871" 2015-01-21 "7:00 PM" 12 -1 41 1021 6 "West (280°)" 25.3 NA "" "" ""
"3872" 2015-01-21 "7:30 PM" 12 0 44 1022 5 "WNW (300°)" 25.3 NA "" "" "Haze"
"3873" 2015-01-21 "8:00 PM" 11 2 54 1022 5 "NW (320°)" 25.3 NA "" "" "Haze"
"3874" 2015-01-21 "8:30 PM" 10 2 58 1022 4 "NW (320°)" 21.6 NA "" "" "Haze"
"3875" 2015-01-21 "9:00 PM" 10 2 58 1023 4 "NW (310°)" 25.3 NA "" "" "Haze"
"3876" 2015-01-21 "9:30 PM" 9 2 62 1023 4 "NW (310°)" 25.3 NA "" "" "Haze"
"3877" 2015-01-21 "10:00 PM" 8 2 66 1023 4 "NNW (330°)" 32.3 54.1 "" "" "Haze"
"3878" 2015-01-21 "10:30 PM" 7 3 76 1024 5 "NNW (330°)" 28.8 NA "" "" "Mist"
"3879" 2015-01-21 "11:00 PM" 7 2 71 1024 5 "NW (320°)" 28.8 NA "" "" "Mist"
"3880" 2015-01-21 "11:30 PM" 7 2 71 1024 5 "NW (310°)" 21.6 NA "" "" "Mist"
"3881" 2015-01-20 "12:00 AM" 6 -1 61 1028.1 NA "East (90°)" 14.3 NA "" "" "Clear"
"3882" 2015-01-20 "12:30 AM" 6 -1 61 1027.1 NA "East (90°)" 14.3 NA "" "" "Clear"
"3883" 2015-01-20 "1:00 AM" 6 0 66 1027.1 NA "East (90°)" 10.8 NA "" "" "Clear"
"3884" 2015-01-20 "1:30 AM" 6 0 66 1027.1 NA "East (90°)" 7.2 NA "" "" "Clear"
"3885" 2015-01-20 "2:00 AM" 6 0 66 1026.1 NA "East (90°)" 10.8 NA "" "" "Clear"
"3886" 2015-01-20 "2:30 AM" 6 0 66 1026.1 NA "East (90°)" 3.5 NA "" "" "Clear"
"3887" 2015-01-20 "3:00 AM" 6 0 66 1027.1 NA "Variable" 3.5 NA "" "" "Clear"
"3888" 2015-01-20 "3:30 AM" 5 0 70 1027.1 NA "ESE (110°)" 7.2 NA "" "" "Clear"
"3889" 2015-01-20 "4:00 AM" 6 0 66 1026.1 NA "East (80°)" 7.2 NA "" "" "Clear"
"3890" 2015-01-20 "4:30 AM" 5 0 70 1026.1 NA "East (100°)" 7.2 NA "" "" "Clear"
"3891" 2015-01-20 "5:00 AM" 5 0 70 1027.1 NA "Variable" 3.5 NA "" "" "Clear"
"3892" 2015-01-20 "5:30 AM" 6 1 70 1027.1 NA "East (100°)" 10.8 NA "" "" "Clear"
"3893" 2015-01-20 "6:00 AM" 6 1 70 1026.1 NA "ESE (110°)" 14.3 NA "" "" "Clear"
"3894" 2015-01-20 "6:30 AM" 6 1 70 1026.1 NA "East (100°)" 10.8 NA "" "" "Clear"
"3895" 2015-01-20 "7:00 AM" 6 1 70 1026.1 NA "East (100°)" 10.8 NA "" "" "Clear"
"3896" 2015-01-20 "7:30 AM" 7 1 66 1026.1 NA "ESE (110°)" 10.8 NA "" "" "Clear"
"3897" 2015-01-20 "8:00 AM" 7 1 66 1027.1 NA "ESE (110°)" 10.8 NA "" "" "Clear"
"3898" 2015-01-20 "8:30 AM" 7 2 71 1027.1 NA "ESE (120°)" 14.3 NA "" "" "Clear"
"3899" 2015-01-20 "9:00 AM" 8 2 66 1026.1 NA "ESE (120°)" 18 NA "" "" "Clear"
"3900" 2015-01-20 "9:30 AM" 8 2 66 1027.1 NA "ESE (120°)" 21.6 NA "" "" "Clear"
"3901" 2015-01-20 "10:00 AM" 8 2 66 1026.1 NA "SE (130°)" 21.6 NA "" "" "Clear"
"3902" 2015-01-20 "10:30 AM" 9 2 62 1026.1 NA "ESE (120°)" 21.6 NA "" "" "Clear"
"3903" 2015-01-20 "11:00 AM" 9 3 66 1026.1 NA "SE (140°)" 18 NA "" "" "Clear"
"3904" 2015-01-20 "11:30 AM" 10 3 62 1025.1 NA "SSE (160°)" 21.6 NA "" "" "Clear"
"3905" 2015-01-20 "12:00 PM" 10 3 62 1024 NA "SSE (150°)" 21.6 NA "" "" "Clear"
"3906" 2015-01-20 "12:30 PM" 11 2 54 1024 NA "SSE (160°)" 21.6 NA "" "" "Clear"
"3907" 2015-01-20 "1:00 PM" 11 3 58 1023 NA "SSE (160°)" 21.6 NA "" "" "Clear"
"3908" 2015-01-20 "1:30 PM" 11 3 58 1023 NA "SSE (160°)" 18 NA "" "" "Clear"
"3909" 2015-01-20 "2:00 PM" 11 3 58 1022 NA "SSE (160°)" 18 NA "" "" "Clear"
"3910" 2015-01-20 "2:30 PM" 11 2 54 1021 NA "SE (140°)" 21.6 NA "" "" "Clear"
"3911" 2015-01-20 "3:00 PM" 11 3 58 1021 NA "SE (140°)" 21.6 NA "" "" "Clear"
"3912" 2015-01-20 "3:30 PM" 11 3 58 1021 NA "SSE (160°)" 21.6 NA "" "" "Clear"
"3913" 2015-01-20 "4:00 PM" 11 3 58 1021 NA "SSE (150°)" 18 NA "" "" "Clear"
"3914" 2015-01-20 "4:30 PM" 11 3 58 1022 NA "SSE (150°)" 18 NA "" "" "Clear"
"3915" 2015-01-20 "5:00 PM" 10 4 66 1022 NA "ESE (120°)" 14.3 NA "" "" "Clear"
"3916" 2015-01-20 "5:30 PM" 10 4 66 1022 NA "SE (130°)" 14.3 NA "" "" "Clear"
"3917" 2015-01-20 "6:00 PM" 10 4 66 1022 NA "SE (130°)" 18 NA "" "" "Clear"
"3918" 2015-01-20 "6:30 PM" 10 4 66 1022 NA "SE (130°)" 18 NA "" "" "Clear"
"3919" 2015-01-20 "7:00 PM" 10 4 66 1022 NA "SE (130°)" 18 NA "" "" "Clear"
"3920" 2015-01-20 "7:30 PM" 10 4 66 1022 NA "ESE (120°)" 10.8 NA "" "" "Clear"
"3921" 2015-01-20 "8:00 PM" 10 4 66 1022 NA "SE (130°)" 18 NA "" "" "Clear"
"3922" 2015-01-20 "8:30 PM" 10 5 71 1022 NA "SE (140°)" 14.3 NA "" "" "Clear"
"3923" 2015-01-20 "9:00 PM" 10 5 71 1022 NA "SSE (150°)" 18 NA "" "" "Clear"
"3924" 2015-01-20 "9:30 PM" 10 5 71 1022 NA "SSE (150°)" 18 NA "" "" "Clear"
"3925" 2015-01-20 "10:00 PM" 9 5 76 1022 NA "SSE (160°)" 14.3 NA "" "" "Clear"
"3926" 2015-01-20 "10:30 PM" 9 5 76 1023 NA "South (170°)" 14.3 NA "" "" "Clear"
"3927" 2015-01-20 "11:00 PM" 9 6 82 1022 NA "SSE (160°)" 21.6 NA "" "" "Clear"
"3928" 2015-01-19 "12:00 AM" 4 0 75 1027.1 5 "West (260°)" 10.8 NA "" "" "Mist"
"3929" 2015-01-19 "12:30 AM" 5 0 70 1027.1 5 "West (260°)" 10.8 NA "" "" "Haze"
"3930" 2015-01-19 "1:00 AM" 4 0 75 1027.1 5 "WSW (240°)" 7.2 NA "" "" "Mist"
"3931" 2015-01-19 "1:30 AM" 4 0 75 1027.1 5 "West (260°)" 10.8 NA "" "" "Mist"
"3932" 2015-01-19 "2:00 AM" 3 0 81 1028.1 5 "WSW (250°)" 7.2 NA "" "" "Mist"
"3933" 2015-01-19 "2:30 AM" 3 0 81 1028.1 5 "WSW (240°)" 7.2 NA "" "" "Mist"
"3934" 2015-01-19 "3:00 AM" 3 0 81 1028.1 5 "Variable" 3.5 NA "" "" "Mist"
"3935" 2015-01-19 "3:30 AM" 3 0 81 1027.1 4.5 "Variable" 3.5 NA "" "" "Mist"
"3936" 2015-01-19 "4:00 AM" 2 0 87 1027.1 4.5 "WSW (240°)" 7.2 NA "" "" "Mist"
"3937" 2015-01-19 "4:30 AM" 2 0 87 1028.1 4 "West (280°)" 3.5 NA "" "" "Mist"
"3938" 2015-01-19 "5:00 AM" 3 0 81 1027.1 4 "Calm" NA NA "" "" "Mist"
"3939" 2015-01-19 "5:30 AM" 3 0 81 1028.1 4 "West (260°)" 3.5 NA "" "" "Mist"
"3940" 2015-01-19 "6:00 AM" 3 0 81 1028.1 4 "Variable" 3.5 NA "" "" "Mist"
"3941" 2015-01-19 "6:30 AM" 2 -1 81 1029.1 4 "Variable" 3.5 NA "" "" "Mist"
"3942" 2015-01-19 "7:00 AM" 2 -1 81 1029.1 3.5 "Variable" 3.5 NA "" "" "Mist"
"3943" 2015-01-19 "7:30 AM" 4 -1 70 1029.1 3.5 "WNW (290°)" 7.2 NA "" "" "Mist"
"3944" 2015-01-19 "8:00 AM" 5 0 70 1029.1 3.5 "NW (310°)" 7.2 NA "" "" "Haze"
"3945" 2015-01-19 "8:30 AM" 6 1 70 1029.1 3.5 "Variable" 3.5 NA "" "" "Haze"
"3946" 2015-01-19 "9:00 AM" 7 -1 57 1029.1 3.5 "NNW (340°)" 14.3 NA "" "" "Haze"
"3947" 2015-01-19 "9:30 AM" 8 -1 53 1030.1 3.5 "NNW (330°)" 18 NA "" "" "Haze"
"3948" 2015-01-19 "10:00 AM" 9 -2 46 1030.1 4 "NNW (340°)" 18 NA "" "" "Haze"
"3949" 2015-01-19 "10:30 AM" 10 -4 37 1029.1 5 "North (350°)" 14.3 NA "" "" "Haze"
"3950" 2015-01-19 "11:00 AM" 11 -4 35 1029.1 6 "North (350°)" 14.3 NA "" "" ""
"3951" 2015-01-19 "11:30 AM" 11 -7 28 1029.1 8 "NNE (20°)" 14.3 NA "" "" ""
"3952" 2015-01-19 "12:00 PM" 11 -8 26 1029.1 8 "NNE (20°)" 14.3 NA "" "" ""
"3953" 2015-01-19 "12:30 PM" 11 -7 28 1028.1 NA "NNW (340°)" 10.8 NA "" "" "Clear"
"3954" 2015-01-19 "1:00 PM" 12 -7 26 1028.1 NA "North (350°)" 10.8 NA "" "" "Clear"
"3955" 2015-01-19 "1:30 PM" 12 -7 26 1028.1 NA "Variable" 14.3 NA "" "" "Clear"
"3956" 2015-01-19 "2:00 PM" 12 -7 26 1028.1 NA "Variable" 10.8 NA "" "" "Clear"
"3957" 2015-01-19 "2:30 PM" 12 -8 24 1027.1 NA "NNE (30°)" 14.3 NA "" "" "Clear"
"3958" 2015-01-19 "3:00 PM" 12 -8 24 1027.1 NA "North (360°)" 10.8 NA "" "" "Clear"
"3959" 2015-01-19 "3:30 PM" 12 -8 24 1027.1 NA "North (360°)" 14.3 NA "" "" "Clear"
"3960" 2015-01-19 "4:00 PM" 11 -9 24 1027.1 NA "NNW (340°)" 10.8 NA "" "" "Clear"
"3961" 2015-01-19 "4:30 PM" 10 -9 26 1028.1 NA "NNE (30°)" 10.8 NA "" "" "Clear"
"3962" 2015-01-19 "5:00 PM" 10 -9 26 1028.1 NA "NE (40°)" 10.8 NA "" "" "Clear"
"3963" 2015-01-19 "5:30 PM" 9 -9 27 1028.1 NA "NE (40°)" 10.8 NA "" "" "Clear"
"3964" 2015-01-19 "6:00 PM" 9 -9 27 1028.1 NA "NE (50°)" 7.2 NA "" "" "Clear"
"3965" 2015-01-19 "6:30 PM" 9 -9 27 1028.1 NA "NE (40°)" 10.8 NA "" "" "Clear"
"3966" 2015-01-19 "7:00 PM" 8 -2 50 1028.1 NA "ESE (120°)" 14.3 NA "" "" "Clear"
"3967" 2015-01-19 "7:30 PM" 8 -1 53 1028.1 NA "ESE (110°)" 7.2 NA "" "" "Clear"
"3968" 2015-01-19 "8:00 PM" 8 -3 46 1028.1 NA "ENE (60°)" 10.8 NA "" "" "Clear"
"3969" 2015-01-19 "8:30 PM" 7 -3 49 1028.1 NA "ENE (70°)" 7.2 NA "" "" "Clear"
"3970" 2015-01-19 "9:00 PM" 7 -3 49 1028.1 NA "ENE (70°)" 7.2 NA "" "" "Clear"
"3971" 2015-01-19 "9:30 PM" 7 -2 53 1028.1 NA "ENE (60°)" 10.8 NA "" "" "Clear"
"3972" 2015-01-19 "10:00 PM" 7 -3 49 1028.1 NA "ENE (70°)" 7.2 NA "" "" "Clear"
"3973" 2015-01-19 "10:30 PM" 7 -3 49 1028.1 NA "ESE (110°)" 10.8 NA "" "" "Clear"
"3974" 2015-01-19 "11:00 PM" 6 -1 61 1028.1 NA "ESE (120°)" 7.2 NA "" "" "Clear"
"3975" 2015-01-19 "11:30 PM" 6 -1 61 1028.1 NA "SE (140°)" 7.2 NA "" "" "Clear"
"3976" 2015-01-18 "12:00 AM" 3 -3 65 1031.2 NA "Variable" 3.5 NA "" "" "Clear"
"3977" 2015-01-18 "12:30 AM" 3 -3 65 1031.2 NA "Calm" NA NA "" "" "Clear"
"3978" 2015-01-18 "1:00 AM" 3 -3 65 1031.2 NA "North (10°)" 7.2 NA "" "" "Clear"
"3979" 2015-01-18 "1:30 AM" 3 -3 65 1031.2 NA "North (10°)" 3.5 NA "" "" "Clear"
"3980" 2015-01-18 "2:00 AM" 3 -2 70 1030.1 NA "North (350°)" 3.5 NA "" "" "Clear"
"3981" 2015-01-18 "2:30 AM" 2 -2 75 1030.1 NA "Calm" NA NA "" "" "Clear"
"3982" 2015-01-18 "3:00 AM" 1 -2 81 1029.1 NA "North (360°)" 7.2 NA "" "" "Clear"
"3983" 2015-01-18 "3:30 AM" 2 -1 81 1029.1 NA "NNE (30°)" 7.2 NA "" "" "Clear"
"3984" 2015-01-18 "4:00 AM" 2 -2 75 1029.1 NA "Calm" NA NA "" "" "Clear"
"3985" 2015-01-18 "4:30 AM" 1 -2 81 1029.1 NA "Variable" 3.5 NA "" "" "Clear"
"3986" 2015-01-18 "5:00 AM" 1 -2 81 1029.1 NA "Calm" NA NA "" "" "Clear"
"3987" 2015-01-18 "5:30 AM" 1 -2 81 1029.1 NA "South (170°)" 3.5 NA "" "" "Clear"
"3988" 2015-01-18 "6:00 AM" 1 -2 81 1028.1 NA "Calm" NA NA "" "" "Clear"
"3989" 2015-01-18 "6:30 AM" 1 -2 81 1028.1 NA "Calm" NA NA "" "" "Clear"
"3990" 2015-01-18 "7:00 AM" 2 0 87 1028.1 NA "SSW (210°)" 3.5 NA "" "" "Clear"
"3991" 2015-01-18 "7:30 AM" 3 0 81 1028.1 NA "SSE (150°)" 10.8 NA "" "" "Clear"
"3992" 2015-01-18 "8:00 AM" 4 0 75 1028.1 NA "SSE (150°)" 7.2 NA "" "" "Clear"
"3993" 2015-01-18 "8:30 AM" 5 0 70 1028.1 NA "South (180°)" 7.2 NA "" "" "Clear"
"3994" 2015-01-18 "9:00 AM" 5 0 70 1029.1 NA "SSW (210°)" 10.8 NA "" "" "Clear"
"3995" 2015-01-18 "9:30 AM" 6 0 66 1029.1 NA "SSW (200°)" 14.3 NA "" "" "Clear"
"3996" 2015-01-18 "10:00 AM" 6 0 66 1028.1 NA "SW (220°)" 10.8 NA "" "" "Clear"
"3997" 2015-01-18 "10:30 AM" 7 0 61 1028.1 NA "WSW (240°)" 14.3 NA "" "" "Clear"
"3998" 2015-01-18 "11:00 AM" 8 0 57 1027.1 6 "SW (230°)" 18 NA "" "" ""
"3999" 2015-01-18 "11:30 AM" 8 1 62 1027.1 4 "SW (230°)" 14.3 NA "" "" "Haze"
"4000" 2015-01-18 "12:00 PM" 8 0 57 1026.1 3.1 "WSW (250°)" 21.6 NA "" "" "Haze"
"4001" 2015-01-18 "12:30 PM" 8 1 62 1026.1 2.7 "WSW (250°)" 21.6 NA "" "" "Haze"
"4002" 2015-01-18 "1:00 PM" 8 0 57 1025.1 2.7 "WSW (250°)" 18 NA "" "" "Haze"
"4003" 2015-01-18 "1:30 PM" 9 1 58 1024 3.1 "West (270°)" 21.6 NA "" "" "Haze"
"4004" 2015-01-18 "2:00 PM" 9 -1 50 1024 4 "West (270°)" 25.3 NA "" "" "Haze"
"4005" 2015-01-18 "2:30 PM" 9 -2 46 1024 4 "West (280°)" 25.3 NA "" "" "Haze"
"4006" 2015-01-18 "3:00 PM" 10 -1 47 1024 4.5 "West (270°)" 21.6 NA "" "" "Haze"
"4007" 2015-01-18 "3:30 PM" 9 -2 46 1024 5 "West (280°)" 25.3 NA "" "" "Haze"
"4008" 2015-01-18 "4:00 PM" 9 -2 46 1024 5 "West (270°)" 18 NA "" "" "Haze"
"4009" 2015-01-18 "4:30 PM" 9 -2 46 1024 5 "West (270°)" 14.3 NA "" "" "Haze"
"4010" 2015-01-18 "5:00 PM" 9 -2 46 1024 5 "West (280°)" 14.3 NA "" "" "Haze"
"4011" 2015-01-18 "5:30 PM" 9 -3 43 1025.1 5 "West (280°)" 21.6 NA "" "" "Haze"
"4012" 2015-01-18 "6:00 PM" 9 -2 46 1025.1 6.9 "West (280°)" 18 NA "" "" ""
"4013" 2015-01-18 "6:30 PM" 8 -2 50 1025.1 6.9 "WNW (290°)" 14.3 NA "" "" ""
"4014" 2015-01-18 "7:00 PM" 8 -2 50 1025.1 6.9 "West (280°)" 14.3 NA "" "" ""
"4015" 2015-01-18 "7:30 PM" 8 -1 53 1026.1 6 "West (270°)" 10.8 NA "" "" ""
"4016" 2015-01-18 "8:00 PM" 7 -1 57 1026.1 6 "WSW (240°)" 7.2 NA "" "" ""
"4017" 2015-01-18 "8:30 PM" 7 -1 57 1026.1 5 "WSW (250°)" 10.8 NA "" "" "Haze"
"4018" 2015-01-18 "9:00 PM" 7 0 61 1027.1 5 "WSW (250°)" 10.8 NA "" "" "Haze"
"4019" 2015-01-18 "9:30 PM" 7 0 61 1027.1 5 "West (270°)" 10.8 NA "" "" "Haze"
"4020" 2015-01-18 "10:00 PM" 5 0 70 1027.1 5 "WSW (240°)" 7.2 NA "" "" "Haze"
"4021" 2015-01-18 "10:30 PM" 5 0 70 1027.1 5 "WSW (240°)" 7.2 NA "" "" "Haze"
"4022" 2015-01-18 "11:00 PM" 5 0 70 1028.1 5 "WSW (250°)" 7.2 NA "" "" "Haze"
"4023" 2015-01-18 "11:30 PM" 3 0 81 1027.1 5 "SW (230°)" 7.2 NA "" "" "Mist"
"4024" 2015-01-17 "12:00 AM" 5 0 70 1031.2 4 "NW (320°)" 14.3 NA "" "" "Mist"
"4025" 2015-01-17 "12:30 AM" 4 0 75 1031.2 3.1 "NW (320°)" 10.8 NA "" "" "Mist"
"4026" 2015-01-17 "1:00 AM" 4 0 75 1031.2 3.1 "WNW (290°)" 7.2 NA "" "" "Mist"
"4027" 2015-01-17 "1:30 AM" 4 0 75 1031.2 3.1 "WNW (290°)" 10.8 NA "" "" "Mist"
"4028" 2015-01-17 "2:00 AM" 4 0 75 1031.2 3.1 "NW (310°)" 7.2 NA "" "" "Mist"
"4029" 2015-01-17 "2:30 AM" 4 1 81 1031.2 2.6 "North (350°)" 7.2 NA "" "" "Mist"
"4030" 2015-01-17 "3:00 AM" 4 1 81 1031.2 2.6 "North (360°)" 7.2 NA "" "" "Mist"
"4031" 2015-01-17 "3:30 AM" 4 1 81 1032.2 2.6 "North (360°)" 14.3 NA "" "" "Mist"
"4032" 2015-01-17 "4:00 AM" 4 1 81 1032.2 2.6 "North (360°)" 14.3 NA "" "" "Mist"
"4033" 2015-01-17 "4:30 AM" 4 0 75 1032.2 2.7 "North (350°)" 18 NA "" "" "Mist"
"4034" 2015-01-17 "5:00 AM" 4 -1 70 1032.2 2.7 "North (10°)" 21.6 NA "" "" "Haze"
"4035" 2015-01-17 "5:30 AM" 3 -3 65 1032.2 6 "North (10°)" 25.3 NA "" "" "Scattered Clouds"
"4036" 2015-01-17 "6:00 AM" 3 -3 65 1033.2 10 "NNE (20°)" 21.6 NA "" "" "Partly Cloudy"
"4037" 2015-01-17 "6:30 AM" 3 -3 65 1033.2 10 "North (10°)" 14.3 NA "" "" "Partly Cloudy"
"4038" 2015-01-17 "7:00 AM" 2 -3 70 1033.2 6.9 "North (10°)" 18 NA "" "" ""
"4039" 2015-01-17 "7:30 AM" 2 -3 70 1034.2 6.9 "North (360°)" 14.3 NA "" "" ""
"4040" 2015-01-17 "8:00 AM" 3 -2 70 1034.2 6.9 "North (360°)" 10.8 NA "" "" ""
"4041" 2015-01-17 "8:30 AM" 4 -2 65 1034.2 6.9 "North (360°)" 18 NA "" "" ""
"4042" 2015-01-17 "9:00 AM" 4 -2 65 1034.2 6.9 "North (360°)" 18 NA "" "" ""
"4043" 2015-01-17 "9:30 AM" 5 -1 65 1035.2 6.9 "North (360°)" 18 NA "" "" ""
"4044" 2015-01-17 "10:00 AM" 5 -3 57 1035.2 NA "North (10°)" 21.6 NA "" "" "Clear"
"4045" 2015-01-17 "10:30 AM" 6 -2 57 1035.2 NA "NNE (30°)" 21.6 NA "" "" "Clear"
"4046" 2015-01-17 "11:00 AM" 6 -2 57 1034.2 NA "North (10°)" 18 NA "" "" "Clear"
"4047" 2015-01-17 "11:30 AM" 7 -3 49 1034.2 NA "North (10°)" 14.3 NA "" "" "Clear"
"4048" 2015-01-17 "12:00 PM" 7 -3 49 1033.2 10 "NNE (20°)" 18 NA "" "" "Partly Cloudy"
"4049" 2015-01-17 "12:30 PM" 7 -3 49 1033.2 10 "NNE (20°)" 18 NA "" "" "Scattered Clouds"
"4050" 2015-01-17 "1:00 PM" 7 -3 49 1033.2 10 "NE (40°)" 14.3 NA "" "" "Mostly Cloudy"
"4051" 2015-01-17 "1:30 PM" 6 -3 53 1032.2 10 "NNE (20°)" 14.3 NA "" "" "Scattered Clouds"
"4052" 2015-01-17 "2:00 PM" 7 -3 49 1032.2 10 "NE (40°)" 21.6 NA "" "" "Mostly Cloudy"
"4053" 2015-01-17 "2:30 PM" 6 -3 53 1032.2 10 "NNE (20°)" 18 NA "" "" "Mostly Cloudy"
"4054" 2015-01-17 "3:00 PM" 6 -3 53 1032.2 10 "NNE (20°)" 14.3 NA "" "" "Mostly Cloudy"
"4055" 2015-01-17 "3:30 PM" 6 -2 57 1032.2 10 "NNE (20°)" 18 NA "" "" "Scattered Clouds"
"4056" 2015-01-17 "4:00 PM" 5 -3 57 1032.2 10 "North (10°)" 18 NA "" "" "Scattered Clouds"
"4057" 2015-01-17 "4:30 PM" 5 -4 53 1032.2 10 "NE (40°)" 18 NA "" "" "Scattered Clouds"
"4058" 2015-01-17 "5:00 PM" 5 -3 57 1032.2 10 "NNE (30°)" 18 NA "" "" "Partly Cloudy"
"4059" 2015-01-17 "5:30 PM" 4 -4 56 1032.2 10 "NE (40°)" 14.3 NA "" "" "Partly Cloudy"
"4060" 2015-01-17 "6:00 PM" 4 -3 61 1032.2 NA "NE (50°)" 14.3 NA "" "" "Clear"
"4061" 2015-01-17 "6:30 PM" 5 -3 57 1033.2 10 "NE (50°)" 7.2 NA "" "" "Partly Cloudy"
"4062" 2015-01-17 "7:00 PM" 5 -3 57 1033.2 10 "Variable" 10.8 NA "" "" "Mostly Cloudy"
"4063" 2015-01-17 "7:30 PM" 5 -3 57 1033.2 10 "SE (130°)" 14.3 NA "" "" "Mostly Cloudy"
"4064" 2015-01-17 "8:00 PM" 5 -4 53 1033.2 10 "ESE (120°)" 14.3 NA "" "" "Mostly Cloudy"
"4065" 2015-01-17 "8:30 PM" 5 -3 57 1033.2 10 "ESE (120°)" 10.8 NA "" "" "Mostly Cloudy"
"4066" 2015-01-17 "9:00 PM" 4 -3 61 1032.2 10 "ESE (110°)" 10.8 NA "" "" "Mostly Cloudy"
"4067" 2015-01-17 "9:30 PM" 4 -3 61 1032.2 10 "East (100°)" 10.8 NA "" "" "Partly Cloudy"
"4068" 2015-01-17 "10:00 PM" 4 -3 61 1032.2 NA "ESE (110°)" 10.8 NA "" "" "Clear"
"4069" 2015-01-17 "10:30 PM" 4 -3 61 1032.2 NA "SE (140°)" 10.8 NA "" "" "Clear"
"4070" 2015-01-17 "11:00 PM" 4 -3 61 1031.2 NA "Variable" 3.5 NA "" "" "Clear"
"4071" 2015-01-17 "11:30 PM" 4 -3 61 1031.2 NA "Variable" 3.5 NA "" "" "Clear"
"4072" 2015-01-16 "12:00 AM" 5 2 81 1026.1 4 "West (270°)" 10.8 NA "" "" "Partly Cloudy"
"4073" 2015-01-16 "12:30 AM" 5 2 81 1026.1 4 "West (270°)" 10.8 NA "" "" "Partly Cloudy"
"4074" 2015-01-16 "1:00 AM" 5 3 87 1026.1 4 "West (270°)" 7.2 NA "" "" "Mostly Cloudy"
"4075" 2015-01-16 "1:30 AM" 5 3 87 1026.1 4 "West (260°)" 7.2 NA "" "" "Mostly Cloudy"
"4076" 2015-01-16 "2:00 AM" 6 3 81 1026.1 4.5 "West (270°)" 10.8 NA "" "" "Mostly Cloudy"
"4077" 2015-01-16 "2:30 AM" 6 3 81 1026.1 5 "West (270°)" 10.8 NA "" "" "Mostly Cloudy"
"4078" 2015-01-16 "3:00 AM" 6 3 81 1026.1 5 "West (270°)" 7.2 NA "" "" "Mostly Cloudy"
"4079" 2015-01-16 "3:30 AM" 6 3 81 1026.1 5 "WNW (290°)" 10.8 NA "" "" "Mostly Cloudy"
"4080" 2015-01-16 "4:00 AM" 6 3 81 1026.1 5 "WNW (290°)" 7.2 NA "" "" "Overcast"
"4081" 2015-01-16 "4:30 AM" 6 2 76 1025.1 5 "NW (320°)" 7.2 NA "" "" "Overcast"
"4082" 2015-01-16 "5:00 AM" 6 2 76 1025.1 5 "West (270°)" 3.5 NA "" "" "Overcast"
"4083" 2015-01-16 "5:30 AM" 6 3 81 1026.1 5 "SW (220°)" 3.5 NA "" "" "Overcast"
"4084" 2015-01-16 "6:00 AM" 6 3 81 1026.1 5 "SW (220°)" 3.5 NA "" "" "Overcast"
"4085" 2015-01-16 "6:30 AM" 6 3 81 1026.1 5 "SSW (200°)" 3.5 NA "" "" "Overcast"
"4086" 2015-01-16 "7:00 AM" 6 3 81 1026.1 4 "SW (220°)" 3.5 NA "" "" "Overcast"
"4087" 2015-01-16 "7:30 AM" 6 3 81 1026.1 4 "Variable" 3.5 NA "" "" "Overcast"
"4088" 2015-01-16 "8:00 AM" 7 3 76 1026.1 4.5 "West (280°)" 7.2 NA "" "" "Overcast"
"4089" 2015-01-16 "8:30 AM" 7 2 71 1027.1 4.5 "West (260°)" 7.2 NA "" "" "Overcast"
"4090" 2015-01-16 "9:00 AM" 7 2 71 1027.1 4.5 "WNW (290°)" 10.8 NA "" "" "Haze"
"4091" 2015-01-16 "9:30 AM" 8 2 66 1027.1 6 "West (280°)" 10.8 NA "" "" "Overcast"
"4092" 2015-01-16 "10:00 AM" 8 2 66 1027.1 6 "West (280°)" 14.3 NA "" "" "Overcast"
"4093" 2015-01-16 "10:30 AM" 8 2 66 1027.1 6 "West (280°)" 14.3 NA "" "" "Overcast"
"4094" 2015-01-16 "11:00 AM" 8 2 66 1026.1 6 "WNW (290°)" 14.3 NA "" "" "Overcast"
"4095" 2015-01-16 "11:30 AM" 8 2 66 1026.1 6 "WNW (300°)" 14.3 NA "" "" "Overcast"
"4096" 2015-01-16 "12:00 PM" 8 2 66 1026.1 6 "WNW (290°)" 18 NA "" "" "Mostly Cloudy"
"4097" 2015-01-16 "12:30 PM" 8 2 66 1025.1 6 "WNW (300°)" 18 NA "" "" "Mostly Cloudy"
"4098" 2015-01-16 "1:00 PM" 8 2 66 1025.1 6 "WNW (300°)" 18 NA "" "" "Mostly Cloudy"
"4099" 2015-01-16 "1:30 PM" 8 1 62 1025.1 6 "WNW (300°)" 21.6 NA "" "" "Mostly Cloudy"
"4100" 2015-01-16 "2:00 PM" 8 2 66 1025.1 6 "WNW (300°)" 18 NA "" "" "Mostly Cloudy"
"4101" 2015-01-16 "2:30 PM" 8 1 62 1025.1 5 "WNW (290°)" 18 NA "" "" "Haze"
"4102" 2015-01-16 "3:00 PM" 8 2 66 1025.1 4 "WNW (300°)" 21.6 NA "" "" "Haze"
"4103" 2015-01-16 "3:30 PM" 8 2 66 1025.1 3.5 "WNW (300°)" 21.6 NA "" "" "Haze"
"4104" 2015-01-16 "4:00 PM" 8 2 66 1025.1 NA "WNW (300°)" 18 NA "" "" "Haze"
"4105" 2015-01-16 "4:30 PM" 8 2 66 1026.1 3.1 "WNW (290°)" 14.3 NA "" "" "Haze"
"4106" 2015-01-16 "5:00 PM" 8 3 71 1026.1 2.7 "WNW (290°)" 18 NA "" "" "Haze"
"4107" 2015-01-16 "5:30 PM" 8 3 71 1027.1 2.7 "WNW (290°)" 14.3 NA "" "" "Haze"
"4108" 2015-01-16 "6:00 PM" 8 3 71 1027.1 NA "WNW (290°)" 14.3 NA "" "" "Haze"
"4109" 2015-01-16 "6:30 PM" 8 3 71 1027.1 4 "NNW (330°)" 18 NA "" "" "Haze"
"4110" 2015-01-16 "7:00 PM" 8 3 71 1028.1 4 "NNW (330°)" 18 NA "" "" "Haze"
"4111" 2015-01-16 "7:30 PM" 8 2 66 1028.1 4 "NNW (340°)" 18 NA "" "" "Haze"
"4112" 2015-01-16 "8:00 PM" 7 2 71 1029.1 4 "NNW (340°)" 21.6 NA "" "" "Haze"
"4113" 2015-01-16 "8:30 PM" 7 2 71 1029.1 4 "North (350°)" 25.3 NA "" "" "Haze"
"4114" 2015-01-16 "9:00 PM" 7 1 66 1030.1 4 "NNW (340°)" 25.3 NA "" "" "Haze"
"4115" 2015-01-16 "9:30 PM" 6 1 70 1030.1 4 "North (350°)" 18 NA "" "" "Haze"
"4116" 2015-01-16 "10:00 PM" 6 0 66 1030.1 4.5 "NNW (340°)" 21.6 NA "" "" "Haze"
"4117" 2015-01-16 "10:30 PM" 5 1 76 1030.1 4.5 "NNW (330°)" 18 NA "" "" "Haze"
"4118" 2015-01-16 "11:00 PM" 5 1 76 1031.2 4.5 "NW (320°)" 14.3 NA "" "" "Haze"
"4119" 2015-01-16 "11:30 PM" 5 0 70 1031.2 4 "NW (320°)" 14.3 NA "" "" "Haze"
"4120" 2015-01-15 "12:00 AM" 8 6 87 1026.1 6 "NW (320°)" 14.3 NA "" "Rain" "Light Rain"
"4121" 2015-01-15 "12:30 AM" 7 6 93 1026.1 5 "NNW (330°)" 14.3 NA "" "Rain" "Light Rain"
"4122" 2015-01-15 "1:00 AM" 7 6 93 1026.1 3.5 "NW (320°)" 14.3 NA "" "Rain" "Light Rain"
"4123" 2015-01-15 "1:30 AM" 7 6 93 1027.1 3.1 "NW (320°)" 18 NA "" "Rain" "Light Rain"
"4124" 2015-01-15 "2:00 AM" 7 6 93 1027.1 2.7 "NW (310°)" 14.3 NA "" "" "Overcast"
"4125" 2015-01-15 "2:30 AM" 7 6 93 1027.1 2.7 "NW (320°)" 14.3 NA "" "" "Overcast"
"4126" 2015-01-15 "3:00 AM" 7 6 93 1027.1 2.7 "NW (310°)" 14.3 NA "" "" "Overcast"
"4127" 2015-01-15 "3:30 AM" 7 6 93 1026.1 2.7 "NW (320°)" 14.3 NA "" "" "Overcast"
"4128" 2015-01-15 "4:00 AM" 7 6 93 1026.1 3.1 "NW (320°)" 14.3 NA "" "Rain" "Light Rain"
"4129" 2015-01-15 "4:30 AM" 7 6 93 1027.1 3.1 "NNW (330°)" 14.3 NA "" "Rain" "Light Rain"
"4130" 2015-01-15 "5:00 AM" 7 6 93 1027.1 3.1 "NW (320°)" 10.8 NA "" "Rain" "Light Rain"
"4131" 2015-01-15 "5:30 AM" 7 6 93 1027.1 3.1 "NW (320°)" 14.3 NA "" "Rain" "Light Rain"
"4132" 2015-01-15 "6:00 AM" 7 6 93 1027.1 3.1 "NW (320°)" 14.3 NA "" "Rain" "Light Rain"
"4133" 2015-01-15 "6:30 AM" 7 6 93 1028.1 1.9 "NW (320°)" 14.3 NA "" "Rain" "Light Rain"
"4134" 2015-01-15 "7:00 AM" 7 6 93 1028.1 1.4 "NW (320°)" 10.8 NA "" "" "Mostly Cloudy"
"4135" 2015-01-15 "7:30 AM" 7 6 93 1028.1 1.4 "West (280°)" 10.8 NA "" "" "Mostly Cloudy"
"4136" 2015-01-15 "8:00 AM" 7 6 93 1028.1 1.6 "West (280°)" 10.8 NA "" "" "Overcast"
"4137" 2015-01-15 "8:30 AM" 7 6 93 1029.1 1.6 "WNW (290°)" 14.3 NA "" "" "Overcast"
"4138" 2015-01-15 "9:00 AM" 7 6 93 1029.1 1.9 "WNW (290°)" 14.3 NA "" "Rain" "Light Rain"
"4139" 2015-01-15 "9:30 AM" 7 6 93 1029.1 2.3 "NW (310°)" 14.3 NA "" "Rain" "Light Rain"
"4140" 2015-01-15 "10:00 AM" 7 6 93 1029.1 2.6 "NW (320°)" 10.8 NA "" "" "Overcast"
"4141" 2015-01-15 "10:30 AM" 7 5 87 1029.1 2.6 "NW (320°)" 21.6 NA "" "" "Overcast"
"4142" 2015-01-15 "11:00 AM" 8 5 81 1029.1 2.6 "NW (310°)" 18 NA "" "" "Overcast"
"4143" 2015-01-15 "11:30 AM" 8 5 81 1028.1 2.7 "NW (310°)" 18 NA "" "" "Overcast"
"4144" 2015-01-15 "12:00 PM" 8 5 81 1028.1 3.1 "NW (320°)" 14.3 NA "" "" "Overcast"
"4145" 2015-01-15 "12:30 PM" 8 5 81 1028.1 3.1 "NW (320°)" 14.3 NA "" "" "Overcast"
"4146" 2015-01-15 "1:00 PM" 8 4 76 1027.1 3.1 "NW (310°)" 18 NA "" "" "Overcast"
"4147" 2015-01-15 "1:30 PM" 8 4 76 1027.1 3.5 "NW (320°)" 18 NA "" "" "Overcast"
"4148" 2015-01-15 "2:00 PM" 9 4 71 1027.1 4.5 "NW (320°)" 18 NA "" "" "Overcast"
"4149" 2015-01-15 "2:30 PM" 9 3 66 1026.1 8 "NNW (330°)" 14.3 NA "" "" "Overcast"
"4150" 2015-01-15 "3:00 PM" 8 3 71 1026.1 8 "NNW (330°)" 18 NA "" "" "Overcast"
"4151" 2015-01-15 "3:30 PM" 8 3 71 1026.1 10 "NW (320°)" 10.8 NA "" "" "Overcast"
"4152" 2015-01-15 "4:00 PM" 8 3 71 1026.1 10 "NW (320°)" 14.3 NA "" "" "Overcast"
"4153" 2015-01-15 "4:30 PM" 8 3 71 1026.1 10 "NW (320°)" 14.3 NA "" "" "Overcast"
"4154" 2015-01-15 "5:00 PM" 8 3 71 1026.1 6.9 "NNW (340°)" 14.3 NA "" "" "Overcast"
"4155" 2015-01-15 "5:30 PM" 8 3 71 1027.1 6.9 "NNW (330°)" 14.3 NA "" "" "Overcast"
"4156" 2015-01-15 "6:00 PM" 8 3 71 1027.1 6 "NNW (330°)" 14.3 NA "" "" "Overcast"
"4157" 2015-01-15 "6:30 PM" 8 3 71 1027.1 6 "NNW (340°)" 18 NA "" "" "Overcast"
"4158" 2015-01-15 "7:00 PM" 8 3 71 1027.1 6 "NNW (330°)" 14.3 NA "" "" "Overcast"
"4159" 2015-01-15 "7:30 PM" 8 3 71 1027.1 6 "NW (320°)" 10.8 NA "" "" "Overcast"
"4160" 2015-01-15 "8:00 PM" 7 2 71 1027.1 6 "WNW (300°)" 10.8 NA "" "" "Mostly Cloudy"
"4161" 2015-01-15 "8:30 PM" 7 3 76 1027.1 6 "West (270°)" 7.2 NA "" "" "Mostly Cloudy"
"4162" 2015-01-15 "9:00 PM" 7 3 76 1027.1 5 "West (270°)" 10.8 NA "" "" "Mostly Cloudy"
"4163" 2015-01-15 "9:30 PM" 7 3 76 1027.1 6 "West (260°)" 7.2 NA "" "" "Mostly Cloudy"
"4164" 2015-01-15 "10:00 PM" 6 2 76 1027.1 6 "West (270°)" 10.8 NA "" "" "Scattered Clouds"
"4165" 2015-01-15 "10:30 PM" 5 2 81 1026.1 5 "West (270°)" 7.2 NA "" "" "Mist"
"4166" 2015-01-15 "11:00 PM" 6 3 81 1026.1 5 "West (270°)" 10.8 NA "" "" "Mist"
"4167" 2015-01-15 "11:30 PM" 6 3 81 1026.1 5 "West (270°)" 10.8 NA "" "" "Mist"
"4168" 2015-01-14 "12:00 AM" 9 8 93 1025.1 5 "NE (40°)" 14.3 NA "" "Rain" "Rain"
"4169" 2015-01-14 "12:30 AM" 9 8 93 1024 5 "NNE (30°)" 14.3 NA "" "Rain" "Rain"
"4170" 2015-01-14 "1:00 AM" 9 8 93 1024 5 "NE (40°)" 18 NA "" "Rain" "Rain"
"4171" 2015-01-14 "1:30 AM" 9 8 93 1024 6 "NE (40°)" 14.3 NA "" "Rain" "Rain"
"4172" 2015-01-14 "2:00 AM" 9 8 93 1024 6 "NNE (30°)" 18 NA "" "Rain" "Rain"
"4173" 2015-01-14 "2:30 AM" 9 8 93 1024 6 "NE (40°)" 18 NA "" "Rain" "Rain"
"4174" 2015-01-14 "3:00 AM" 9 8 93 1024 8 "NNE (30°)" 18 NA "" "Rain" "Rain"
"4175" 2015-01-14 "3:30 AM" 8 7 93 1024 8 "NE (40°)" 18 NA "" "Rain" "Rain"
"4176" 2015-01-14 "4:00 AM" 8 7 93 1024 8 "NE (40°)" 21.6 NA "" "Rain" "Rain"
"4177" 2015-01-14 "4:30 AM" 8 7 93 1024 8 "NNE (20°)" 21.6 NA "" "Rain" "Rain"
"4178" 2015-01-14 "5:00 AM" 8 7 93 1024 10 "North (10°)" 25.3 NA "" "Rain" "Light Rain"
"4179" 2015-01-14 "5:30 AM" 8 7 93 1024 10 "North (10°)" 21.6 NA "" "Rain" "Light Rain"
"4180" 2015-01-14 "6:00 AM" 7 6 93 1025.1 10 "North (10°)" 32.3 NA "" "Rain" "Light Rain"
"4181" 2015-01-14 "6:30 AM" 8 6 87 1025.1 10 "North (360°)" 25.3 NA "" "Rain" "Light Rain"
"4182" 2015-01-14 "7:00 AM" 7 7 100 1025.1 10 "North (350°)" 18 NA "" "Rain" "Light Rain"
"4183" 2015-01-14 "7:30 AM" 7 6 93 1025.1 10 "North (360°)" 18 NA "" "Rain" "Light Rain"
"4184" 2015-01-14 "8:00 AM" 7 6 93 1025.1 10 "North (350°)" 18 NA "" "Rain" "Light Rain"
"4185" 2015-01-14 "8:30 AM" 7 7 100 1025.1 10 "North (350°)" 18 NA "" "Rain" "Light Rain"
"4186" 2015-01-14 "9:00 AM" 8 7 93 1026.1 10 "North (350°)" 18 NA "" "Rain" "Light Rain"
"4187" 2015-01-14 "9:30 AM" 8 7 93 1026.1 10 "North (350°)" 18 NA "" "Rain" "Light Rain"
"4188" 2015-01-14 "10:00 AM" 8 7 93 1026.1 8 "NNW (340°)" 21.6 NA "" "Rain" "Light Rain"
"4189" 2015-01-14 "10:30 AM" 8 7 93 1025.1 8 "NNW (330°)" 21.6 NA "" "Rain" "Light Rain"
"4190" 2015-01-14 "11:00 AM" 8 7 93 1025.1 6.9 "NNW (330°)" 21.6 NA "" "Rain" "Light Rain"
"4191" 2015-01-14 "11:30 AM" 8 7 93 1025.1 6.9 "NNW (340°)" 18 NA "" "Rain" "Light Rain"
"4192" 2015-01-14 "12:00 PM" 8 7 93 1025.1 8 "NNW (330°)" 18 NA "" "" "Overcast"
"4193" 2015-01-14 "12:30 PM" 9 7 87 1024 8 "NNW (330°)" 21.6 NA "" "" "Overcast"
"4194" 2015-01-14 "1:00 PM" 9 7 87 1024 8 "NW (320°)" 21.6 NA "" "" "Overcast"
"4195" 2015-01-14 "1:30 PM" 9 7 87 1024 8 "NNW (330°)" 18 NA "" "" "Overcast"
"4196" 2015-01-14 "2:00 PM" 9 7 87 1024 6.9 "NNW (340°)" 21.6 NA "" "" "Overcast"
"4197" 2015-01-14 "2:30 PM" 9 7 87 1024 3.1 "NNW (330°)" 18 NA "" "" "Overcast"
"4198" 2015-01-14 "3:00 PM" 9 8 93 1025.1 1.9 "NW (320°)" 21.6 NA "" "Rain" "Light Rain"
"4199" 2015-01-14 "3:30 PM" 8 7 93 1025.1 1.9 "NW (320°)" 21.6 NA "" "Rain" "Light Rain"
"4200" 2015-01-14 "4:00 PM" 8 7 93 1025.1 3.1 "NW (320°)" 18 NA "" "Rain" "Light Rain"
"4201" 2015-01-14 "4:30 PM" 8 7 93 1025.1 1.4 "NW (320°)" 18 NA "" "Rain" "Light Rain"
"4202" 2015-01-14 "5:00 PM" 8 7 93 1026.1 1.4 "NW (310°)" 18 NA "" "Rain" "Light Rain"
"4203" 2015-01-14 "5:30 PM" 8 7 93 1026.1 1.9 "NW (320°)" 21.6 NA "" "Rain" "Light Rain"
"4204" 2015-01-14 "6:00 PM" 8 7 93 1026.1 1.9 "NW (310°)" 18 NA "" "Rain" "Light Rain"
"4205" 2015-01-14 "6:30 PM" 8 7 93 1026.1 1.9 "NW (320°)" 21.6 NA "" "Rain" "Light Rain"
"4206" 2015-01-14 "7:00 PM" 8 7 93 1026.1 2.6 "NNW (330°)" 21.6 NA "" "Rain" "Light Rain"
"4207" 2015-01-14 "7:30 PM" 8 7 93 1026.1 2.6 "NW (320°)" 18 NA "" "" "Overcast"
"4208" 2015-01-14 "8:00 PM" 8 7 93 1026.1 3.1 "NNW (340°)" 18 NA "" "" "Overcast"
"4209" 2015-01-14 "8:30 PM" 8 7 93 1026.1 4 "NNW (340°)" 18 NA "" "" "Overcast"
"4210" 2015-01-14 "9:00 PM" 8 7 93 1026.1 4 "North (350°)" 18 NA "" "" "Overcast"
"4211" 2015-01-14 "9:30 PM" 8 7 93 1026.1 4 "NNW (330°)" 14.3 NA "" "" "Overcast"
"4212" 2015-01-14 "10:00 PM" 8 7 93 1027.1 5 "NNW (330°)" 18 NA "" "" "Overcast"
"4213" 2015-01-14 "10:30 PM" 8 6 87 1027.1 5 "NNW (330°)" 14.3 NA "" "" "Overcast"
"4214" 2015-01-14 "11:00 PM" 8 6 87 1027.1 5 "NNW (330°)" 14.3 NA "" "" "Overcast"
"4215" 2015-01-14 "11:30 PM" 8 6 87 1026.1 6 "NW (320°)" 10.8 NA "" "" "Overcast"
"4216" 2015-01-13 "12:00 AM" 6 1 70 1033.2 10 "ENE (60°)" 14.3 NA "" "" "Scattered Clouds"
"4217" 2015-01-13 "12:30 AM" 6 1 70 1032.2 10 "ENE (70°)" 14.3 NA "" "" "Partly Cloudy"
"4218" 2015-01-13 "1:00 AM" 6 1 70 1031.2 NA "ENE (70°)" 10.8 NA "" "" "Clear"
"4219" 2015-01-13 "1:30 AM" 6 1 70 1032.2 NA "NE (50°)" 7.2 NA "" "" "Clear"
"4220" 2015-01-13 "2:00 AM" 6 1 70 1032.2 NA "NE (50°)" 7.2 NA "" "" "Clear"
"4221" 2015-01-13 "2:30 AM" 6 1 70 1032.2 10 "NNE (30°)" 10.8 NA "" "" "Scattered Clouds"
"4222" 2015-01-13 "3:00 AM" 6 1 70 1032.2 10 "North (10°)" 10.8 NA "" "" "Scattered Clouds"
"4223" 2015-01-13 "3:30 AM" 6 1 70 1032.2 10 "NE (40°)" 14.3 NA "" "" "Scattered Clouds"
"4224" 2015-01-13 "4:00 AM" 6 2 76 1032.2 NA "NE (40°)" 10.8 NA "" "" "Clear"
"4225" 2015-01-13 "4:30 AM" 6 2 76 1031.2 NA "NE (50°)" 14.3 NA "" "" "Clear"
"4226" 2015-01-13 "5:00 AM" 7 2 71 1031.2 NA "NE (50°)" 14.3 NA "" "" "Clear"
"4227" 2015-01-13 "5:30 AM" 7 2 71 1030.1 NA "ENE (60°)" 10.8 NA "" "" "Clear"
"4228" 2015-01-13 "6:00 AM" 7 2 71 1030.1 NA "ENE (60°)" 18 NA "" "" "Clear"
"4229" 2015-01-13 "6:30 AM" 7 3 76 1031.2 NA "ENE (60°)" 14.3 NA "" "" "Clear"
"4230" 2015-01-13 "7:00 AM" 7 3 76 1031.2 10 "ENE (60°)" 7.2 NA "" "" "Partly Cloudy"
"4231" 2015-01-13 "7:30 AM" 7 3 76 1031.2 NA "NNE (20°)" 14.3 NA "" "" "Clear"
"4232" 2015-01-13 "8:00 AM" 8 3 71 1031.2 NA "NNE (30°)" 10.8 NA "" "" "Clear"
"4233" 2015-01-13 "8:30 AM" 8 3 71 1031.2 NA "North (10°)" 10.8 NA "" "" "Clear"
"4234" 2015-01-13 "9:00 AM" 8 3 71 1031.2 NA "NE (40°)" 14.3 NA "" "" "Clear"
"4235" 2015-01-13 "9:30 AM" 8 3 71 1032.2 NA "NE (40°)" 14.3 NA "" "" "Clear"
"4236" 2015-01-13 "10:00 AM" 9 4 71 1032.2 NA "NNE (20°)" 18 NA "" "" "Clear"
"4237" 2015-01-13 "10:30 AM" 9 4 71 1032.2 NA "NE (40°)" 14.3 NA "" "" "Clear"
"4238" 2015-01-13 "11:00 AM" 9 4 71 1031.2 NA "NE (50°)" 18 NA "" "" "Clear"
"4239" 2015-01-13 "11:30 AM" 9 4 71 1030.1 NA "NE (50°)" 14.3 32.3 "" "" "Clear"
"4240" 2015-01-13 "12:00 PM" 10 4 66 1029.1 10 "NE (50°)" 18 NA "" "" "Overcast"
"4241" 2015-01-13 "12:30 PM" 10 4 66 1028.1 10 "ENE (60°)" 18 36 "" "" "Overcast"
"4242" 2015-01-13 "1:00 PM" 10 4 66 1028.1 10 "ENE (60°)" 14.3 NA "" "" "Overcast"
"4243" 2015-01-13 "1:30 PM" 9 5 76 1028.1 10 "NE (50°)" 18 NA "" "Rain" "Light Rain"
"4244" 2015-01-13 "2:00 PM" 9 5 76 1028.1 10 "NE (50°)" 18 NA "" "Rain" "Light Rain"
"4245" 2015-01-13 "2:30 PM" 9 6 82 1028.1 10 "ENE (60°)" 14.3 NA "" "Rain" "Light Rain"
"4246" 2015-01-13 "3:00 PM" 9 5 76 1028.1 10 "ENE (60°)" 14.3 32.3 "" "Rain" "Light Rain"
"4247" 2015-01-13 "3:30 PM" 8 6 87 1028.1 10 "NE (50°)" 14.3 NA "" "Rain" "Light Rain"
"4248" 2015-01-13 "4:00 PM" 8 6 87 1028.1 10 "NE (50°)" 18 NA "" "Rain" "Light Rain"
"4249" 2015-01-13 "4:30 PM" 8 6 87 1027.1 10 "ENE (60°)" 18 NA "" "Rain" "Light Rain"
"4250" 2015-01-13 "5:00 PM" 8 6 87 1027.1 10 "NE (50°)" 21.6 NA "" "Rain" "Light Rain"
"4251" 2015-01-13 "5:30 PM" 8 6 87 1027.1 10 "ENE (60°)" 18 NA "" "Rain" "Light Rain"
"4252" 2015-01-13 "6:00 PM" 8 6 87 1027.1 10 "NE (50°)" 18 NA "" "Rain" "Light Rain"
"4253" 2015-01-13 "6:30 PM" 8 6 87 1027.1 10 "NE (50°)" 14.3 NA "" "Rain" "Light Rain"
"4254" 2015-01-13 "7:00 PM" 8 7 93 1027.1 10 "ENE (60°)" 18 NA "" "Rain" "Light Rain"
"4255" 2015-01-13 "7:30 PM" 8 7 93 1027.1 10 "NE (50°)" 14.3 NA "" "Rain" "Light Rain"
"4256" 2015-01-13 "8:00 PM" 8 7 93 1027.1 10 "ENE (60°)" 14.3 NA "" "Rain" "Light Rain"
"4257" 2015-01-13 "8:30 PM" 8 7 93 1027.1 10 "NE (50°)" 18 NA "" "Rain" "Light Rain"
"4258" 2015-01-13 "9:00 PM" 8 7 93 1027.1 6.9 "NE (50°)" 18 NA "" "Rain" "Rain"
"4259" 2015-01-13 "9:30 PM" 8 7 93 1027.1 6.9 "NE (50°)" 14.3 NA "" "Rain" "Rain"
"4260" 2015-01-13 "10:00 PM" 8 7 93 1027.1 6 "NNE (30°)" 10.8 NA "" "Rain" "Rain"
"4261" 2015-01-13 "10:30 PM" 8 7 93 1026.1 6 "NNE (20°)" 14.3 NA "" "Rain" "Rain"
"4262" 2015-01-13 "11:00 PM" 8 8 100 1026.1 6 "NE (50°)" 10.8 NA "" "Rain" "Rain"
"4263" 2015-01-13 "11:30 PM" 8 8 100 1025.1 5 "NE (40°)" 14.3 NA "" "Rain" "Rain"
"4264" 2015-01-12 "12:00 AM" 7 3 76 1032.2 NA "NE (40°)" 21.6 NA "" "" "Clear"
"4265" 2015-01-12 "12:30 AM" 6 3 81 1032.2 NA "NE (40°)" 21.6 NA "" "" "Clear"
"4266" 2015-01-12 "1:00 AM" 6 2 76 1032.2 NA "NE (50°)" 21.6 NA "" "" "Clear"
"4267" 2015-01-12 "1:30 AM" 6 2 76 1033.2 NA "NE (50°)" 18 NA "" "" "Clear"
"4268" 2015-01-12 "2:00 AM" 6 2 76 1033.2 NA "NE (40°)" 18 NA "" "" "Clear"
"4269" 2015-01-12 "2:30 AM" 6 2 76 1033.2 NA "NE (40°)" 14.3 NA "" "" "Clear"
"4270" 2015-01-12 "3:00 AM" 6 2 76 1033.2 NA "NE (40°)" 14.3 NA "" "" "Clear"
"4271" 2015-01-12 "3:30 AM" 5 1 76 1032.2 NA "NE (40°)" 18 NA "" "" "Clear"
"4272" 2015-01-12 "4:00 AM" 5 1 76 1032.2 NA "NE (40°)" 18 NA "" "" "Clear"
"4273" 2015-01-12 "4:30 AM" 5 1 76 1033.2 NA "NE (40°)" 14.3 NA "" "" "Clear"
"4274" 2015-01-12 "5:00 AM" 5 1 76 1033.2 NA "NE (50°)" 14.3 NA "" "" "Clear"
"4275" 2015-01-12 "5:30 AM" 5 1 76 1033.2 NA "ENE (60°)" 7.2 NA "" "" "Clear"
"4276" 2015-01-12 "6:00 AM" 5 1 76 1033.2 NA "NE (50°)" 14.3 NA "" "" "Clear"
"4277" 2015-01-12 "6:30 AM" 5 1 76 1033.2 NA "NE (50°)" 10.8 NA "" "" "Clear"
"4278" 2015-01-12 "7:00 AM" 5 1 76 1034.2 10 "ENE (60°)" 7.2 NA "" "" "Partly Cloudy"
"4279" 2015-01-12 "7:30 AM" 5 1 76 1034.2 10 "ENE (60°)" 10.8 NA "" "" "Partly Cloudy"
"4280" 2015-01-12 "8:00 AM" 6 1 70 1035.2 NA "ENE (70°)" 10.8 NA "" "" "Clear"
"4281" 2015-01-12 "8:30 AM" 6 0 66 1035.2 NA "ENE (60°)" 18 NA "" "" "Clear"
"4282" 2015-01-12 "9:00 AM" 7 0 61 1036.2 NA "ENE (70°)" 14.3 NA "" "" "Clear"
"4283" 2015-01-12 "9:30 AM" 8 1 62 1036.2 NA "ENE (60°)" 18 NA "" "" "Clear"
"4284" 2015-01-12 "10:00 AM" 8 1 62 1036.2 10 "NE (50°)" 14.3 NA "" "" "Partly Cloudy"
"4285" 2015-01-12 "10:30 AM" 8 0 57 1036.2 10 "ENE (70°)" 14.3 NA "" "" "Partly Cloudy"
"4286" 2015-01-12 "11:00 AM" 9 0 54 1036.2 10 "East (90°)" 14.3 NA "" "" "Partly Cloudy"
"4287" 2015-01-12 "11:30 AM" 9 0 54 1035.2 10 "ENE (60°)" 14.3 36 "" "" "Scattered Clouds"
"4288" 2015-01-12 "12:00 PM" 9 0 54 1034.2 10 "ENE (60°)" 14.3 NA "" "" "Scattered Clouds"
"4289" 2015-01-12 "12:30 PM" 9 0 54 1034.2 10 "ENE (60°)" 14.3 NA "" "" "Scattered Clouds"
"4290" 2015-01-12 "1:00 PM" 9 -1 50 1033.2 10 "NE (40°)" 14.3 NA "" "" "Scattered Clouds"
"4291" 2015-01-12 "1:30 PM" 9 -1 50 1033.2 10 "ENE (70°)" 18 NA "" "" "Scattered Clouds"
"4292" 2015-01-12 "2:00 PM" 9 0 54 1033.2 10 "East (80°)" 14.3 NA "" "" "Scattered Clouds"
"4293" 2015-01-12 "2:30 PM" 9 0 54 1032.2 10 "ENE (60°)" 14.3 32.3 "" "" "Scattered Clouds"
"4294" 2015-01-12 "3:00 PM" 8 0 57 1032.2 10 "ENE (70°)" 18 39.6 "" "" "Scattered Clouds"
"4295" 2015-01-12 "3:30 PM" 8 0 57 1032.2 10 "ENE (60°)" 18 NA "" "" "Scattered Clouds"
"4296" 2015-01-12 "4:00 PM" 8 0 57 1032.2 10 "ENE (70°)" 14.3 NA "" "" "Scattered Clouds"
"4297" 2015-01-12 "4:30 PM" 8 0 57 1033.2 10 "NE (50°)" 18 NA "" "" "Scattered Clouds"
"4298" 2015-01-12 "5:00 PM" 7 0 61 1033.2 10 "ENE (60°)" 14.3 NA "" "" "Partly Cloudy"
"4299" 2015-01-12 "5:30 PM" 7 0 61 1034.2 10 "ENE (60°)" 14.3 NA "" "" "Partly Cloudy"
"4300" 2015-01-12 "6:00 PM" 7 0 61 1034.2 10 "NNE (30°)" 18 NA "" "" "Partly Cloudy"
"4301" 2015-01-12 "6:30 PM" 7 0 61 1034.2 10 "NE (50°)" 18 NA "" "" "Partly Cloudy"
"4302" 2015-01-12 "7:00 PM" 7 0 61 1034.2 10 "NE (40°)" 18 NA "" "" "Partly Cloudy"
"4303" 2015-01-12 "7:30 PM" 7 0 61 1034.2 10 "NE (50°)" 18 NA "" "" "Partly Cloudy"
"4304" 2015-01-12 "8:00 PM" 7 0 61 1033.2 NA "NE (50°)" 18 NA "" "" "Clear"
"4305" 2015-01-12 "8:30 PM" 7 0 61 1033.2 NA "NE (50°)" 18 NA "" "" "Clear"
"4306" 2015-01-12 "9:00 PM" 6 0 66 1034.2 NA "NNE (30°)" 10.8 NA "" "" "Clear"
"4307" 2015-01-12 "9:30 PM" 6 0 66 1034.2 10 "NNE (20°)" 14.3 NA "" "" "Partly Cloudy"
"4308" 2015-01-12 "10:00 PM" 6 1 70 1034.2 10 "NNE (30°)" 14.3 NA "" "" "Partly Cloudy"
"4309" 2015-01-12 "10:30 PM" 6 1 70 1034.2 NA "NNE (30°)" 14.3 NA "" "" "Clear"
"4310" 2015-01-12 "11:00 PM" 6 0 66 1035.2 NA "NNE (30°)" 10.8 NA "" "" "Clear"
"4311" 2015-01-12 "11:30 PM" 6 1 70 1034.2 10 "NE (50°)" 14.3 NA "" "" "Scattered Clouds"
"4312" 2015-01-11 "12:00 AM" 5 1 76 1026.1 4 "SSW (210°)" 3.5 NA "" "" "Mist"
"4313" 2015-01-11 "12:30 AM" 4 0 75 1026.1 4 "South (190°)" 3.5 NA "" "" "Mist"
"4314" 2015-01-11 "1:00 AM" 3 0 81 1026.1 3.5 "SW (220°)" 3.5 NA "" "" "Mist"
"4315" 2015-01-11 "1:30 AM" 4 1 81 1026.1 3.5 "SSW (210°)" 3.5 NA "" "" "Mist"
"4316" 2015-01-11 "2:00 AM" 4 1 81 1026.1 3.1 "South (190°)" 3.5 NA "" "" "Mist"
"4317" 2015-01-11 "2:30 AM" 3 0 81 1026.1 3.1 "Calm" NA NA "" "" "Mist"
"4318" 2015-01-11 "3:00 AM" 3 1 87 1026.1 3.1 "Calm" NA NA "" "" "Mist"
"4319" 2015-01-11 "3:30 AM" 2 0 87 1026.1 3.1 "SSW (200°)" 3.5 NA "" "" "Mist"
"4320" 2015-01-11 "4:00 AM" 2 1 93 1026.1 3.1 "SSW (210°)" 3.5 NA "" "" "Mist"
"4321" 2015-01-11 "4:30 AM" 3 0 81 1026.1 3.1 "Variable" 3.5 NA "" "" "Mist"
"4322" 2015-01-11 "5:00 AM" 3 -1 75 1027.1 2.7 "South (190°)" 7.2 NA "" "" "Mist"
"4323" 2015-01-11 "5:30 AM" 4 0 75 1027.1 2.7 "Variable" 3.5 NA "" "" "Mist"
"4324" 2015-01-11 "6:00 AM" 3 -1 75 1027.1 2.7 "Calm" NA NA "" "" "Haze"
"4325" 2015-01-11 "6:30 AM" 2 -1 81 1027.1 2.7 "Variable" 3.5 NA "" "" "Mist"
"4326" 2015-01-11 "7:00 AM" 2 -1 81 1027.1 1.8 "South (180°)" 3.5 NA "" "" "Mist"
"4327" 2015-01-11 "7:30 AM" 3 0 81 1028.1 1.6 "Variable" 3.5 NA "" "" "Mist"
"4328" 2015-01-11 "8:00 AM" 4 0 75 1028.1 1.6 "WSW (250°)" 3.5 NA "" "" "Mist"
"4329" 2015-01-11 "8:30 AM" 6 2 76 1029.1 1.6 "SSW (210°)" 7.2 NA "" "" "Mist"
"4330" 2015-01-11 "9:00 AM" 8 2 66 1029.1 1.9 "SW (230°)" 7.2 NA "" "" "Haze"
"4331" 2015-01-11 "9:30 AM" 9 2 62 1029.1 1.9 "Variable" 3.5 NA "" "" "Haze"
"4332" 2015-01-11 "10:00 AM" 11 1 50 1029.1 2.3 "Variable" 3.5 NA "" "" "Haze"
"4333" 2015-01-11 "10:30 AM" 12 1 47 1029.1 2.6 "NW (320°)" 10.8 NA "" "" "Haze"
"4334" 2015-01-11 "11:00 AM" 13 1 44 1029.1 3.1 "NNW (330°)" 14.3 NA "" "" "Haze"
"4335" 2015-01-11 "11:30 AM" 14 0 38 1028.1 4 "North (350°)" 14.3 NA "" "" "Haze"
"4336" 2015-01-11 "12:00 PM" 15 0 36 1028.1 5 "NNW (340°)" 14.3 NA "" "" "Haze"
"4337" 2015-01-11 "12:30 PM" 15 -1 34 1027.1 5 "North (10°)" 14.3 NA "" "" "Haze"
"4338" 2015-01-11 "1:00 PM" 15 -1 34 1027.1 6 "NNW (340°)" 14.3 NA "" "" ""
"4339" 2015-01-11 "1:30 PM" 15 -1 34 1027.1 6 "North (350°)" 14.3 NA "" "" ""
"4340" 2015-01-11 "2:00 PM" 15 -2 31 1027.1 6 "North (350°)" 10.8 NA "" "" ""
"4341" 2015-01-11 "2:30 PM" 16 -1 31 1027.1 6 "Variable" 14.3 NA "" "" ""
"4342" 2015-01-11 "3:00 PM" 15 -2 31 1027.1 6 "North (360°)" 14.3 NA "" "" ""
"4343" 2015-01-11 "3:30 PM" 15 -1 34 1028.1 6 "North (10°)" 14.3 NA "" "" ""
"4344" 2015-01-11 "4:00 PM" 14 0 38 1028.1 5 "NNE (30°)" 14.3 NA "" "" "Haze"
"4345" 2015-01-11 "4:30 PM" 13 0 41 1028.1 5 "NNE (20°)" 14.3 NA "" "" "Haze"
"4346" 2015-01-11 "5:00 PM" 12 0 44 1029.1 3.1 "NNE (30°)" 14.3 NA "" "" "Haze"
"4347" 2015-01-11 "5:30 PM" 12 0 44 1029.1 2.6 "NE (40°)" 10.8 NA "" "" "Haze"
"4348" 2015-01-11 "6:00 PM" 11 0 47 1029.1 2.6 "NE (40°)" 7.2 NA "" "" "Haze"
"4349" 2015-01-11 "6:30 PM" 11 0 47 1030.1 3.1 "NE (40°)" 14.3 NA "" "" "Haze"
"4350" 2015-01-11 "7:00 PM" 10 1 54 1030.1 3.1 "NE (50°)" 18 NA "" "" "Haze"
"4351" 2015-01-11 "7:30 PM" 9 3 66 1030.1 3.1 "NE (50°)" 18 NA "" "" "Haze"
"4352" 2015-01-11 "8:00 PM" 9 3 66 1030.1 3.1 "NE (40°)" 18 NA "" "" "Haze"
"4353" 2015-01-11 "8:30 PM" 9 3 66 1031.2 3.1 "ENE (60°)" 18 36 "" "" "Haze"
"4354" 2015-01-11 "9:00 PM" 8 4 76 1031.2 2.6 "NE (50°)" 21.6 NA "" "" "Haze"
"4355" 2015-01-11 "9:30 PM" 8 4 76 1032.2 2.6 "NE (50°)" 25.3 46.8 "" "" "Mist"
"4356" 2015-01-11 "10:00 PM" 7 4 81 1032.2 2.6 "NE (50°)" 18 NA "" "" "Mist"
"4357" 2015-01-11 "10:30 PM" 7 4 81 1032.2 3.5 "NE (50°)" 21.6 NA "" "" "Mist"
"4358" 2015-01-11 "11:00 PM" 7 4 81 1032.2 6 "NE (40°)" 18 NA "" "" ""
"4359" 2015-01-11 "11:30 PM" 7 4 81 1032.2 6.9 "NE (40°)" 21.6 NA "" "" ""
"4360" 2015-01-10 "12:00 AM" 4 -2 65 1028.1 4 "Calm" NA NA "" "" "Haze"
"4361" 2015-01-10 "12:30 AM" 4 -1 70 1028.1 4 "South (190°)" 3.5 NA "" "" "Haze"
"4362" 2015-01-10 "1:00 AM" 4 -1 70 1029.1 4 "SSW (200°)" 3.5 NA "" "" "Haze"
"4363" 2015-01-10 "1:30 AM" 4 -1 70 1029.1 4 "Calm" NA NA "" "" "Haze"
"4364" 2015-01-10 "2:00 AM" 3 -1 75 1028.1 NA "SW (220°)" 7.2 NA "" "" "Mist"
"4365" 2015-01-10 "2:30 AM" 3 -1 75 1028.1 NA "WSW (250°)" 7.2 NA "" "" "Mist"
"4366" 2015-01-10 "3:00 AM" 2 -1 81 1028.1 NA "SW (230°)" 7.2 NA "" "" "Mist"
"4367" 2015-01-10 "3:30 AM" 3 -1 75 1028.1 NA "SW (230°)" 7.2 NA "" "" "Mist"
"4368" 2015-01-10 "4:00 AM" 2 -1 81 1028.1 NA "SSW (210°)" 3.5 NA "" "" "Mist"
"4369" 2015-01-10 "4:30 AM" 2 -1 81 1028.1 NA "SW (220°)" 3.5 NA "" "" "Mist"
"4370" 2015-01-10 "5:00 AM" 3 -1 75 1028.1 NA "SW (220°)" 3.5 NA "" "" "Mist"
"4371" 2015-01-10 "5:30 AM" 3 0 81 1028.1 NA "SSW (200°)" 3.5 NA "" "" "Mist"
"4372" 2015-01-10 "6:00 AM" 3 0 81 1028.1 NA "SSW (200°)" 3.5 NA "" "" "Mist"
"4373" 2015-01-10 "6:30 AM" 3 0 81 1029.1 NA "Variable" 3.5 NA "" "" "Mist"
"4374" 2015-01-10 "7:00 AM" 3 0 81 1029.1 2.7 "Variable" 3.5 NA "" "" "Mist"
"4375" 2015-01-10 "7:30 AM" 4 -1 70 1029.1 2.7 "Calm" NA NA "" "" "Mist"
"4376" 2015-01-10 "8:00 AM" 4 1 81 1029.1 2.6 "Variable" 3.5 NA "" "" "Mist"
"4377" 2015-01-10 "8:30 AM" 6 1 70 1029.1 2.6 "Variable" 3.5 NA "" "" "Haze"
"4378" 2015-01-10 "9:00 AM" 7 1 66 1030.1 2.6 "Variable" 3.5 NA "" "" "Haze"
"4379" 2015-01-10 "9:30 AM" 8 1 62 1030.1 2.7 "WSW (250°)" 7.2 NA "" "" "Haze"
"4380" 2015-01-10 "10:00 AM" 9 1 58 1029.1 3.1 "West (260°)" 10.8 NA "" "" "Haze"
"4381" 2015-01-10 "10:30 AM" 10 1 54 1029.1 3.1 "West (270°)" 10.8 NA "" "" "Haze"
"4382" 2015-01-10 "11:00 AM" 11 1 50 1028.1 3.1 "WNW (300°)" 10.8 NA "" "" "Haze"
"4383" 2015-01-10 "11:30 AM" 12 1 47 1028.1 3.1 "WNW (300°)" 10.8 NA "" "" "Haze"
"4384" 2015-01-10 "12:00 PM" 12 1 47 1027.1 3.5 "West (270°)" 7.2 NA "" "" "Haze"
"4385" 2015-01-10 "12:30 PM" 13 0 41 1027.1 3.5 "West (280°)" 10.8 NA "" "" "Haze"
"4386" 2015-01-10 "1:00 PM" 14 0 38 1026.1 3.5 "West (260°)" 10.8 NA "" "" "Haze"
"4387" 2015-01-10 "1:30 PM" 14 -2 33 1026.1 4 "West (280°)" 10.8 NA "" "" "Haze"
"4388" 2015-01-10 "2:00 PM" 15 -2 31 1026.1 4 "West (260°)" 10.8 NA "" "" "Haze"
"4389" 2015-01-10 "2:30 PM" 14 -3 31 1026.1 4 "WNW (290°)" 10.8 NA "" "" "Haze"
"4390" 2015-01-10 "3:00 PM" 14 -4 29 1026.1 4 "WNW (300°)" 10.8 NA "" "" "Haze"
"4391" 2015-01-10 "3:30 PM" 14 -3 31 1026.1 NA "West (270°)" 10.8 NA "" "" "Haze"
"4392" 2015-01-10 "4:00 PM" 14 -3 31 1027.1 NA "West (270°)" 10.8 NA "" "" "Haze"
"4393" 2015-01-10 "4:30 PM" 13 -2 36 1027.1 NA "West (280°)" 10.8 NA "" "" "Haze"
"4394" 2015-01-10 "5:00 PM" 12 -4 33 1027.1 4.5 "West (270°)" 10.8 NA "" "" "Haze"
"4395" 2015-01-10 "5:30 PM" 12 -4 33 1027.1 5 "West (280°)" 7.2 NA "" "" "Haze"
"4396" 2015-01-10 "6:00 PM" 11 -4 35 1027.1 8 "West (270°)" 7.2 NA "" "" ""
"4397" 2015-01-10 "6:30 PM" 9 -3 43 1027.1 8 "WSW (250°)" 7.2 NA "" "" ""
"4398" 2015-01-10 "7:00 PM" 9 -3 43 1027.1 6.9 "West (270°)" 7.2 NA "" "" ""
"4399" 2015-01-10 "7:30 PM" 8 -2 50 1027.1 6 "Variable" 3.5 NA "" "" ""
"4400" 2015-01-10 "8:00 PM" 8 -1 53 1027.1 6 "Variable" 7.2 NA "" "" ""
"4401" 2015-01-10 "8:30 PM" 8 -1 53 1027.1 6 "South (190°)" 7.2 NA "" "" ""
"4402" 2015-01-10 "9:00 PM" 8 -1 53 1027.1 5 "South (190°)" 7.2 NA "" "" "Haze"
"4403" 2015-01-10 "9:30 PM" 7 -1 57 1027.1 5 "Variable" 3.5 NA "" "" "Haze"
"4404" 2015-01-10 "10:00 PM" 5 -1 65 1026.1 5 "SW (230°)" 3.5 NA "" "" "Haze"
"4405" 2015-01-10 "10:30 PM" 6 0 66 1026.1 5 "SSW (200°)" 3.5 NA "" "" "Haze"
"4406" 2015-01-10 "11:00 PM" 5 0 70 1026.1 5 "South (170°)" 3.5 NA "" "" "Haze"
"4407" 2015-01-10 "11:30 PM" 5 0 70 1026.1 4 "South (190°)" 3.5 NA "" "" "Haze"
"4408" 2015-01-09 "12:00 AM" 3 -4 60 1031.2 6 "North (10°)" 3.5 NA "" "" ""
"4409" 2015-01-09 "12:30 AM" 4 -4 56 1031.2 6 "Variable" 3.5 NA "" "" ""
"4410" 2015-01-09 "1:00 AM" 4 -5 52 1031.2 6 "Variable" 3.5 NA "" "" ""
"4411" 2015-01-09 "1:30 AM" 3 -4 60 1031.2 6.9 "NNE (20°)" 3.5 NA "" "" ""
"4412" 2015-01-09 "2:00 AM" 3 -4 60 1031.2 6.9 "Calm" NA NA "" "" ""
"4413" 2015-01-09 "2:30 AM" 2 -4 65 1031.2 6.9 "Calm" NA NA "" "" ""
"4414" 2015-01-09 "3:00 AM" 2 -3 70 1031.2 6.9 "WSW (240°)" 3.5 NA "" "" ""
"4415" 2015-01-09 "3:30 AM" 2 -3 70 1030.1 6.9 "SSW (200°)" 3.5 NA "" "" ""
"4416" 2015-01-09 "4:00 AM" 2 -2 75 1030.1 6.9 "SSW (210°)" 3.5 NA "" "" ""
"4417" 2015-01-09 "4:30 AM" 1 -3 75 1030.1 6.9 "SW (230°)" 7.2 NA "" "" ""
"4418" 2015-01-09 "5:00 AM" 1 -2 81 1030.1 6 "SW (230°)" 7.2 NA "" "" ""
"4419" 2015-01-09 "5:30 AM" 1 -3 75 1031.2 5 "WSW (240°)" 7.2 NA "" "" "Mist"
"4420" 2015-01-09 "6:00 AM" 0 -3 80 1030.1 5 "WSW (240°)" 3.5 NA "" "" "Mist"
"4421" 2015-01-09 "6:30 AM" 1 -2 81 1031.2 4.5 "South (190°)" 3.5 NA "" "" "Mist"
"4422" 2015-01-09 "7:00 AM" 1 -2 81 1031.2 3.5 "SW (220°)" 3.5 NA "" "" "Mist"
"4423" 2015-01-09 "7:30 AM" 2 -2 75 1031.2 3.5 "Calm" NA NA "" "" "Mist"
"4424" 2015-01-09 "8:00 AM" 3 -2 70 1031.2 3.5 "Variable" 3.5 NA "" "" "Mist"
"4425" 2015-01-09 "8:30 AM" 4 -2 65 1031.2 3.5 "WSW (250°)" 7.2 NA "" "" "Haze"
"4426" 2015-01-09 "9:00 AM" 5 -2 61 1031.2 3.5 "WSW (250°)" 7.2 NA "" "" "Haze"
"4427" 2015-01-09 "9:30 AM" 7 -2 53 1032.2 4 "WSW (250°)" 7.2 NA "" "" "Haze"
"4428" 2015-01-09 "10:00 AM" 8 -3 46 1031.2 4 "WSW (250°)" 7.2 NA "" "" "Haze"
"4429" 2015-01-09 "10:30 AM" 8 -4 43 1031.2 4.5 "West (260°)" 10.8 NA "" "" "Haze"
"4430" 2015-01-09 "11:00 AM" 9 -3 43 1030.1 4.5 "West (280°)" 10.8 NA "" "" "Haze"
"4431" 2015-01-09 "11:30 AM" 9 -2 46 1029.1 4.5 "West (270°)" 10.8 NA "" "" "Haze"
"4432" 2015-01-09 "12:00 PM" 10 -2 43 1029.1 4.5 "West (280°)" 10.8 NA "" "" "Haze"
"4433" 2015-01-09 "12:30 PM" 10 -3 40 1029.1 4.5 "West (280°)" 10.8 NA "" "" "Haze"
"4434" 2015-01-09 "1:00 PM" 11 -3 38 1028.1 4.5 "West (280°)" 10.8 NA "" "" "Haze"
"4435" 2015-01-09 "1:30 PM" 11 -3 38 1028.1 5 "WNW (300°)" 10.8 NA "" "" "Haze"
"4436" 2015-01-09 "2:00 PM" 11 -4 35 1028.1 5 "West (280°)" 10.8 NA "" "" "Haze"
"4437" 2015-01-09 "2:30 PM" 11 -3 38 1028.1 5 "West (280°)" 10.8 NA "" "" "Haze"
"4438" 2015-01-09 "3:00 PM" 11 -4 35 1027.1 5 "WNW (300°)" 10.8 NA "" "" "Haze"
"4439" 2015-01-09 "3:30 PM" 11 -3 38 1028.1 5 "WNW (290°)" 10.8 NA "" "" "Haze"
"4440" 2015-01-09 "4:00 PM" 11 -3 38 1028.1 5 "West (270°)" 10.8 NA "" "" "Haze"
"4441" 2015-01-09 "4:30 PM" 10 -3 40 1028.1 5 "West (260°)" 10.8 NA "" "" "Haze"
"4442" 2015-01-09 "5:00 PM" 10 -3 40 1028.1 4.5 "West (280°)" 10.8 NA "" "" "Haze"
"4443" 2015-01-09 "5:30 PM" 10 -2 43 1029.1 4.5 "West (260°)" 10.8 NA "" "" "Haze"
"4444" 2015-01-09 "6:00 PM" 9 -3 43 1029.1 4.5 "West (280°)" 7.2 NA "" "" "Haze"
"4445" 2015-01-09 "6:30 PM" 9 -3 43 1029.1 4.5 "WSW (240°)" 7.2 NA "" "" "Haze"
"4446" 2015-01-09 "7:00 PM" 8 -3 46 1029.1 4.5 "WSW (250°)" 7.2 NA "" "" "Haze"
"4447" 2015-01-09 "7:30 PM" 7 -2 53 1029.1 4.5 "WSW (250°)" 7.2 NA "" "" "Haze"
"4448" 2015-01-09 "8:00 PM" 6 -2 57 1029.1 4.5 "SW (230°)" 7.2 NA "" "" "Haze"
"4449" 2015-01-09 "8:30 PM" 7 -2 53 1029.1 4.5 "West (270°)" 10.8 NA "" "" "Haze"
"4450" 2015-01-09 "9:00 PM" 7 -2 53 1029.1 4.5 "West (260°)" 7.2 NA "" "" "Haze"
"4451" 2015-01-09 "9:30 PM" 6 -2 57 1029.1 4.5 "Calm" NA NA "" "" "Haze"
"4452" 2015-01-09 "10:00 PM" 6 -2 57 1029.1 4.5 "Calm" NA NA "" "" "Haze"
"4453" 2015-01-09 "10:30 PM" 7 -2 53 1029.1 4.5 "Variable" 3.5 NA "" "" "Haze"
"4454" 2015-01-09 "11:00 PM" 6 -2 57 1028.1 4.5 "Variable" 3.5 NA "" "" "Haze"
"4455" 2015-01-09 "11:30 PM" 4 -1 70 1028.1 4 "Calm" NA NA "" "" "Haze"
"4456" 2015-01-08 "12:00 AM" 1 -3 75 1031.2 NA "North (360°)" 10.8 NA "" "" "Clear"
"4457" 2015-01-08 "12:30 AM" 1 -3 75 1031.2 NA "NNW (340°)" 7.2 NA "" "" "Clear"
"4458" 2015-01-08 "1:00 AM" 1 -3 75 1031.2 NA "NNW (340°)" 10.8 NA "" "" "Clear"
"4459" 2015-01-08 "1:30 AM" 2 -3 70 1031.2 NA "NNW (340°)" 7.2 NA "" "" "Clear"
"4460" 2015-01-08 "2:00 AM" 2 -3 70 1031.2 NA "NW (320°)" 10.8 NA "" "" "Clear"
"4461" 2015-01-08 "2:30 AM" 2 -3 70 1032.2 NA "NW (320°)" 10.8 NA "" "" "Clear"
"4462" 2015-01-08 "3:00 AM" 1 -3 75 1032.2 NA "WNW (290°)" 7.2 NA "" "" "Clear"
"4463" 2015-01-08 "3:30 AM" 1 -3 75 1032.2 NA "NW (310°)" 10.8 NA "" "" "Clear"
"4464" 2015-01-08 "4:00 AM" 1 -3 75 1032.2 NA "NW (320°)" 10.8 NA "" "" "Clear"
"4465" 2015-01-08 "4:30 AM" 1 -3 75 1032.2 NA "NW (320°)" 10.8 NA "" "" "Clear"
"4466" 2015-01-08 "5:00 AM" 1 -3 75 1032.2 NA "NW (320°)" 10.8 NA "" "" "Clear"
"4467" 2015-01-08 "5:30 AM" 1 -3 75 1032.2 NA "NNW (330°)" 10.8 NA "" "" "Clear"
"4468" 2015-01-08 "6:00 AM" 1 -3 75 1033.2 NA "WNW (290°)" 10.8 NA "" "" "Clear"
"4469" 2015-01-08 "6:30 AM" 1 -3 75 1033.2 NA "West (270°)" 7.2 NA "" "" "Clear"
"4470" 2015-01-08 "7:00 AM" 1 -3 75 1033.2 6.9 "WNW (300°)" 10.8 NA "" "" ""
"4471" 2015-01-08 "7:30 AM" 1 -3 75 1033.2 6.9 "West (270°)" 7.2 NA "" "" ""
"4472" 2015-01-08 "8:00 AM" 2 -3 70 1033.2 6.9 "NW (320°)" 10.8 NA "" "" ""
"4473" 2015-01-08 "8:30 AM" 3 -3 65 1034.2 6.9 "NW (310°)" 10.8 NA "" "" ""
"4474" 2015-01-08 "9:00 AM" 4 -4 56 1034.2 6 "NNW (330°)" 14.3 NA "" "" ""
"4475" 2015-01-08 "9:30 AM" 5 -3 57 1033.2 6 "NNW (340°)" 18 NA "" "" ""
"4476" 2015-01-08 "10:00 AM" 5 -5 49 1033.2 8 "NNW (330°)" 18 NA "" "" ""
"4477" 2015-01-08 "10:30 AM" 6 -5 46 1033.2 8 "NNW (340°)" 14.3 NA "" "" ""
"4478" 2015-01-08 "11:00 AM" 7 -7 37 1032.2 NA "NNW (340°)" 18 NA "" "" "Clear"
"4479" 2015-01-08 "11:30 AM" 7 -8 34 1032.2 NA "North (360°)" 14.3 NA "" "" "Clear"
"4480" 2015-01-08 "12:00 PM" 8 -7 34 1031.2 NA "NNW (340°)" 14.3 NA "" "" "Clear"
"4481" 2015-01-08 "12:30 PM" 8 -8 32 1030.1 NA "NNW (330°)" 14.3 NA "" "" "Clear"
"4482" 2015-01-08 "1:00 PM" 8 -8 32 1030.1 NA "NNW (340°)" 18 NA "" "" "Clear"
"4483" 2015-01-08 "1:30 PM" 9 -10 25 1030.1 NA "NNW (330°)" 18 NA "" "" "Clear"
"4484" 2015-01-08 "2:00 PM" 9 -10 25 1030.1 NA "NNW (330°)" 14.3 NA "" "" "Clear"
"4485" 2015-01-08 "2:30 PM" 9 -10 25 1030.1 NA "North (350°)" 18 NA "" "" "Clear"
"4486" 2015-01-08 "3:00 PM" 9 -9 27 1030.1 NA "NNW (330°)" 18 NA "" "" "Clear"
"4487" 2015-01-08 "3:30 PM" 9 -9 27 1030.1 NA "NNW (340°)" 18 NA "" "" "Clear"
"4488" 2015-01-08 "4:00 PM" 8 -9 29 1031.2 NA "NNW (330°)" 14.3 NA "" "" "Clear"
"4489" 2015-01-08 "4:30 PM" 8 -11 25 1031.2 NA "NW (320°)" 18 NA "" "" "Clear"
"4490" 2015-01-08 "5:00 PM" 7 -10 29 1031.2 NA "NW (320°)" 18 NA "" "" "Clear"
"4491" 2015-01-08 "5:30 PM" 6 -11 29 1031.2 NA "North (350°)" 10.8 NA "" "" "Clear"
"4492" 2015-01-08 "6:00 PM" 5 -10 33 1031.2 NA "North (350°)" 7.2 NA "" "" "Clear"
"4493" 2015-01-08 "6:30 PM" 6 -10 31 1031.2 NA "NNW (340°)" 10.8 NA "" "" "Clear"
"4494" 2015-01-08 "7:00 PM" 5 -10 33 1031.2 NA "NNW (330°)" 10.8 NA "" "" "Clear"
"4495" 2015-01-08 "7:30 PM" 5 -9 36 1031.2 NA "NNW (340°)" 10.8 NA "" "" "Clear"
"4496" 2015-01-08 "8:00 PM" 4 -9 39 1031.2 8 "NNW (340°)" 10.8 NA "" "" ""
"4497" 2015-01-08 "8:30 PM" 5 -8 39 1031.2 6 "WSW (250°)" 7.2 NA "" "" ""
"4498" 2015-01-08 "9:00 PM" 4 -8 42 1031.2 6 "West (260°)" 7.2 NA "" "" ""
"4499" 2015-01-08 "9:30 PM" 4 -7 45 1031.2 6 "NW (320°)" 7.2 NA "" "" ""
"4500" 2015-01-08 "10:00 PM" 3 -7 48 1031.2 6 "NNW (340°)" 7.2 NA "" "" ""
"4501" 2015-01-08 "10:30 PM" 4 -6 49 1031.2 6 "NNE (30°)" 7.2 NA "" "" ""
"4502" 2015-01-08 "11:00 PM" 3 -5 56 1031.2 6 "NNE (20°)" 7.2 NA "" "" ""
"4503" 2015-01-08 "11:30 PM" 2 -5 60 1031.2 6 "North (10°)" 7.2 NA "" "" ""
"4504" 2015-01-07 "12:00 AM" 3 -1 75 1025.1 NA "North (360°)" 21.6 NA "" "" "Clear"
"4505" 2015-01-07 "12:30 AM" 3 -1 75 1026.1 NA "North (350°)" 14.3 NA "" "" "Clear"
"4506" 2015-01-07 "1:00 AM" 3 -1 75 1025.1 NA "North (350°)" 18 NA "" "" "Clear"
"4507" 2015-01-07 "1:30 AM" 3 -2 70 1025.1 NA "North (350°)" 14.3 NA "" "" "Clear"
"4508" 2015-01-07 "2:00 AM" 3 -2 70 1025.1 NA "North (350°)" 21.6 NA "" "" "Clear"
"4509" 2015-01-07 "2:30 AM" 3 -2 70 1026.1 10 "North (350°)" 14.3 NA "" "" "Scattered Clouds"
"4510" 2015-01-07 "3:00 AM" 3 -2 70 1026.1 10 "North (350°)" 10.8 NA "" "" "Scattered Clouds"
"4511" 2015-01-07 "3:30 AM" 3 -2 70 1026.1 10 "NNW (330°)" 18 NA "" "" "Scattered Clouds"
"4512" 2015-01-07 "4:00 AM" 3 -2 70 1025.1 NA "NNW (340°)" 14.3 NA "" "" "Clear"
"4513" 2015-01-07 "4:30 AM" 3 -2 70 1026.1 NA "NNW (340°)" 18 NA "" "" "Clear"
"4514" 2015-01-07 "5:00 AM" 3 -2 70 1026.1 NA "NNW (330°)" 18 NA "" "" "Clear"
"4515" 2015-01-07 "5:30 AM" 3 -2 70 1026.1 NA "NNW (330°)" 14.3 NA "" "" "Clear"
"4516" 2015-01-07 "6:00 AM" 3 -2 70 1027.1 NA "NNW (330°)" 14.3 NA "" "" "Clear"
"4517" 2015-01-07 "6:30 AM" 3 -2 70 1027.1 NA "NNW (340°)" 18 NA "" "" "Clear"
"4518" 2015-01-07 "7:00 AM" 3 -3 65 1027.1 NA "NNW (340°)" 18 NA "" "" "Clear"
"4519" 2015-01-07 "7:30 AM" 3 -3 65 1027.1 NA "NNW (330°)" 18 NA "" "" "Clear"
"4520" 2015-01-07 "8:00 AM" 3 -3 65 1028.1 NA "NW (320°)" 18 NA "" "" "Clear"
"4521" 2015-01-07 "8:30 AM" 4 -3 61 1028.1 NA "NNW (330°)" 18 NA "" "" "Clear"
"4522" 2015-01-07 "9:00 AM" 4 -3 61 1028.1 NA "NNW (340°)" 18 NA "" "" "Clear"
"4523" 2015-01-07 "9:30 AM" 4 -3 61 1028.1 NA "NNW (330°)" 14.3 NA "" "" "Clear"
"4524" 2015-01-07 "10:00 AM" 5 -2 61 1028.1 NA "WNW (300°)" 18 NA "" "" "Clear"
"4525" 2015-01-07 "10:30 AM" 5 -3 57 1028.1 10 "NW (320°)" 21.6 NA "" "" "Scattered Clouds"
"4526" 2015-01-07 "11:00 AM" 6 -4 49 1028.1 10 "NW (320°)" 21.6 NA "" "" "Scattered Clouds"
"4527" 2015-01-07 "11:30 AM" 6 -4 49 1028.1 10 "NW (320°)" 21.6 NA "" "" "Scattered Clouds"
"4528" 2015-01-07 "12:00 PM" 6 -4 49 1027.1 10 "NNW (330°)" 18 NA "" "" "Partly Cloudy"
"4529" 2015-01-07 "12:30 PM" 7 -4 46 1027.1 10 "WNW (300°)" 21.6 NA "" "" "Partly Cloudy"
"4530" 2015-01-07 "1:00 PM" 7 -5 43 1027.1 NA "NNW (330°)" 21.6 NA "" "" "Clear"
"4531" 2015-01-07 "1:30 PM" 7 -5 43 1027.1 NA "North (350°)" 21.6 NA "" "" "Clear"
"4532" 2015-01-07 "2:00 PM" 7 -5 43 1027.1 NA "NNW (330°)" 21.6 NA "" "" "Clear"
"4533" 2015-01-07 "2:30 PM" 7 -5 43 1027.1 NA "North (350°)" 25.3 NA "" "" "Clear"
"4534" 2015-01-07 "3:00 PM" 7 -5 43 1027.1 NA "NW (320°)" 18 NA "" "" "Clear"
"4535" 2015-01-07 "3:30 PM" 7 -5 43 1028.1 NA "NNW (340°)" 21.6 NA "" "" "Clear"
"4536" 2015-01-07 "4:00 PM" 7 -5 43 1028.1 NA "NNW (340°)" 18 NA "" "" "Clear"
"4537" 2015-01-07 "4:30 PM" 6 -5 46 1029.1 NA "NNW (330°)" 18 NA "" "" "Clear"
"4538" 2015-01-07 "5:00 PM" 6 -5 46 1029.1 NA "North (350°)" 18 NA "" "" "Clear"
"4539" 2015-01-07 "5:30 PM" 5 -5 49 1029.1 NA "NW (320°)" 18 NA "" "" "Clear"
"4540" 2015-01-07 "6:00 PM" 5 -5 49 1030.1 NA "NNW (330°)" 18 NA "" "" "Clear"
"4541" 2015-01-07 "6:30 PM" 5 -5 49 1030.1 NA "NW (320°)" 14.3 NA "" "" "Clear"
"4542" 2015-01-07 "7:00 PM" 5 -5 49 1030.1 NA "NNW (330°)" 18 NA "" "" "Clear"
"4543" 2015-01-07 "7:30 PM" 4 -5 52 1030.1 NA "NNW (330°)" 14.3 NA "" "" "Clear"
"4544" 2015-01-07 "8:00 PM" 5 -5 49 1030.1 NA "NW (320°)" 18 NA "" "" "Clear"
"4545" 2015-01-07 "8:30 PM" 4 -5 52 1030.1 NA "NNW (340°)" 18 NA "" "" "Clear"
"4546" 2015-01-07 "9:00 PM" 3 -4 60 1031.2 NA "North (360°)" 10.8 NA "" "" "Clear"
"4547" 2015-01-07 "9:30 PM" 3 -3 65 1031.2 NA "North (360°)" 10.8 NA "" "" "Clear"
"4548" 2015-01-07 "10:00 PM" 2 -3 70 1031.2 NA "North (10°)" 14.3 NA "" "" "Clear"
"4549" 2015-01-07 "10:30 PM" 2 -3 70 1031.2 NA "North (10°)" 10.8 NA "" "" "Clear"
"4550" 2015-01-07 "11:00 PM" 1 -3 75 1031.2 NA "North (10°)" 10.8 NA "" "" "Clear"
"4551" 2015-01-07 "11:30 PM" 1 -3 75 1031.2 NA "North (350°)" 10.8 NA "" "" "Clear"
"4552" 2015-01-06 "12:00 AM" 13 5 58 1015.2 5 "NW (310°)" 25.3 NA "" "" "Haze"
"4553" 2015-01-06 "12:30 AM" 12 5 62 1016.3 3.5 "NNW (330°)" 25.3 NA "" "" "Haze"
"4554" 2015-01-06 "1:00 AM" 12 5 62 1016.3 3.5 "NW (320°)" 21.6 NA "" "" "Haze"
"4555" 2015-01-06 "1:30 AM" 11 4 62 1017.3 3.5 "NW (320°)" 18 NA "" "" "Haze"
"4556" 2015-01-06 "2:00 AM" 11 4 62 1017.3 3.1 "NW (320°)" 25.3 NA "" "" "Haze"
"4557" 2015-01-06 "2:30 AM" 10 5 71 1017.3 3.1 "NNW (330°)" 28.8 NA "" "" "Haze"
"4558" 2015-01-06 "3:00 AM" 10 5 71 1017.3 3.1 "NNW (340°)" 28.8 46.8 "" "" "Haze"
"4559" 2015-01-06 "3:30 AM" 10 6 76 1017.9 3.1 "NNW (330°)" 25.3 NA "" "" "Mostly Cloudy"
"4560" 2015-01-06 "4:00 AM" 9 7 87 1017.9 3.1 "NNW (340°)" 28.8 NA "" "" "Mostly Cloudy"
"4561" 2015-01-06 "4:30 AM" 9 7 87 1017.9 2.6 "North (350°)" 25.3 NA "" "" "Overcast"
"4562" 2015-01-06 "5:00 AM" 9 6 82 1019 2.6 "North (360°)" 28.8 NA "" "" "Overcast"
"4563" 2015-01-06 "5:30 AM" 9 5 76 1019 2.6 "North (360°)" 28.8 46.8 "" "" "Overcast"
"4564" 2015-01-06 "6:00 AM" 9 5 76 1020 2.6 "North (350°)" 28.8 46.8 "" "" "Overcast"
"4565" 2015-01-06 "6:30 AM" 9 5 76 1020 2.7 "North (360°)" 28.8 NA "" "" "Overcast"
"4566" 2015-01-06 "7:00 AM" 9 5 76 1021 2.7 "North (360°)" 28.8 NA "" "" "Overcast"
"4567" 2015-01-06 "7:30 AM" 8 5 81 1022 NA "North (360°)" 28.8 NA "" "" "Overcast"
"4568" 2015-01-06 "8:00 AM" 8 5 81 1022 4 "North (350°)" 28.8 46.8 "" "" "Overcast"
"4569" 2015-01-06 "8:30 AM" 8 4 76 1023 6 "North (360°)" 28.8 NA "" "" "Overcast"
"4570" 2015-01-06 "9:00 AM" 8 4 76 1024 6 "North (10°)" 25.3 NA "" "" "Overcast"
"4571" 2015-01-06 "9:30 AM" 7 4 81 1023 6 "North (10°)" 28.8 NA "" "" "Overcast"
"4572" 2015-01-06 "10:00 AM" 7 4 81 1024 5 "North (10°)" 25.3 NA "" "Rain" "Light Rain"
"4573" 2015-01-06 "10:30 AM" 6 3 81 1024 6 "NNE (20°)" 25.3 NA "" "" "Overcast"
"4574" 2015-01-06 "11:00 AM" 7 2 71 1023 10 "North (10°)" 28.8 NA "" "" "Overcast"
"4575" 2015-01-06 "11:30 AM" 7 1 66 1023 10 "North (360°)" 28.8 NA "" "" "Mostly Cloudy"
"4576" 2015-01-06 "12:00 PM" 7 0 61 1023 10 "North (360°)" 28.8 NA "" "" "Mostly Cloudy"
"4577" 2015-01-06 "12:30 PM" 7 -1 57 1023 10 "North (10°)" 28.8 NA "" "" "Mostly Cloudy"
"4578" 2015-01-06 "1:00 PM" 7 -1 57 1022 10 "NNE (20°)" 28.8 NA "" "" "Mostly Cloudy"
"4579" 2015-01-06 "1:30 PM" 7 -1 57 1022 10 "North (10°)" 32.3 NA "" "" "Mostly Cloudy"
"4580" 2015-01-06 "2:00 PM" 6 0 66 1022 10 "North (10°)" 28.8 NA "" "" "Mostly Cloudy"
"4581" 2015-01-06 "2:30 PM" 6 0 66 1022 10 "North (10°)" 28.8 NA "" "" "Mostly Cloudy"
"4582" 2015-01-06 "3:00 PM" 6 -1 61 1023 10 "North (10°)" 25.3 NA "" "" "Mostly Cloudy"
"4583" 2015-01-06 "3:30 PM" 6 -1 61 1023 10 "North (360°)" 25.3 NA "" "" "Mostly Cloudy"
"4584" 2015-01-06 "4:00 PM" 5 -1 65 1023 10 "NNE (20°)" 28.8 NA "" "" "Mostly Cloudy"
"4585" 2015-01-06 "4:30 PM" 5 -1 65 1023 10 "North (10°)" 28.8 NA "" "Rain" "Light Ice Pellets"
"4586" 2015-01-06 "5:00 PM" 4 0 75 1024 10 "NNE (20°)" 21.6 NA "" "Rain" "Light Ice Pellets"
"4587" 2015-01-06 "5:30 PM" 3 1 87 1024 10 "North (10°)" 14.3 NA "" "Rain" "Light Rain"
"4588" 2015-01-06 "6:00 PM" 3 1 87 1024 10 "North (360°)" 14.3 NA "" "Rain" "Light Rain"
"4589" 2015-01-06 "6:30 PM" 3 1 87 1025.1 10 "North (350°)" 14.3 NA "" "Rain" "Light Rain"
"4590" 2015-01-06 "7:00 PM" 3 1 87 1025.1 10 "North (350°)" 14.3 NA "" "Rain" "Light Rain"
"4591" 2015-01-06 "7:30 PM" 3 0 81 1025.1 10 "North (350°)" 18 NA "" "Rain" "Light Rain"
"4592" 2015-01-06 "8:00 PM" 3 0 81 1025.1 10 "North (350°)" 21.6 NA "" "Rain" "Light Rain"
"4593" 2015-01-06 "8:30 PM" 3 0 81 1025.1 10 "North (350°)" 21.6 NA "" "Rain" "Light Rain"
"4594" 2015-01-06 "9:00 PM" 3 0 81 1026.1 10 "North (350°)" 25.3 NA "" "" "Scattered Clouds"
"4595" 2015-01-06 "9:30 PM" 3 0 81 1026.1 NA "North (350°)" 14.3 NA "" "" "Clear"
"4596" 2015-01-06 "10:00 PM" 3 0 81 1026.1 NA "North (350°)" 18 NA "" "" "Clear"
"4597" 2015-01-06 "10:30 PM" 3 0 81 1026.1 NA "North (360°)" 14.3 NA "" "" "Clear"
"4598" 2015-01-06 "11:00 PM" 3 -1 75 1026.1 NA "North (350°)" 18 NA "" "" "Clear"
"4599" 2015-01-06 "11:30 PM" 3 -1 75 1026.1 NA "North (350°)" 18 NA "" "" "Clear"
"4600" 2015-01-05 "12:00 AM" 10 4 66 1016.3 8 "East (90°)" 7.2 NA "" "" ""
"4601" 2015-01-05 "12:30 AM" 9 4 71 1016.3 NA "ESE (120°)" 7.2 NA "" "" "Clear"
"4602" 2015-01-05 "1:00 AM" 10 4 66 1016.3 NA "SE (130°)" 10.8 NA "" "" "Clear"
"4603" 2015-01-05 "1:30 AM" 10 4 66 1016.3 NA "ESE (120°)" 14.3 NA "" "" "Clear"
"4604" 2015-01-05 "2:00 AM" 10 6 76 1015.2 NA "SE (130°)" 18 NA "" "" "Clear"
"4605" 2015-01-05 "2:30 AM" 10 7 82 1015.2 NA "SE (130°)" 18 NA "" "" "Clear"
"4606" 2015-01-05 "3:00 AM" 10 8 87 1015.2 NA "SE (140°)" 10.8 NA "" "" "Clear"
"4607" 2015-01-05 "3:30 AM" 10 9 94 1015.2 6.9 "SE (130°)" 10.8 NA "" "" ""
"4608" 2015-01-05 "4:00 AM" 10 9 94 1014.2 6 "SSE (150°)" 10.8 NA "" "" ""
"4609" 2015-01-05 "4:30 AM" 11 10 94 1014.2 6 "SE (140°)" 10.8 NA "" "" "Partly Cloudy"
"4610" 2015-01-05 "5:00 AM" 11 10 94 1014.2 4 "SSE (150°)" 10.8 NA "" "" "Mostly Cloudy"
"4611" 2015-01-05 "5:30 AM" 12 11 94 1014.2 NA "SE (140°)" 18 NA "" "" "Mostly Cloudy"
"4612" 2015-01-05 "6:00 AM" 12 11 94 1014.2 2.6 "SSE (150°)" 21.6 NA "" "" "Mostly Cloudy"
"4613" 2015-01-05 "6:30 AM" 12 11 94 1014.2 1.4 "SSE (150°)" 18 NA "" "" "Mostly Cloudy"
"4614" 2015-01-05 "7:00 AM" 12 11 94 1014.2 1 "SSE (150°)" 18 NA "" "" "Overcast"
"4615" 2015-01-05 "7:30 AM" 12 11 94 1014.2 1 "SSE (150°)" 18 NA "" "Fog" "Fog"
"4616" 2015-01-05 "8:00 AM" 12 12 100 1014.2 1.6 "SSE (150°)" 14.3 NA "" "" "Mostly Cloudy"
"4617" 2015-01-05 "8:30 AM" 12 12 100 1014.2 2.4 "SSE (160°)" 14.3 NA "" "" "Mostly Cloudy"
"4618" 2015-01-05 "9:00 AM" 13 13 100 1014.2 2.6 "SSE (150°)" 14.3 NA "" "" "Partly Cloudy"
"4619" 2015-01-05 "9:30 AM" 15 11 77 1014.2 3.5 "SSE (160°)" 21.6 NA "" "" "Mist"
"4620" 2015-01-05 "10:00 AM" 16 10 68 1014.2 6.9 "South (170°)" 21.6 NA "" "" ""
"4621" 2015-01-05 "10:30 AM" 18 8 52 1013.2 8 "South (190°)" 18 NA "" "" ""
"4622" 2015-01-05 "11:00 AM" 18 8 52 1013.2 NA "South (190°)" 21.6 NA "" "" "Clear"
"4623" 2015-01-05 "11:30 AM" 19 6 43 1012.2 NA "South (190°)" 25.3 NA "" "" "Clear"
"4624" 2015-01-05 "12:00 PM" 20 6 40 1011.2 NA "South (190°)" 21.6 NA "" "" "Clear"
"4625" 2015-01-05 "12:30 PM" 19 6 43 1011.2 NA "SSW (210°)" 18 NA "" "" "Clear"
"4626" 2015-01-05 "1:00 PM" 19 5 40 1011.2 NA "SW (220°)" 14.3 NA "" "" "Clear"
"4627" 2015-01-05 "1:30 PM" 19 5 40 1011.2 NA "SSW (200°)" 14.3 NA "" "" "Clear"
"4628" 2015-01-05 "2:00 PM" 19 5 40 1011.2 NA "SSW (210°)" 10.8 NA "" "" "Clear"
"4629" 2015-01-05 "2:30 PM" 19 5 40 1010.2 NA "SSW (210°)" 10.8 NA "" "" "Clear"
"4630" 2015-01-05 "3:00 PM" 18 5 42 1011.2 NA "SW (230°)" 10.8 NA "" "" "Clear"
"4631" 2015-01-05 "3:30 PM" 18 3 37 1011.2 NA "WSW (240°)" 10.8 NA "" "" "Clear"
"4632" 2015-01-05 "4:00 PM" 17 3 39 1011.2 NA "WSW (240°)" 10.8 NA "" "" "Clear"
"4633" 2015-01-05 "4:30 PM" 17 4 42 1011.2 6.9 "West (270°)" 10.8 NA "" "" ""
"4634" 2015-01-05 "5:00 PM" 16 3 42 1011.2 6 "West (280°)" 10.8 NA "" "" ""
"4635" 2015-01-05 "5:30 PM" 16 3 42 1012.2 6 "WNW (290°)" 7.2 NA "" "" ""
"4636" 2015-01-05 "6:00 PM" 16 3 42 1012.2 6 "WNW (290°)" 10.8 NA "" "" ""
"4637" 2015-01-05 "6:30 PM" 16 4 45 1012.2 6 "WNW (290°)" 10.8 NA "" "" ""
"4638" 2015-01-05 "7:00 PM" 16 4 45 1012.2 6 "West (270°)" 7.2 NA "" "" ""
"4639" 2015-01-05 "7:30 PM" 15 4 48 1013.2 6 "WNW (290°)" 7.2 NA "" "" "Overcast"
"4640" 2015-01-05 "8:00 PM" 15 4 48 1013.2 6 "Variable" 3.5 NA "" "" "Overcast"
"4641" 2015-01-05 "8:30 PM" 15 5 51 1013.2 6 "WSW (240°)" 7.2 NA "" "" "Overcast"
"4642" 2015-01-05 "9:00 PM" 15 8 63 1013.2 6 "West (270°)" 10.8 NA "" "" "Overcast"
"4643" 2015-01-05 "9:30 PM" 15 7 59 1013.2 6 "West (260°)" 10.8 NA "" "" "Overcast"
"4644" 2015-01-05 "10:00 PM" 15 8 63 1014.2 6 "West (280°)" 14.3 NA "" "" ""
"4645" 2015-01-05 "10:30 PM" 14 8 67 1014.2 6 "WNW (290°)" 21.6 NA "" "Rain" "Light Rain"
"4646" 2015-01-05 "11:00 PM" 14 8 67 1014.2 6 "WNW (290°)" 18 NA "" "" ""
"4647" 2015-01-05 "11:30 PM" 14 7 63 1015.2 6 "WNW (300°)" 18 NA "" "" ""
"4648" 2015-01-04 "12:00 AM" 6 3 81 1017.9 NA "SSE (150°)" 3.5 NA "" "" "Clear"
"4649" 2015-01-04 "12:30 AM" 6 3 81 1017.9 NA "SSE (160°)" 7.2 NA "" "" "Clear"
"4650" 2015-01-04 "1:00 AM" 6 3 81 1017.9 NA "SSE (150°)" 7.2 NA "" "" "Clear"
"4651" 2015-01-04 "1:30 AM" 6 3 81 1017.9 NA "SSE (160°)" 3.5 NA "" "" "Clear"
"4652" 2015-01-04 "2:00 AM" 5 2 81 1017.9 NA "Calm" NA NA "" "" "Clear"
"4653" 2015-01-04 "2:30 AM" 3 1 87 1017.9 NA "South (170°)" 3.5 NA "" "" "Clear"
"4654" 2015-01-04 "3:00 AM" 4 3 93 1017.9 8 "SSE (160°)" 3.5 NA "" "" ""
"4655" 2015-01-04 "3:30 AM" 4 2 87 1017.3 8 "SSE (150°)" 3.5 NA "" "" ""
"4656" 2015-01-04 "4:00 AM" 3 1 87 1017.3 8 "Calm" NA NA "" "" ""
"4657" 2015-01-04 "4:30 AM" 3 1 87 1017.3 6.9 "Calm" NA NA "" "" ""
"4658" 2015-01-04 "5:00 AM" 3 2 93 1017.3 5 "Calm" NA NA "" "" "Mist"
"4659" 2015-01-04 "5:30 AM" 3 2 93 1017.3 5 "Calm" NA NA "" "" "Mist"
"4660" 2015-01-04 "6:00 AM" 2 1 93 1017.3 5 "SSE (160°)" 3.5 NA "" "" "Mist"
"4661" 2015-01-04 "6:30 AM" 2 1 93 1017.3 4 "SSE (150°)" 3.5 NA "" "" "Mist"
"4662" 2015-01-04 "7:00 AM" 3 2 93 1017.9 3.1 "SSE (160°)" 3.5 NA "" "" "Mist"
"4663" 2015-01-04 "7:30 AM" 3 2 93 1017.9 2.7 "SSE (160°)" 3.5 NA "" "" "Mist"
"4664" 2015-01-04 "8:00 AM" 5 4 93 1019 2.7 "SSE (160°)" 3.5 NA "" "" "Mist"
"4665" 2015-01-04 "8:30 AM" 8 6 87 1019 2.7 "South (180°)" 3.5 NA "" "" "Mist"
"4666" 2015-01-04 "9:00 AM" 10 4 66 1019 2.7 "SSW (200°)" 3.5 NA "" "" "Haze"
"4667" 2015-01-04 "9:30 AM" 11 2 54 1019 2.7 "SSW (200°)" 7.2 NA "" "" "Haze"
"4668" 2015-01-04 "10:00 AM" 13 2 47 1019 2.7 "SSW (200°)" 7.2 NA "" "" "Haze"
"4669" 2015-01-04 "10:30 AM" 13 1 44 1017.9 2.7 "Variable" 3.5 NA "" "" "Haze"
"4670" 2015-01-04 "11:00 AM" 15 1 39 1017.9 3.1 "Variable" 3.5 NA "" "" "Haze"
"4671" 2015-01-04 "11:30 AM" 15 0 36 1017.9 3.1 "Variable" 3.5 NA "" "" "Haze"
"4672" 2015-01-04 "12:00 PM" 16 -1 31 1017.9 3.1 "Variable" 3.5 NA "" "" "Haze"
"4673" 2015-01-04 "12:30 PM" 17 -1 30 1017.3 3.5 "Variable" 7.2 NA "" "" "Haze"
"4674" 2015-01-04 "1:00 PM" 18 -2 26 1017.3 3.5 "Variable" 3.5 NA "" "" "Haze"
"4675" 2015-01-04 "1:30 PM" 18 -4 22 1017.3 4.5 "SSE (150°)" 7.2 NA "" "" "Haze"
"4676" 2015-01-04 "2:00 PM" 18 -4 22 1017.3 6 "ESE (120°)" 7.2 NA "" "" ""
"4677" 2015-01-04 "2:30 PM" 18 -4 22 1017.3 6.9 "Variable" 3.5 NA "" "" ""
"4678" 2015-01-04 "3:00 PM" 18 -3 24 1017.3 6.9 "East (80°)" 7.2 NA "" "" ""
"4679" 2015-01-04 "3:30 PM" 18 -4 22 1017.3 6.9 "East (100°)" 7.2 NA "" "" ""
"4680" 2015-01-04 "4:00 PM" 18 -4 22 1017.3 6.9 "East (100°)" 7.2 NA "" "" ""
"4681" 2015-01-04 "4:30 PM" 17 -3 26 1016.3 6.9 "East (100°)" 10.8 NA "" "" ""
"4682" 2015-01-04 "5:00 PM" 16 -2 29 1016.3 6.9 "East (100°)" 14.3 NA "" "" ""
"4683" 2015-01-04 "5:30 PM" 15 -5 25 1017.3 6.9 "East (100°)" 10.8 NA "" "" ""
"4684" 2015-01-04 "6:00 PM" 14 -4 29 1017.3 8 "ESE (110°)" 7.2 NA "" "" ""
"4685" 2015-01-04 "6:30 PM" 13 -2 36 1017.3 NA "ESE (110°)" 10.8 NA "" "" "Clear"
"4686" 2015-01-04 "7:00 PM" 12 0 44 1017.3 NA "ESE (110°)" 10.8 NA "" "" "Clear"
"4687" 2015-01-04 "7:30 PM" 12 1 47 1017.3 8 "ESE (120°)" 10.8 NA "" "" ""
"4688" 2015-01-04 "8:00 PM" 11 1 50 1017.3 6.9 "ESE (110°)" 10.8 NA "" "" ""
"4689" 2015-01-04 "8:30 PM" 11 1 50 1017.3 6.9 "ESE (120°)" 7.2 NA "" "" ""
"4690" 2015-01-04 "9:00 PM" 10 1 54 1017.3 6 "East (100°)" 7.2 NA "" "" ""
"4691" 2015-01-04 "9:30 PM" 10 1 54 1017.3 6 "ESE (120°)" 7.2 NA "" "" ""
"4692" 2015-01-04 "10:00 PM" 10 1 54 1017.3 6 "ESE (120°)" 10.8 NA "" "" ""
"4693" 2015-01-04 "10:30 PM" 10 2 58 1016.3 6 "ESE (120°)" 10.8 NA "" "" ""
"4694" 2015-01-04 "11:00 PM" 10 3 62 1016.3 6 "ESE (110°)" 7.2 NA "" "" ""
"4695" 2015-01-04 "11:30 PM" 9 4 71 1016.3 6 "ESE (110°)" 7.2 NA "" "" ""
"4696" 2015-01-03 "12:00 AM" 2 -4 65 1029.1 NA "South (180°)" 7.2 NA "" "" "Clear"
"4697" 2015-01-03 "12:30 AM" 2 -4 65 1029.1 NA "WSW (240°)" 7.2 NA "" "" "Clear"
"4698" 2015-01-03 "1:00 AM" 3 -3 65 1029.1 NA "Variable" 3.5 NA "" "" "Clear"
"4699" 2015-01-03 "1:30 AM" 3 -3 65 1029.1 NA "SE (140°)" 3.5 NA "" "" "Clear"
"4700" 2015-01-03 "2:00 AM" 3 -4 60 1028.1 NA "East (90°)" 7.2 NA "" "" "Clear"
"4701" 2015-01-03 "2:30 AM" 3 -5 56 1028.1 NA "Variable" 3.5 NA "" "" "Clear"
"4702" 2015-01-03 "3:00 AM" 3 -4 60 1027.1 NA "ESE (120°)" 7.2 NA "" "" "Clear"
"4703" 2015-01-03 "3:30 AM" 3 -4 60 1027.1 NA "SE (130°)" 3.5 NA "" "" "Clear"
"4704" 2015-01-03 "4:00 AM" 3 -5 56 1027.1 NA "Calm" NA NA "" "" "Clear"
"4705" 2015-01-03 "4:30 AM" 4 -5 52 1027.1 NA "East (100°)" 7.2 NA "" "" "Clear"
"4706" 2015-01-03 "5:00 AM" 4 -5 52 1026.1 NA "ESE (120°)" 7.2 NA "" "" "Clear"
"4707" 2015-01-03 "5:30 AM" 3 -5 56 1027.1 NA "SSE (150°)" 7.2 NA "" "" "Clear"
"4708" 2015-01-03 "6:00 AM" 2 -5 60 1027.1 NA "Variable" 3.5 NA "" "" "Clear"
"4709" 2015-01-03 "6:30 AM" 1 -5 65 1026.1 NA "SE (140°)" 7.2 NA "" "" "Clear"
"4710" 2015-01-03 "7:00 AM" 3 -4 60 1026.1 NA "SE (140°)" 10.8 NA "" "" "Clear"
"4711" 2015-01-03 "7:30 AM" 3 -3 65 1026.1 NA "SSE (150°)" 7.2 NA "" "" "Clear"
"4712" 2015-01-03 "8:00 AM" 4 -3 61 1025.1 NA "SE (140°)" 10.8 NA "" "" "Clear"
"4713" 2015-01-03 "8:30 AM" 5 -2 61 1026.1 NA "SSE (150°)" 10.8 NA "" "" "Clear"
"4714" 2015-01-03 "9:00 AM" 6 -1 61 1026.1 NA "SE (140°)" 10.8 NA "" "" "Clear"
"4715" 2015-01-03 "9:30 AM" 7 -1 57 1026.1 NA "SSE (150°)" 14.3 NA "" "" "Clear"
"4716" 2015-01-03 "10:00 AM" 7 -1 57 1026.1 NA "SSE (150°)" 18 NA "" "" "Clear"
"4717" 2015-01-03 "10:30 AM" 7 0 61 1025.1 NA "SSE (150°)" 21.6 NA "" "" "Clear"
"4718" 2015-01-03 "11:00 AM" 8 -1 53 1024 NA "SSE (150°)" 18 NA "" "" "Clear"
"4719" 2015-01-03 "11:30 AM" 9 -3 43 1024 NA "SSE (150°)" 18 NA "" "" "Clear"
"4720" 2015-01-03 "12:00 PM" 10 -4 37 1023 NA "South (170°)" 21.6 NA "" "" "Clear"
"4721" 2015-01-03 "12:30 PM" 10 -3 40 1022 NA "SSE (150°)" 18 NA "" "" "Clear"
"4722" 2015-01-03 "1:00 PM" 11 -4 35 1022 NA "SSE (160°)" 18 NA "" "" "Clear"
"4723" 2015-01-03 "1:30 PM" 12 -4 33 1021 NA "South (170°)" 18 NA "" "" "Clear"
"4724" 2015-01-03 "2:00 PM" 12 -4 33 1021 NA "SSE (150°)" 18 NA "" "" "Clear"
"4725" 2015-01-03 "2:30 PM" 12 -4 33 1020 NA "South (170°)" 18 NA "" "" "Clear"
"4726" 2015-01-03 "3:00 PM" 12 -5 30 1020 NA "South (170°)" 18 NA "" "" "Clear"
"4727" 2015-01-03 "3:30 PM" 12 -4 33 1020 NA "South (170°)" 18 NA "" "" "Clear"
"4728" 2015-01-03 "4:00 PM" 11 -3 38 1020 NA "SSE (150°)" 14.3 NA "" "" "Clear"
"4729" 2015-01-03 "4:30 PM" 11 -3 38 1020 8 "SSE (150°)" 10.8 NA "" "" ""
"4730" 2015-01-03 "5:00 PM" 10 -3 40 1020 6.9 "SE (140°)" 10.8 NA "" "" ""
"4731" 2015-01-03 "5:30 PM" 9 -3 43 1020 6.9 "SSE (150°)" 10.8 NA "" "" ""
"4732" 2015-01-03 "6:00 PM" 8 -3 46 1020 NA "SSE (160°)" 10.8 NA "" "" "Clear"
"4733" 2015-01-03 "6:30 PM" 8 -2 50 1020 NA "SE (140°)" 10.8 NA "" "" "Clear"
"4734" 2015-01-03 "7:00 PM" 8 -1 53 1020 NA "SSE (150°)" 7.2 NA "" "" "Clear"
"4735" 2015-01-03 "7:30 PM" 8 0 57 1019 NA "SSE (150°)" 10.8 NA "" "" "Clear"
"4736" 2015-01-03 "8:00 PM" 7 0 61 1019 NA "SSE (150°)" 10.8 NA "" "" "Clear"
"4737" 2015-01-03 "8:30 PM" 7 1 66 1019 NA "SSE (160°)" 10.8 NA "" "" "Clear"
"4738" 2015-01-03 "9:00 PM" 7 2 71 1019 NA "SSE (150°)" 10.8 NA "" "" "Clear"
"4739" 2015-01-03 "9:30 PM" 6 2 76 1019 NA "SSE (150°)" 7.2 NA "" "" "Clear"
"4740" 2015-01-03 "10:00 PM" 6 2 76 1019 NA "South (170°)" 7.2 NA "" "" "Clear"
"4741" 2015-01-03 "10:30 PM" 7 3 76 1017.9 NA "SSE (150°)" 7.2 NA "" "" "Clear"
"4742" 2015-01-03 "11:00 PM" 7 3 76 1017.9 NA "SE (140°)" 7.2 NA "" "" "Clear"
"4743" 2015-01-03 "11:30 PM" 6 2 76 1017.9 NA "SSE (150°)" 7.2 NA "" "" "Clear"
"4744" 2015-01-02 "12:00 AM" 0 -9 51 1032.2 6.9 "SSW (200°)" 3.5 NA "" "" ""
"4745" 2015-01-02 "12:30 AM" -1 -8 60 1031.2 6.9 "Calm" NA NA "" "" ""
"4746" 2015-01-02 "1:00 AM" -1 -8 60 1032.2 6.9 "Variable" 3.5 NA "" "" ""
"4747" 2015-01-02 "1:30 AM" -2 -8 64 1031.2 6.9 "SW (230°)" 3.5 NA "" "" ""
"4748" 2015-01-02 "2:00 AM" -1 -9 55 1031.2 6.9 "Variable" 3.5 NA "" "" ""
"4749" 2015-01-02 "2:30 AM" -2 -9 59 1031.2 6.9 "Calm" NA NA "" "" ""
"4750" 2015-01-02 "3:00 AM" -2 -8 64 1031.2 6.9 "Variable" 3.5 NA "" "" ""
"4751" 2015-01-02 "3:30 AM" -3 -7 74 1031.2 6.9 "SW (230°)" 7.2 NA "" "" ""
"4752" 2015-01-02 "4:00 AM" -2 -8 64 1031.2 6.9 "Variable" 3.5 NA "" "" ""
"4753" 2015-01-02 "4:30 AM" -2 -8 64 1030.1 6.9 "Calm" NA NA "" "" ""
"4754" 2015-01-02 "5:00 AM" -2 -8 64 1030.1 6.9 "Calm" NA NA "" "" ""
"4755" 2015-01-02 "5:30 AM" -3 -9 64 1030.1 6.9 "Variable" 3.5 NA "" "" ""
"4756" 2015-01-02 "6:00 AM" -3 -8 69 1031.2 6.9 "Calm" NA NA "" "" ""
"4757" 2015-01-02 "6:30 AM" -4 -8 74 1031.2 NA "SSW (200°)" 7.2 NA "" "" "Clear"
"4758" 2015-01-02 "7:00 AM" -2 -7 69 1031.2 NA "SSW (210°)" 3.5 NA "" "" "Clear"
"4759" 2015-01-02 "7:30 AM" -1 -8 60 1031.2 NA "Calm" NA NA "" "" "Clear"
"4760" 2015-01-02 "8:00 AM" 1 -7 56 1032.2 NA "Calm" NA NA "" "" "Clear"
"4761" 2015-01-02 "8:30 AM" 3 -8 45 1032.2 NA "Variable" 3.5 NA "" "" "Clear"
"4762" 2015-01-02 "9:00 AM" 3 -9 41 1032.2 NA "WSW (250°)" 7.2 NA "" "" "Clear"
"4763" 2015-01-02 "9:30 AM" 5 -9 36 1032.2 NA "SW (230°)" 7.2 NA "" "" "Clear"
"4764" 2015-01-02 "10:00 AM" 5 -10 33 1032.2 NA "West (260°)" 10.8 NA "" "" "Clear"
"4765" 2015-01-02 "10:30 AM" 6 -11 29 1032.2 NA "West (260°)" 10.8 NA "" "" "Clear"
"4766" 2015-01-02 "11:00 AM" 6 -12 27 1031.2 NA "West (280°)" 10.8 NA "" "" "Clear"
"4767" 2015-01-02 "11:30 AM" 7 -12 25 1031.2 NA "Variable" 7.2 NA "" "" "Clear"
"4768" 2015-01-02 "12:00 PM" 7 -12 25 1030.1 NA "WNW (300°)" 10.8 NA "" "" "Clear"
"4769" 2015-01-02 "12:30 PM" 8 -12 23 1029.1 NA "Variable" 10.8 NA "" "" "Clear"
"4770" 2015-01-02 "1:00 PM" 8 -12 23 1029.1 NA "North (350°)" 7.2 NA "" "" "Clear"
"4771" 2015-01-02 "1:30 PM" 9 -11 24 1029.1 NA "NNW (340°)" 14.3 NA "" "" "Clear"
"4772" 2015-01-02 "2:00 PM" 9 -13 20 1028.1 NA "NW (320°)" 10.8 NA "" "" "Clear"
"4773" 2015-01-02 "2:30 PM" 9 -13 20 1028.1 NA "NW (320°)" 14.3 NA "" "" "Clear"
"4774" 2015-01-02 "3:00 PM" 9 -14 19 1029.1 NA "Variable" 7.2 NA "" "" "Clear"
"4775" 2015-01-02 "3:30 PM" 9 -13 20 1029.1 NA "NNE (20°)" 14.3 NA "" "" "Clear"
"4776" 2015-01-02 "4:00 PM" 8 -12 23 1029.1 NA "North (360°)" 10.8 NA "" "" "Clear"
"4777" 2015-01-02 "4:30 PM" 7 -10 29 1029.1 NA "North (10°)" 10.8 NA "" "" "Clear"
"4778" 2015-01-02 "5:00 PM" 7 -10 29 1029.1 NA "NNE (30°)" 14.3 NA "" "" "Clear"
"4779" 2015-01-02 "5:30 PM" 6 -10 31 1029.1 NA "NNE (20°)" 14.3 NA "" "" "Clear"
"4780" 2015-01-02 "6:00 PM" 6 -10 31 1029.1 NA "NE (40°)" 10.8 NA "" "" "Clear"
"4781" 2015-01-02 "6:30 PM" 6 -10 31 1030.1 NA "NNE (30°)" 7.2 NA "" "" "Clear"
"4782" 2015-01-02 "7:00 PM" 6 -10 31 1030.1 NA "ENE (60°)" 7.2 NA "" "" "Clear"
"4783" 2015-01-02 "7:30 PM" 6 -9 34 1030.1 NA "NE (40°)" 7.2 NA "" "" "Clear"
"4784" 2015-01-02 "8:00 PM" 5 -9 36 1030.1 NA "NE (50°)" 7.2 NA "" "" "Clear"
"4785" 2015-01-02 "8:30 PM" 5 -8 39 1030.1 NA "NNE (30°)" 10.8 NA "" "" "Clear"
"4786" 2015-01-02 "9:00 PM" 5 -7 42 1030.1 NA "ENE (60°)" 7.2 NA "" "" "Clear"
"4787" 2015-01-02 "9:30 PM" 4 -7 45 1030.1 NA "SE (140°)" 7.2 NA "" "" "Clear"
"4788" 2015-01-02 "10:00 PM" 5 -5 49 1029.1 NA "SE (140°)" 10.8 NA "" "" "Clear"
"4789" 2015-01-02 "10:30 PM" 4 -5 52 1029.1 NA "ESE (120°)" 7.2 NA "" "" "Clear"
"4790" 2015-01-02 "11:00 PM" 4 -5 52 1029.1 NA "ESE (110°)" 3.5 NA "" "" "Clear"
"4791" 2015-01-02 "11:30 PM" 2 -5 60 1029.1 NA "South (180°)" 3.5 NA "" "" "Clear"
